{
  "type" : "FeatureCollection",
  "features" : [ {
    "type" : "Feature",
    "properties" : {
      "osm_id" : 77601,
      "admin_level" : "6",
      "country_code" : "RE",
      "name" : "La Réunion",
      "population" : "861210",
      "wikidata" : "Q17070",
      "wikipedia" : "fr:La Réunion",
      "name_props" : {
        "name:af" : "Réunion",
        "name:ak" : "Reyuniɔn",
        "name:am" : "ሪዩኒየን",
        "name:ar" : "ريونيون",
        "name:az" : "Reyunion",
        "name:be" : "Руньён",
        "name:bg" : "Реюниън",
        "name:bm" : "Reyuɲɔŋ",
        "name:bn" : "রিইউনিয়ন",
        "name:br" : "Ar Reünion",
        "name:bs" : "Rejunion",
        "name:ca" : "Illa de la Reunió",
        "name:cs" : "Réunion",
        "name:cy" : "Réunion",
        "name:da" : "Reunion",
        "name:de" : "Réunion",
        "name:dv" : "ރިޔޫނިއަން",
        "name:dz" : "རེ་ཡུ་ནི་ཡོན",
        "name:ee" : "Réunion nutome",
        "name:el" : "Ρεϊνιόν",
        "name:en" : "Réunion",
        "name:eo" : "Reunio",
        "name:es" : "La Reunión",
        "name:et" : "Réunion",
        "name:eu" : "Reunion",
        "name:fa" : "رئونیون",
        "name:ff" : "Rewiñoo",
        "name:fi" : "Réunion",
        "name:fo" : "Réunion",
        "name:fr" : "La Réunion",
        "name:ga" : "Réunion",
        "name:gd" : "Réunion",
        "name:gl" : "Reunión",
        "name:gu" : "રીયુનિયન",
        "name:ha" : "Rawuniyan",
        "name:he" : "ראוניון",
        "name:hi" : "रियूनियन",
        "name:hr" : "Reunion",
        "name:hu" : "Réunion",
        "name:hy" : "Ռեյունյոն",
        "name:ia" : "Reunion",
        "name:id" : "Réunion",
        "name:io" : "Reunion",
        "name:is" : "Réunion",
        "name:it" : "Riunione",
        "name:ja" : "レユニオン島",
        "name:jv" : "Réunion",
        "name:ka" : "რეიუნიონი",
        "name:ki" : "Riyunioni",
        "name:kk" : "Реюньон",
        "name:kl" : "Réunion",
        "name:km" : "រ៉េអ៊ុយ៉ុង",
        "name:kn" : "ರೀಯೂನಿಯನ್",
        "name:ko" : "리유니온",
        "name:ks" : "رِیوٗنِیَن",
        "name:ku" : "Réunion",
        "name:kw" : "Réunion",
        "name:la" : "Reunio",
        "name:lb" : "Departement La Réunion",
        "name:lg" : "Leyunyoni",
        "name:ln" : "Lenyo",
        "name:lo" : "ເຣອູນິຍົງ",
        "name:lt" : "Reunionas",
        "name:lv" : "Reinjona",
        "name:mg" : "Larenion",
        "name:mk" : "Реинион",
        "name:ml" : "റീയൂണിയൻ",
        "name:mn" : "Реюньон",
        "name:mr" : "रियूनियन",
        "name:ms" : "Réunion",
        "name:mt" : "Réunion",
        "name:ne" : "रियुनियन",
        "name:nl" : "Réunion",
        "name:nn" : "Réunion",
        "name:no" : "Réunion",
        "name:oc" : "Reünion",
        "name:or" : "ରିୟୁନିଅନ୍",
        "name:os" : "Реюньон",
        "name:pa" : "ਰੇਊਨੀਓਂ",
        "name:pl" : "Reunion",
        "name:pt" : "Reunião",
        "name:qu" : "Riyunyun",
        "name:rm" : "Réunion",
        "name:rn" : "Amazinga ya Reyiniyo",
        "name:ro" : "Reunion",
        "name:ru" : "Реюньон",
        "name:rw" : "Reyiniyo",
        "name:se" : "Réunion",
        "name:sg" : "Reinïon",
        "name:si" : "රීයුනියන්",
        "name:sk" : "Reunion",
        "name:sl" : "Reunion",
        "name:sn" : "Réunion",
        "name:so" : "Réunion",
        "name:sr" : "Реинион",
        "name:su" : "Réunion",
        "name:sv" : "Réunion",
        "name:sw" : "Riyunioni",
        "name:ta" : "ரீயூனியன்",
        "name:te" : "రియూనియన్",
        "name:th" : "เรอูนียง",
        "name:ti" : "ሪዩኒየን",
        "name:tl" : "Réunion",
        "name:to" : "Liʻiunioni",
        "name:tr" : "Réunion",
        "name:uk" : "Реюньйон",
        "name:ur" : "ری یونین",
        "name:vi" : "Réunion",
        "name:wa" : "Iye del Reyunion",
        "name:wo" : "Reiñõo",
        "name:yo" : "Orílẹ́ède Riuniyan",
        "name:zh" : "留尼汪",
        "name:zu" : "i-Réunion",
        "name:ast" : "Reunión",
        "name:fur" : "Reunion",
        "name:kab" : "Timlilit",
        "name:ksh" : "Rehunjohn",
        "name:rcf" : "La Rényon",
        "name:zh-Latn-pinyin" : "Liúníwāng"
      },
      "parent_boundary_id" : 2470060
    },
    "geometry" : {
      "type" : "MultiPolygon",
      "coordinates" : [ [ [ [ 55.568242, -21.3776946 ], [ 55.5672895, -21.3774786 ], [ 55.5667287, -21.3781723 ], [ 55.5678762, -21.3766278 ], [ 55.5683979, -21.3758442 ], [ 55.5690383, -21.3760782 ], [ 55.568566, -21.3767854 ], [ 55.568242, -21.3776946 ] ] ], [ [ [ 55.2171042, -21.042021 ], [ 55.2164268, -21.0390355 ], [ 55.2171785, -21.036341 ], [ 55.2179085, -21.0362148 ], [ 55.2214987, -21.032248 ], [ 55.2252281, -21.0288532 ], [ 55.2256674, -21.0270014 ], [ 55.2252918, -21.0264477 ], [ 55.2270166, -21.0269048 ], [ 55.2294208, -21.0231512 ], [ 55.2327207, -21.0215125 ], [ 55.2336075, -21.0205132 ], [ 55.2337031, -21.0190753 ], [ 55.2352379, -21.0178679 ], [ 55.2360941, -21.0183617 ], [ 55.2363859, -21.0175705 ], [ 55.2372472, -21.0184184 ], [ 55.237506, -21.0175623 ], [ 55.2380672, -21.0183392 ], [ 55.2402874, -21.0190241 ], [ 55.2467599, -21.0200303 ], [ 55.2522214, -21.0175941 ], [ 55.2546843, -21.0166119 ], [ 55.2653387, -21.0106914 ], [ 55.2715943, -21.0057815 ], [ 55.2759817, -21.0010602 ], [ 55.2788828, -20.9962203 ], [ 55.2804244, -20.9900932 ], [ 55.280423, -20.9899805 ], [ 55.2804304, -20.9894536 ], [ 55.2804406, -20.9893028 ], [ 55.2805065, -20.9889487 ], [ 55.2825092, -20.9787018 ], [ 55.2825399, -20.97413 ], [ 55.2820245, -20.9707297 ], [ 55.2772929, -20.9581283 ], [ 55.2772401, -20.9578463 ], [ 55.2773561, -20.9535157 ], [ 55.2791153, -20.951063 ], [ 55.2808854, -20.9464896 ], [ 55.2816972, -20.9404582 ], [ 55.2814371, -20.937284 ], [ 55.2830601, -20.9370466 ], [ 55.2847508, -20.9381676 ], [ 55.2834515, -20.9382282 ], [ 55.2829757, -20.9417862 ], [ 55.2824256, -20.9420195 ], [ 55.282053, -20.945201 ], [ 55.2836701, -20.944321 ], [ 55.2840137, -20.9427003 ], [ 55.2830791, -20.9417341 ], [ 55.2836238, -20.9416004 ], [ 55.284189, -20.9385318 ], [ 55.28487, -20.9384296 ], [ 55.2855851, -20.9387132 ], [ 55.2852997, -20.9404087 ], [ 55.2864333, -20.9405785 ], [ 55.286717, -20.9388778 ], [ 55.287325, -20.9386996 ], [ 55.2868769, -20.9404299 ], [ 55.2878312, -20.9405778 ], [ 55.2881135, -20.9389245 ], [ 55.2874135, -20.9389507 ], [ 55.2881676, -20.9369745 ], [ 55.2869118, -20.9358063 ], [ 55.2871106, -20.9348003 ], [ 55.2894248, -20.9350697 ], [ 55.289506, -20.9345519 ], [ 55.2878615, -20.9341514 ], [ 55.2880598, -20.9333531 ], [ 55.2895088, -20.9335921 ], [ 55.2896999, -20.9330377 ], [ 55.2864017, -20.9323177 ], [ 55.2865673, -20.9313244 ], [ 55.2880258, -20.9315326 ], [ 55.2881548, -20.9307346 ], [ 55.287662, -20.9312079 ], [ 55.2876931, -20.9306648 ], [ 55.2871969, -20.9311403 ], [ 55.2872271, -20.930597 ], [ 55.2867316, -20.9310736 ], [ 55.2867651, -20.9305296 ], [ 55.2857693, -20.9305422 ], [ 55.28577339999999, -20.9339185 ], [ 55.2847608, -20.9341415 ], [ 55.2846368, -20.9349005 ], [ 55.2863547, -20.9348097 ], [ 55.286407, -20.935793 ], [ 55.2822813, -20.9359645 ], [ 55.2831625, -20.9356382 ], [ 55.2840502, -20.9335173 ], [ 55.2834956, -20.9271728 ], [ 55.2840333, -20.9257291 ], [ 55.2888674, -20.9233896 ], [ 55.3006726, -20.9281882 ], [ 55.3053589, -20.9291503 ], [ 55.3081742, -20.9293908 ], [ 55.3180447, -20.9283326 ], [ 55.3191691, -20.9270018 ], [ 55.3187056, -20.9289338 ], [ 55.3194385, -20.9290604 ], [ 55.3193855, -20.9312173 ], [ 55.31295449999999, -20.9317339 ], [ 55.3130977, -20.9329625 ], [ 55.3194609, -20.9327578 ], [ 55.322807, -20.9354065 ], [ 55.3250658, -20.9350162 ], [ 55.3250385, -20.9294033 ], [ 55.3226921, -20.9290726 ], [ 55.3232889, -20.9284769 ], [ 55.3218899, -20.926184 ], [ 55.3238983, -20.9286414 ], [ 55.3303606, -20.9275658 ], [ 55.3437511, -20.922148 ], [ 55.3459646, -20.9196251 ], [ 55.3521802, -20.9114746 ], [ 55.360078, -20.9079362 ], [ 55.3636946, -20.9052865 ], [ 55.368039, -20.9002814 ], [ 55.3673196, -20.8995488 ], [ 55.3681372, -20.898607 ], [ 55.3748126, -20.8956567 ], [ 55.3756386, -20.896102 ], [ 55.3770498, -20.8951489 ], [ 55.3767386, -20.8942006 ], [ 55.3806109, -20.8905855 ], [ 55.3812137, -20.8917125 ], [ 55.3846567, -20.8905215 ], [ 55.3901686, -20.8869632 ], [ 55.3955814, -20.8815589 ], [ 55.4106951, -20.8780538 ], [ 55.42161260000001, -20.8743043 ], [ 55.4280478, -20.8746966 ], [ 55.4281309, -20.8734811 ], [ 55.4344426, -20.874416 ], [ 55.4399241, -20.8763853 ], [ 55.4447104, -20.875182 ], [ 55.4478726, -20.8720849 ], [ 55.4505006, -20.8717411 ], [ 55.4519767, -20.8722649 ], [ 55.4582565, -20.8776414 ], [ 55.4672876, -20.8831465 ], [ 55.467575, -20.8832703 ], [ 55.4679011, -20.8834108 ], [ 55.4706292, -20.8844716 ], [ 55.4729614, -20.884278 ], [ 55.4855812, -20.8858513 ], [ 55.4906951, -20.8856682 ], [ 55.497087, -20.8835483 ], [ 55.5005638, -20.8826015 ], [ 55.5036271, -20.8823327 ], [ 55.5046766, -20.8824113 ], [ 55.511033, -20.8840779 ], [ 55.5191936, -20.8879256 ], [ 55.536394, -20.8913657 ], [ 55.5372523, -20.8923921 ], [ 55.5356816, -20.891919 ], [ 55.5354756, -20.8928091 ], [ 55.5378735, -20.8936757 ], [ 55.5380426, -20.8932133 ], [ 55.536892, -20.8928819 ], [ 55.5380336, -20.8929243 ], [ 55.5375074, -20.8914219 ], [ 55.5382995, -20.8935628 ], [ 55.5413808, -20.8946213 ], [ 55.5507807, -20.8955621 ], [ 55.5551323, -20.8925792 ], [ 55.5588574, -20.8915368 ], [ 55.5611405, -20.8922825 ], [ 55.5645479, -20.8920179 ], [ 55.5683846, -20.8931646 ], [ 55.5705132, -20.8928117 ], [ 55.5751806, -20.8945104 ], [ 55.5800575, -20.8970857 ], [ 55.5832848, -20.897679 ], [ 55.5894217, -20.8959631 ], [ 55.5928206, -20.8961234 ], [ 55.5972323, -20.8984889 ], [ 55.6003307, -20.8992827 ], [ 55.6036953, -20.9020009 ], [ 55.6156379, -20.9078846 ], [ 55.6172391, -20.9088562 ], [ 55.6220417, -20.9109404 ], [ 55.6283682, -20.9106466 ], [ 55.628561, -20.9106617 ], [ 55.6286382, -20.9106678 ], [ 55.6286675, -20.9106701 ], [ 55.6289953, -20.9106958 ], [ 55.6292765, -20.9106852 ], [ 55.6293594, -20.9106935 ], [ 55.629907, -20.9108614 ], [ 55.6299371, -20.9108654 ], [ 55.6299722, -20.910882 ], [ 55.6314222, -20.9113694 ], [ 55.6400751, -20.9128596 ], [ 55.6471429, -20.9151845 ], [ 55.658155, -20.9213018 ], [ 55.6658208, -20.9258364 ], [ 55.669118, -20.9314816 ], [ 55.671285, -20.9336953 ], [ 55.6827564, -20.9439044 ], [ 55.6875856, -20.9505487 ], [ 55.6914823, -20.9582755 ], [ 55.6946296, -20.9627051 ], [ 55.6967778, -20.9645535 ], [ 55.6983099, -20.9680173 ], [ 55.6994899, -20.974033 ], [ 55.6994404, -20.9746839 ], [ 55.7004985, -20.9770542 ], [ 55.7006434, -20.9814433 ], [ 55.7006233, -20.9817126 ], [ 55.7001523, -20.986405 ], [ 55.7009077, -20.9923799 ], [ 55.7009, -21.0044633 ], [ 55.7009455, -21.0054732 ], [ 55.7010833, -21.0061752 ], [ 55.7027084, -21.0173824 ], [ 55.7051563, -21.019497 ], [ 55.7049709, -21.021272 ], [ 55.7074308, -21.0268186 ], [ 55.7085179, -21.027983 ], [ 55.7155859, -21.0304995 ], [ 55.7181301, -21.0322022 ], [ 55.7208574, -21.0351936 ], [ 55.7226112, -21.0388549 ], [ 55.7232894, -21.0393159 ], [ 55.7239716, -21.0387964 ], [ 55.7270169, -21.0456129 ], [ 55.7319313, -21.0488153 ], [ 55.7325974, -21.0500976 ], [ 55.7310853, -21.0552893 ], [ 55.7311368, -21.0586695 ], [ 55.7326807, -21.0623372 ], [ 55.7430673, -21.0764663 ], [ 55.7480455, -21.0815358 ], [ 55.7516246, -21.0838823 ], [ 55.7560621, -21.0888795 ], [ 55.7585769, -21.0925472 ], [ 55.7608765, -21.0977557 ], [ 55.7617558, -21.0992252 ], [ 55.7673419, -21.1036207 ], [ 55.7696888, -21.1051854 ], [ 55.7730107, -21.1094543 ], [ 55.7800907, -21.1218392 ], [ 55.7831013, -21.1244978 ], [ 55.7862358, -21.1257063 ], [ 55.786819, -21.1256574 ], [ 55.7883178, -21.1252684 ], [ 55.7868698, -21.1254595 ], [ 55.7864054, -21.125061 ], [ 55.7887828, -21.1249301 ], [ 55.7891801, -21.1249523 ], [ 55.7914107, -21.1247986 ], [ 55.7917852, -21.1242129 ], [ 55.7994544, -21.1270157 ], [ 55.8028713, -21.1303972 ], [ 55.803734, -21.1303289 ], [ 55.8038864, -21.1310878 ], [ 55.8070412, -21.1330363 ], [ 55.8075276, -21.1348488 ], [ 55.8100421, -21.1376364 ], [ 55.8151475, -21.1397596 ], [ 55.8172613, -21.1387432 ], [ 55.8205667, -21.1411592 ], [ 55.821703, -21.1409127 ], [ 55.8223167, -21.1424218 ], [ 55.8235329, -21.1423355 ], [ 55.8258305, -21.1434812 ], [ 55.8268833, -21.144895 ], [ 55.8258897, -21.1467875 ], [ 55.8273304, -21.148178 ], [ 55.8276705, -21.1521129 ], [ 55.829438, -21.152882 ], [ 55.829717, -21.1544722 ], [ 55.830777, -21.1546095 ], [ 55.8318465, -21.1574542 ], [ 55.8350293, -21.1603809 ], [ 55.8345598, -21.1608748 ], [ 55.8352642, -21.1615892 ], [ 55.8351276, -21.1641571 ], [ 55.8331319, -21.1654282 ], [ 55.8326598, -21.165785 ], [ 55.8336069, -21.1701957 ], [ 55.8331057, -21.1720792 ], [ 55.8339563, -21.1737267 ], [ 55.8335908, -21.1746455 ], [ 55.8343762, -21.174855 ], [ 55.8337246, -21.1750657 ], [ 55.8338701, -21.1766091 ], [ 55.8351061, -21.1782764 ], [ 55.8347983, -21.1797708 ], [ 55.8361643, -21.1811096 ], [ 55.8366505, -21.183342 ], [ 55.8318454, -21.1863196 ], [ 55.8289966, -21.1863941 ], [ 55.8269482, -21.1855923 ], [ 55.8258187, -21.1861055 ], [ 55.8256942, -21.1870828 ], [ 55.8247828, -21.1894747 ], [ 55.824718, -21.1928692 ], [ 55.8256468, -21.1950147 ], [ 55.8246839, -21.1962548 ], [ 55.8254096, -21.1972443 ], [ 55.8250346, -21.1990751 ], [ 55.8256226, -21.2002994 ], [ 55.8241675, -21.2047351 ], [ 55.8232611, -21.2051969 ], [ 55.8236539, -21.2059001 ], [ 55.8228336, -21.2059226 ], [ 55.8227895, -21.2072376 ], [ 55.8219804, -21.2071024 ], [ 55.8209879, -21.2082648 ], [ 55.8190839, -21.2084555 ], [ 55.817739, -21.209415 ], [ 55.8142177, -21.2139838 ], [ 55.8139967, -21.2154109 ], [ 55.8142767, -21.2167433 ], [ 55.8135034, -21.2173793 ], [ 55.8133111, -21.2205893 ], [ 55.8119048, -21.2222029 ], [ 55.8084749, -21.2281444 ], [ 55.8084156, -21.2284973 ], [ 55.8082113, -21.2300497 ], [ 55.8078063, -21.2323308 ], [ 55.8083471, -21.2353995 ], [ 55.8072647, -21.2377068 ], [ 55.8071179, -21.2406958 ], [ 55.80537, -21.2432402 ], [ 55.8044335, -21.2518146 ], [ 55.80316409999999, -21.2549566 ], [ 55.8035473, -21.2563171 ], [ 55.8024348, -21.2565758 ], [ 55.8017193, -21.2620087 ], [ 55.8033435, -21.2658567 ], [ 55.8041215, -21.2716992 ], [ 55.8031284, -21.2769808 ], [ 55.8034951, -21.2777725 ], [ 55.806158, -21.2846141 ], [ 55.8083577, -21.287673 ], [ 55.8072874, -21.2913217 ], [ 55.8056275, -21.2928423 ], [ 55.8051781, -21.2947492 ], [ 55.805701, -21.2976913 ], [ 55.8050409, -21.3012753 ], [ 55.8047301, -21.3024702 ], [ 55.804773, -21.3040534 ], [ 55.8053829, -21.3043616 ], [ 55.8044978, -21.3046973 ], [ 55.805319, -21.306001 ], [ 55.8045803, -21.3064819 ], [ 55.805259, -21.3070633 ], [ 55.8038948, -21.3093016 ], [ 55.8047618, -21.3105359 ], [ 55.804693, -21.3132944 ], [ 55.8053452, -21.3154388 ], [ 55.8047555, -21.3154808 ], [ 55.8048377, -21.3164231 ], [ 55.8058993, -21.3175378 ], [ 55.8050965, -21.3195186 ], [ 55.8061671, -21.3256629 ], [ 55.8085536, -21.3297147 ], [ 55.8093766, -21.3309906 ], [ 55.8074272, -21.3366538 ], [ 55.8047199, -21.3393562 ], [ 55.7990676, -21.3481288 ], [ 55.7974803, -21.3491244 ], [ 55.7972932, -21.3503804 ], [ 55.7929041, -21.3519271 ], [ 55.7915271, -21.3539051 ], [ 55.78898, -21.3544445 ], [ 55.7866537, -21.35724 ], [ 55.7835227, -21.3590932 ], [ 55.78297, -21.3603358 ], [ 55.7834236, -21.3613647 ], [ 55.7820559, -21.3607287 ], [ 55.7815904, -21.3616652 ], [ 55.7790459, -21.3624319 ], [ 55.7790723, -21.3630633 ], [ 55.7770573, -21.3633154 ], [ 55.7751159, -21.3645361 ], [ 55.7753222, -21.3654692 ], [ 55.7743855, -21.3651221 ], [ 55.7738269, -21.3656677 ], [ 55.7740261, -21.365179 ], [ 55.7727281, -21.3648328 ], [ 55.7722059, -21.3654436 ], [ 55.7708542, -21.365244 ], [ 55.7707907, -21.365693 ], [ 55.7691361, -21.3648104 ], [ 55.7679305, -21.3656349 ], [ 55.7660927, -21.3643376 ], [ 55.7635516, -21.3634335 ], [ 55.7603009, -21.364322 ], [ 55.759169, -21.3633465 ], [ 55.7568935, -21.3629301 ], [ 55.7549792, -21.3634548 ], [ 55.7539307, -21.3646074 ], [ 55.7530443, -21.3663044 ], [ 55.7504342, -21.367516 ], [ 55.7433151, -21.3689976 ], [ 55.7381188, -21.368757899999988 ], [ 55.7348668, -21.3691325 ], [ 55.7341942, -21.3686582 ], [ 55.7329347, -21.3697361 ], [ 55.7313378, -21.3695567 ], [ 55.7312637, -21.3705158 ], [ 55.7300265, -21.3692674 ], [ 55.7270239, -21.3700381 ], [ 55.7256832, -21.3705073 ], [ 55.7249591, -21.3716185 ], [ 55.7235064, -21.37148 ], [ 55.7233532, -21.3722015 ], [ 55.7213731, -21.3728173 ], [ 55.7213633, -21.373363 ], [ 55.7187181, -21.3737813 ], [ 55.7169738, -21.3749006 ], [ 55.711524, -21.3749262 ], [ 55.7107705, -21.3754304 ], [ 55.7109467, -21.3762668 ], [ 55.7104466, -21.3753766 ], [ 55.708527, -21.3763691 ], [ 55.7081888, -21.3758286 ], [ 55.7078852, -21.3764818 ], [ 55.7046294, -21.3762598 ], [ 55.7026948, -21.3768129 ], [ 55.7004365, -21.376494 ], [ 55.7002759, -21.3763877 ], [ 55.6979858, -21.3755331 ], [ 55.6937773, -21.3759779 ], [ 55.6850684, -21.3744716 ], [ 55.6804384, -21.3747629 ], [ 55.6783905, -21.3758059 ], [ 55.6773523, -21.3771574 ], [ 55.677548, -21.3792382 ], [ 55.6756857, -21.3788417 ], [ 55.6744296, -21.3803449 ], [ 55.674664, -21.3819222 ], [ 55.6736514, -21.3815758 ], [ 55.672257, -21.3826966 ], [ 55.6713052, -21.3839073 ], [ 55.6674149, -21.3835494 ], [ 55.6670878, -21.3827974 ], [ 55.6663393, -21.3835276 ], [ 55.6638257, -21.3823676 ], [ 55.6598154, -21.3826054 ], [ 55.6575471, -21.3834113 ], [ 55.6501729, -21.386804 ], [ 55.6500946, -21.3879962 ], [ 55.6490738, -21.3889878 ], [ 55.6469315, -21.389037 ], [ 55.6464354, -21.3897087 ], [ 55.6440682, -21.3874774 ], [ 55.6429125, -21.3873316 ], [ 55.6436308, -21.3862876 ], [ 55.6437142, -21.3856658 ], [ 55.6434936, -21.3855924 ], [ 55.6429856, -21.3851388 ], [ 55.6378786, -21.382853 ], [ 55.6316473, -21.3825014 ], [ 55.6240084, -21.3830688 ], [ 55.6205522, -21.384726 ], [ 55.6167218, -21.3859456 ], [ 55.6123205, -21.3864034 ], [ 55.60952609999999, -21.3870052 ], [ 55.6023147, -21.3836334 ], [ 55.5983278, -21.3785852 ], [ 55.5953071, -21.3786093 ], [ 55.5941283, -21.3772819 ], [ 55.5903017, -21.3765389 ], [ 55.5898462, -21.3759456 ], [ 55.5894588, -21.3744845 ], [ 55.5867848, -21.3716449 ], [ 55.584322, -21.3723936 ], [ 55.5831261, -21.372476 ], [ 55.5774624, -21.3741332 ], [ 55.5747416, -21.3760834 ], [ 55.5743639, -21.3756838 ], [ 55.5718405, -21.3763312 ], [ 55.5682136, -21.3751946 ], [ 55.5674466, -21.3739837 ], [ 55.5646994, -21.3726785 ], [ 55.5629399, -21.3722789 ], [ 55.5605655, -21.3730257 ], [ 55.5586913, -21.372159 ], [ 55.557275, -21.3725666 ], [ 55.5563738, -21.3720311 ], [ 55.5564685, -21.3713628 ], [ 55.5559498, -21.3718787 ], [ 55.5548894, -21.3710265 ], [ 55.5536887, -21.3713786 ], [ 55.5537804, -21.3726955 ], [ 55.5524734, -21.3724558 ], [ 55.5510542, -21.3743401 ], [ 55.5503349, -21.3741738 ], [ 55.5495813, -21.371151 ], [ 55.5480493, -21.3695932 ], [ 55.5448087, -21.3676056 ], [ 55.5429604, -21.3679538 ], [ 55.5419714, -21.3666199 ], [ 55.5389838, -21.3654031 ], [ 55.5382836, -21.3639432 ], [ 55.5359966, -21.3631553 ], [ 55.5331413, -21.3635496 ], [ 55.5250899, -21.3610732 ], [ 55.5236226, -21.3612548 ], [ 55.5211588, -21.3591609 ], [ 55.5205962, -21.3593726 ], [ 55.5206831, -21.3588797 ], [ 55.5191793, -21.3588799 ], [ 55.5200483, -21.3585402 ], [ 55.5188038, -21.3579407 ], [ 55.5156384, -21.3584031 ], [ 55.5152537, -21.3572382 ], [ 55.5135193, -21.3572759 ], [ 55.5106108, -21.3550844 ], [ 55.5085594, -21.3548126 ], [ 55.5081131, -21.3538933 ], [ 55.5069802, -21.3537175 ], [ 55.506036, -21.3544449 ], [ 55.5035139, -21.3514546 ], [ 55.4977639, -21.3503011 ], [ 55.4966754, -21.35093 ], [ 55.4956759, -21.3500977 ], [ 55.4928303, -21.3498649 ], [ 55.4899748, -21.3508141 ], [ 55.4879049, -21.3499294 ], [ 55.4846281, -21.3519377 ], [ 55.4837055, -21.3508992 ], [ 55.4832687, -21.349361 ], [ 55.4816804, -21.3487129 ], [ 55.4814401, -21.3477554 ], [ 55.4807648, -21.3474547 ], [ 55.4804537, -21.3474585 ], [ 55.4802006, -21.3473465 ], [ 55.4788014, -21.3482436 ], [ 55.4787183, -21.347648 ], [ 55.4803844, -21.3468473 ], [ 55.4802311, -21.3454298 ], [ 55.4789368, -21.3441418 ], [ 55.4796875, -21.3413647 ], [ 55.4786986, -21.343171 ], [ 55.478346, -21.3443538 ], [ 55.4770086, -21.3441699 ], [ 55.4740524, -21.344185 ], [ 55.4752353, -21.3443315 ], [ 55.4756927, -21.3459103 ], [ 55.4771501, -21.345642 ], [ 55.4772472, -21.3447938 ], [ 55.4787013, -21.346021 ], [ 55.4773973, -21.3454364 ], [ 55.4774405, -21.3462411 ], [ 55.4763823, -21.3461148 ], [ 55.4749252, -21.346344599999988 ], [ 55.4748994, -21.3447793 ], [ 55.4746807, -21.3446219 ], [ 55.4696504, -21.3444157 ], [ 55.4672768, -21.3435356 ], [ 55.4646519, -21.3424422 ], [ 55.4631003, -21.3419219 ], [ 55.4624715, -21.3418537 ], [ 55.4601848, -21.3414637 ], [ 55.4575723, -21.3394928 ], [ 55.456663, -21.3385221 ], [ 55.4563014, -21.3382458 ], [ 55.4560473, -21.3366491 ], [ 55.4540093, -21.3347586 ], [ 55.4549799, -21.3317431 ], [ 55.454534, -21.3309975 ], [ 55.4517058, -21.3298484 ], [ 55.4505568, -21.3311568 ], [ 55.4514493, -21.3298541 ], [ 55.4488904, -21.3282412 ], [ 55.443103, -21.3281545 ], [ 55.4391244, -21.3274321 ], [ 55.4318588, -21.3262708 ], [ 55.4297583, -21.3262254 ], [ 55.4256856, -21.3247501 ], [ 55.4163129, -21.3191532 ], [ 55.4114549, -21.3144197 ], [ 55.4085752, -21.307527 ], [ 55.4044862, -21.3039281 ], [ 55.4038017, -21.3033166 ], [ 55.402296, -21.3019365 ], [ 55.3989526, -21.2983699 ], [ 55.3970782, -21.2958678 ], [ 55.3910733, -21.2925517 ], [ 55.3794486, -21.2878066 ], [ 55.3663337, -21.2845836 ], [ 55.358051, -21.2838319 ], [ 55.342959, -21.2809998 ], [ 55.3425598, -21.2817391 ], [ 55.3425871, -21.2812479 ], [ 55.3417689, -21.2807172 ], [ 55.3415792, -21.2817302 ], [ 55.34063, -21.2815754 ], [ 55.3409337, -21.2802724 ], [ 55.3394818, -21.2810168 ], [ 55.338177, -21.278878 ], [ 55.3363567, -21.2783495 ], [ 55.3359964, -21.2774966 ], [ 55.3354635, -21.2779198 ], [ 55.3337238, -21.2761472 ], [ 55.3321987, -21.2724537 ], [ 55.334553, -21.2695362 ], [ 55.3324124, -21.2657335 ], [ 55.3310438, -21.2655668 ], [ 55.3317899, -21.2629959 ], [ 55.3316073, -21.260823 ], [ 55.3304276, -21.2587113 ], [ 55.3220065, -21.2528901 ], [ 55.3202357, -21.2520902 ], [ 55.3211005, -21.2511638 ], [ 55.320582, -21.24924 ], [ 55.3186872, -21.2471386 ], [ 55.3164047, -21.2460801 ], [ 55.3151271, -21.2442775 ], [ 55.3141541, -21.2449938 ], [ 55.3131159, -21.2446701 ], [ 55.3122822, -21.2425912 ], [ 55.3120672, -21.2421763 ], [ 55.310912, -21.2424506 ], [ 55.3108465, -21.2401726 ], [ 55.3082249, -21.2390844 ], [ 55.3075155, -21.2379335 ], [ 55.3039577, -21.2364747 ], [ 55.3024557, -21.2365638 ], [ 55.300562, -21.2354488 ], [ 55.2973793, -21.2333981 ], [ 55.2966568, -21.2321684 ], [ 55.2954637, -21.2319797 ], [ 55.2953894, -21.2312507 ], [ 55.2930319, -21.2301124 ], [ 55.2931851, -21.2286604 ], [ 55.2928581, -21.2283606 ], [ 55.2921081, -21.2273956 ], [ 55.2924771, -21.2241416 ], [ 55.2881122, -21.2184637 ], [ 55.2883438, -21.2168858 ], [ 55.2877596, -21.2168189 ], [ 55.2878563, -21.215541 ], [ 55.2858361, -21.2120625 ], [ 55.2862814, -21.2097234 ], [ 55.285245, -21.2086186 ], [ 55.2854147, -21.2074447 ], [ 55.2831581, -21.2057572 ], [ 55.2827566, -21.2046984 ], [ 55.2818201, -21.2047338 ], [ 55.2811961, -21.2029567 ], [ 55.2806501, -21.203479 ], [ 55.2806287, -21.201885 ], [ 55.2826797, -21.2010344 ], [ 55.2828277, -21.1975656 ], [ 55.2844853, -21.1960362 ], [ 55.2864963, -21.1878768 ], [ 55.2860105, -21.1869604 ], [ 55.2868315, -21.1852277 ], [ 55.2865842, -21.1843858 ], [ 55.2873959, -21.1830206 ], [ 55.2866354, -21.1797334 ], [ 55.286776, -21.1748518 ], [ 55.2854459, -21.1676534 ], [ 55.2857325, -21.1677324 ], [ 55.2859668, -21.1654313 ], [ 55.2874424, -21.1635561 ], [ 55.2862453, -21.1602053 ], [ 55.2820249, -21.1541595 ], [ 55.27543, -21.1504155 ], [ 55.2731036, -21.1503459 ], [ 55.2722701, -21.149734 ], [ 55.2716749, -21.1494222 ], [ 55.2724552, -21.1470182 ], [ 55.2716939, -21.1460753 ], [ 55.2707074, -21.1461312 ], [ 55.2712735, -21.1446113 ], [ 55.270211, -21.1435127 ], [ 55.271647, -21.1429982 ], [ 55.2704887, -21.1421236 ], [ 55.2713004, -21.1410515 ], [ 55.2713576, -21.1383465 ], [ 55.2706562, -21.1371878 ], [ 55.2714029, -21.1356256 ], [ 55.2707702, -21.1350412 ], [ 55.2713315, -21.1344586 ], [ 55.2704668, -21.1338248 ], [ 55.2710228, -21.1317097 ], [ 55.2699286, -21.1317089 ], [ 55.2701455, -21.130946 ], [ 55.267595, -21.1304886 ], [ 55.2681349, -21.1294205 ], [ 55.2673566, -21.1275329 ], [ 55.2656516, -21.1266942 ], [ 55.2642108, -21.1269195 ], [ 55.2632043, -21.1257378 ], [ 55.2626166, -21.1247563 ], [ 55.2604979, -21.1224273 ], [ 55.2589642, -21.119589 ], [ 55.2573356, -21.1183414 ], [ 55.2571963, -21.1178133 ], [ 55.2565492, -21.117515 ], [ 55.2557334, -21.1158093 ], [ 55.2534868, -21.1143209 ], [ 55.2528533, -21.112995 ], [ 55.2547395, -21.1107909 ], [ 55.2541349, -21.1100257 ], [ 55.2539586, -21.1098253 ], [ 55.2537983, -21.1096492 ], [ 55.248966, -21.1065843 ], [ 55.2479043, -21.106182 ], [ 55.2461051, -21.1027645 ], [ 55.2392172, -21.0982873 ], [ 55.23255, -21.0927851 ], [ 55.2214101, -21.0789601 ], [ 55.2206409, -21.0770158 ], [ 55.2202188, -21.0714526 ], [ 55.2225697, -21.0557494 ], [ 55.2219995, -21.0555222 ], [ 55.222198, -21.054635 ], [ 55.2225803, -21.0548056 ], [ 55.2234615, -21.0550365 ], [ 55.2239431, -21.053728 ], [ 55.2218633, -21.0507833 ], [ 55.2171042, -21.042021 ] ] ] ]
    }
  }, {
    "type" : "Feature",
    "properties" : {
      "osm_id" : 280167,
      "admin_level" : "8",
      "country_code" : "RE",
      "name" : "Bras-Panon",
      "population" : "13344",
      "wikidata" : "Q691092",
      "wikipedia" : "fr:Bras-Panon",
      "name_props" : {
        "name:ja" : "ブラ・パノン"
      },
      "parent_boundary_id" : 77601
    },
    "geometry" : {
      "type" : "MultiPolygon",
      "coordinates" : [ [ [ [ 55.5908954, -21.0791207 ], [ 55.5878813, -21.0815814 ], [ 55.5873365, -21.0831634 ], [ 55.5877651, -21.0852126 ], [ 55.5838546, -21.0846302 ], [ 55.5819562, -21.0852995 ], [ 55.574537, -21.0822128 ], [ 55.57361610000001, -21.0803476 ], [ 55.5701434, -21.0775927 ], [ 55.5677399, -21.0769813 ], [ 55.5663755, -21.0774832 ], [ 55.5652474, -21.0762586 ], [ 55.5605886, -21.0741723 ], [ 55.5592454, -21.0727458 ], [ 55.5558343, -21.0738959 ], [ 55.5522441, -21.0730286 ], [ 55.5528262, -21.071616 ], [ 55.558708, -21.067585 ], [ 55.5602372, -21.064854 ], [ 55.5617028, -21.0638185 ], [ 55.5616876, -21.0569761 ], [ 55.5608108, -21.0511911 ], [ 55.5616133, -21.0494898 ], [ 55.5609797, -21.048879 ], [ 55.5613161, -21.0472781 ], [ 55.5611535, -21.0438366 ], [ 55.5597242, -21.0432595 ], [ 55.5593499, -21.0408551 ], [ 55.5585831, -21.0403912 ], [ 55.5576814, -21.0419585 ], [ 55.5546265, -21.0398125 ], [ 55.5535254, -21.0380139 ], [ 55.5571322, -21.0313268 ], [ 55.5585877, -21.0246406 ], [ 55.5598474, -21.0222722 ], [ 55.5605273, -21.0222139 ], [ 55.5620583, -21.0186034 ], [ 55.563752, -21.0187767 ], [ 55.5678059, -21.0175096 ], [ 55.5698318, -21.0149551 ], [ 55.5699544, -21.0131908 ], [ 55.5718823, -21.0123773 ], [ 55.5719056, -21.009963 ], [ 55.5766892, -21.0098793 ], [ 55.5845479, -21.0054642 ], [ 55.5840705, -21.0021128 ], [ 55.5852369, -21.0010421 ], [ 55.5866371, -21.0023308 ], [ 55.5886653, -21.0028555 ], [ 55.5914849, -21.0027268 ], [ 55.593705, -21.0015103 ], [ 55.5984182, -21.0025772 ], [ 55.6012376, -21.0021763 ], [ 55.611624, -20.9974535 ], [ 55.6149785, -20.9907407 ], [ 55.6237845, -20.9906067 ], [ 55.6356909, -20.9818732 ], [ 55.6392932, -20.9784857 ], [ 55.6431797, -20.9775657 ], [ 55.6540883, -20.9786322 ], [ 55.6611233, -20.9824109 ], [ 55.6724194, -20.9819817 ], [ 55.6739629, -20.9809462 ], [ 55.6860469, -20.9777404 ], [ 55.6904683, -20.9773906 ], [ 55.6912609, -20.9780062 ], [ 55.6935774, -20.9775137 ], [ 55.6963939, -20.9755697 ], [ 55.6994404, -20.9746839 ], [ 55.7004985, -20.9770542 ], [ 55.7006434, -20.9814433 ], [ 55.7006233, -20.9817126 ], [ 55.7001523, -20.986405 ], [ 55.7009077, -20.9923799 ], [ 55.7009, -21.0044633 ], [ 55.7009455, -21.0054732 ], [ 55.699152, -21.0050176 ], [ 55.6953648, -21.0068555 ], [ 55.6928596, -21.0056962 ], [ 55.6908988, -21.0083977 ], [ 55.6862184, -21.0091015 ], [ 55.68339670000001, -21.0086725 ], [ 55.6780805, -21.0102704 ], [ 55.6773781, -21.011061 ], [ 55.6775709, -21.0131778 ], [ 55.6741422, -21.0132345 ], [ 55.6749333, -21.016404 ], [ 55.6745081, -21.0178632 ], [ 55.6709164, -21.0178825 ], [ 55.6696531, -21.0185735 ], [ 55.6693408, -21.0207939 ], [ 55.6703136, -21.0231716 ], [ 55.6725311, -21.0293517 ], [ 55.6707251, -21.0314298 ], [ 55.6682879, -21.0326464 ], [ 55.6618452, -21.0340083 ], [ 55.659627, -21.0354829 ], [ 55.6563077, -21.0338825 ], [ 55.6486648, -21.0347143 ], [ 55.64276129999999, -21.0336378 ], [ 55.6415031, -21.0350775 ], [ 55.6382203, -21.0354503 ], [ 55.6356203, -21.036709 ], [ 55.6344491, -21.0374956 ], [ 55.6346208, -21.038487 ], [ 55.6338242, -21.0395459 ], [ 55.6315872, -21.0410655 ], [ 55.6299269, -21.0408877 ], [ 55.6272018, -21.0417639 ], [ 55.624423, -21.0405172 ], [ 55.6191749, -21.0409887 ], [ 55.6184095, -21.0431708 ], [ 55.6164166, -21.0447904 ], [ 55.6154296, -21.0472086 ], [ 55.6133214, -21.0482625 ], [ 55.6120232, -21.055314 ], [ 55.6060016, -21.0607457 ], [ 55.6031531, -21.065669 ], [ 55.6015572, -21.0658943 ], [ 55.5980435, -21.0687226 ], [ 55.5963592, -21.0718023 ], [ 55.5924455, -21.0750349 ], [ 55.5908954, -21.0791207 ] ] ] ]
    }
  }, {
    "type" : "Feature",
    "properties" : {
      "osm_id" : 2470060,
      "admin_level" : "4",
      "country_code" : "RE",
      "name" : "La Réunion",
      "population" : "861210",
      "wikidata" : "Q17070",
      "wikipedia" : "fr:La Réunion",
      "name_props" : {
        "name:af" : "Réunion",
        "name:ak" : "Reyuniɔn",
        "name:am" : "ሪዩኒየን",
        "name:ar" : "ريونيون",
        "name:az" : "Reyunion",
        "name:be" : "Руньён",
        "name:bg" : "Реюниън",
        "name:bm" : "Reyuɲɔŋ",
        "name:bn" : "রিইউনিয়ন",
        "name:br" : "Ar Reünion",
        "name:bs" : "Rejunion",
        "name:ca" : "Illa de la Reunió",
        "name:cs" : "Réunion",
        "name:cy" : "Réunion",
        "name:da" : "Reunion",
        "name:de" : "Réunion",
        "name:dv" : "ރިޔޫނިއަން",
        "name:dz" : "རེ་ཡུ་ནི་ཡོན",
        "name:ee" : "Réunion nutome",
        "name:el" : "Ρεϊνιόν",
        "name:en" : "Réunion",
        "name:eo" : "Reunio",
        "name:es" : "La Reunión",
        "name:et" : "Réunion",
        "name:eu" : "Reunion",
        "name:fa" : "رئونیون",
        "name:ff" : "Rewiñoo",
        "name:fi" : "Réunion",
        "name:fo" : "Réunion",
        "name:fr" : "La Réunion",
        "name:ga" : "Réunion",
        "name:gd" : "Réunion",
        "name:gl" : "Reunión",
        "name:gu" : "રીયુનિયન",
        "name:ha" : "Rawuniyan",
        "name:he" : "ראוניון",
        "name:hi" : "रियूनियन",
        "name:hr" : "Reunion",
        "name:hu" : "Réunion",
        "name:hy" : "Ռեյունյոն",
        "name:ia" : "Reunion",
        "name:id" : "Réunion",
        "name:io" : "Reunion",
        "name:is" : "Réunion",
        "name:it" : "Riunione",
        "name:ja" : "レユニオン島",
        "name:jv" : "Réunion",
        "name:ka" : "რეიუნიონი",
        "name:ki" : "Riyunioni",
        "name:kk" : "Реюньон",
        "name:kl" : "Réunion",
        "name:km" : "រ៉េអ៊ុយ៉ុង",
        "name:kn" : "ರೀಯೂನಿಯನ್",
        "name:ko" : "리유니온",
        "name:ks" : "رِیوٗنِیَن",
        "name:ku" : "Réunion",
        "name:kw" : "Réunion",
        "name:la" : "Reunio",
        "name:lb" : "Departement La Réunion",
        "name:lg" : "Leyunyoni",
        "name:ln" : "Lenyo",
        "name:lo" : "ເຣອູນິຍົງ",
        "name:lt" : "Reunionas",
        "name:lv" : "Reinjona",
        "name:mg" : "Larenion",
        "name:mk" : "Реинион",
        "name:ml" : "റീയൂണിയൻ",
        "name:mn" : "Реюньон",
        "name:mr" : "रियूनियन",
        "name:ms" : "Réunion",
        "name:mt" : "Réunion",
        "name:ne" : "रियुनियन",
        "name:nl" : "Réunion",
        "name:nn" : "Réunion",
        "name:no" : "Réunion",
        "name:oc" : "Reünion",
        "name:or" : "ରିୟୁନିଅନ୍",
        "name:os" : "Реюньон",
        "name:pa" : "ਰੇਊਨੀਓਂ",
        "name:pl" : "Reunion",
        "name:pt" : "Reunião",
        "name:qu" : "Riyunyun",
        "name:rm" : "Réunion",
        "name:rn" : "Amazinga ya Reyiniyo",
        "name:ro" : "Reunion",
        "name:ru" : "Реюньон",
        "name:rw" : "Reyiniyo",
        "name:se" : "Réunion",
        "name:sg" : "Reinïon",
        "name:si" : "රීයුනියන්",
        "name:sk" : "Reunion",
        "name:sl" : "Reunion",
        "name:sn" : "Réunion",
        "name:so" : "Réunion",
        "name:sr" : "Реинион",
        "name:su" : "Réunion",
        "name:sv" : "Réunion",
        "name:sw" : "Riyunioni",
        "name:ta" : "ரீயூனியன்",
        "name:te" : "రియూనియన్",
        "name:th" : "เรอูนียง",
        "name:ti" : "ሪዩኒየን",
        "name:tl" : "Réunion",
        "name:to" : "Liʻiunioni",
        "name:tr" : "Réunion",
        "name:uk" : "Реюньйон",
        "name:ur" : "ری یونین",
        "name:vi" : "Réunion",
        "name:wa" : "Iye del Reyunion",
        "name:wo" : "Reiñõo",
        "name:yo" : "Orílẹ́ède Riuniyan",
        "name:zh" : "留尼汪",
        "name:zu" : "i-Réunion",
        "name:ast" : "Reunión",
        "name:fur" : "Reunion",
        "name:kab" : "Timlilit",
        "name:ksh" : "Rehunjohn",
        "name:rcf" : "La Rényon",
        "name:zh-Latn-pinyin" : "Liúníwāng"
      },
      "parent_boundary_id" : 2202162
    },
    "geometry" : {
      "type" : "MultiPolygon",
      "coordinates" : [ [ [ [ 55.568242, -21.3776946 ], [ 55.5672895, -21.3774786 ], [ 55.5667287, -21.3781723 ], [ 55.5678762, -21.3766278 ], [ 55.5683979, -21.3758442 ], [ 55.5690383, -21.3760782 ], [ 55.568566, -21.3767854 ], [ 55.568242, -21.3776946 ] ] ], [ [ [ 55.2171042, -21.042021 ], [ 55.2164268, -21.0390355 ], [ 55.2171785, -21.036341 ], [ 55.2179085, -21.0362148 ], [ 55.2214987, -21.032248 ], [ 55.2252281, -21.0288532 ], [ 55.2256674, -21.0270014 ], [ 55.2252918, -21.0264477 ], [ 55.2270166, -21.0269048 ], [ 55.2294208, -21.0231512 ], [ 55.2327207, -21.0215125 ], [ 55.2336075, -21.0205132 ], [ 55.2337031, -21.0190753 ], [ 55.2352379, -21.0178679 ], [ 55.2360941, -21.0183617 ], [ 55.2363859, -21.0175705 ], [ 55.2372472, -21.0184184 ], [ 55.237506, -21.0175623 ], [ 55.2380672, -21.0183392 ], [ 55.2402874, -21.0190241 ], [ 55.2467599, -21.0200303 ], [ 55.2522214, -21.0175941 ], [ 55.2546843, -21.0166119 ], [ 55.2653387, -21.0106914 ], [ 55.2715943, -21.0057815 ], [ 55.2759817, -21.0010602 ], [ 55.2788828, -20.9962203 ], [ 55.2804244, -20.9900932 ], [ 55.280423, -20.9899805 ], [ 55.2804304, -20.9894536 ], [ 55.2804406, -20.9893028 ], [ 55.2805065, -20.9889487 ], [ 55.2825092, -20.9787018 ], [ 55.2825399, -20.97413 ], [ 55.2820245, -20.9707297 ], [ 55.2772929, -20.9581283 ], [ 55.2772401, -20.9578463 ], [ 55.2773561, -20.9535157 ], [ 55.2791153, -20.951063 ], [ 55.2808854, -20.9464896 ], [ 55.2816972, -20.9404582 ], [ 55.2814371, -20.937284 ], [ 55.2830601, -20.9370466 ], [ 55.2847508, -20.9381676 ], [ 55.2834515, -20.9382282 ], [ 55.2829757, -20.9417862 ], [ 55.2824256, -20.9420195 ], [ 55.282053, -20.945201 ], [ 55.2836701, -20.944321 ], [ 55.2840137, -20.9427003 ], [ 55.2830791, -20.9417341 ], [ 55.2836238, -20.9416004 ], [ 55.284189, -20.9385318 ], [ 55.28487, -20.9384296 ], [ 55.2855851, -20.9387132 ], [ 55.2852997, -20.9404087 ], [ 55.2864333, -20.9405785 ], [ 55.286717, -20.9388778 ], [ 55.287325, -20.9386996 ], [ 55.2868769, -20.9404299 ], [ 55.2878312, -20.9405778 ], [ 55.2881135, -20.9389245 ], [ 55.2874135, -20.9389507 ], [ 55.2881676, -20.9369745 ], [ 55.2869118, -20.9358063 ], [ 55.2871106, -20.9348003 ], [ 55.2894248, -20.9350697 ], [ 55.289506, -20.9345519 ], [ 55.2878615, -20.9341514 ], [ 55.2880598, -20.9333531 ], [ 55.2895088, -20.9335921 ], [ 55.2896999, -20.9330377 ], [ 55.2864017, -20.9323177 ], [ 55.2865673, -20.9313244 ], [ 55.2880258, -20.9315326 ], [ 55.2881548, -20.9307346 ], [ 55.287662, -20.9312079 ], [ 55.2876931, -20.9306648 ], [ 55.2871969, -20.9311403 ], [ 55.2872271, -20.930597 ], [ 55.2867316, -20.9310736 ], [ 55.2867651, -20.9305296 ], [ 55.2857693, -20.9305422 ], [ 55.28577339999999, -20.9339185 ], [ 55.2847608, -20.9341415 ], [ 55.2846368, -20.9349005 ], [ 55.2863547, -20.9348097 ], [ 55.286407, -20.935793 ], [ 55.2822813, -20.9359645 ], [ 55.2831625, -20.9356382 ], [ 55.2840502, -20.9335173 ], [ 55.2834956, -20.9271728 ], [ 55.2840333, -20.9257291 ], [ 55.2888674, -20.9233896 ], [ 55.3006726, -20.9281882 ], [ 55.3053589, -20.9291503 ], [ 55.3081742, -20.9293908 ], [ 55.3180447, -20.9283326 ], [ 55.3191691, -20.9270018 ], [ 55.3187056, -20.9289338 ], [ 55.3194385, -20.9290604 ], [ 55.3193855, -20.9312173 ], [ 55.31295449999999, -20.9317339 ], [ 55.3130977, -20.9329625 ], [ 55.3194609, -20.9327578 ], [ 55.322807, -20.9354065 ], [ 55.3250658, -20.9350162 ], [ 55.3250385, -20.9294033 ], [ 55.3226921, -20.9290726 ], [ 55.3232889, -20.9284769 ], [ 55.3218899, -20.926184 ], [ 55.3238983, -20.9286414 ], [ 55.3303606, -20.9275658 ], [ 55.3437511, -20.922148 ], [ 55.3459646, -20.9196251 ], [ 55.3521802, -20.9114746 ], [ 55.360078, -20.9079362 ], [ 55.3636946, -20.9052865 ], [ 55.368039, -20.9002814 ], [ 55.3673196, -20.8995488 ], [ 55.3681372, -20.898607 ], [ 55.3748126, -20.8956567 ], [ 55.3756386, -20.896102 ], [ 55.3770498, -20.8951489 ], [ 55.3767386, -20.8942006 ], [ 55.3806109, -20.8905855 ], [ 55.3812137, -20.8917125 ], [ 55.3846567, -20.8905215 ], [ 55.3901686, -20.8869632 ], [ 55.3955814, -20.8815589 ], [ 55.4106951, -20.8780538 ], [ 55.42161260000001, -20.8743043 ], [ 55.4280478, -20.8746966 ], [ 55.4281309, -20.8734811 ], [ 55.4344426, -20.874416 ], [ 55.4399241, -20.8763853 ], [ 55.4447104, -20.875182 ], [ 55.4478726, -20.8720849 ], [ 55.4505006, -20.8717411 ], [ 55.4519767, -20.8722649 ], [ 55.4582565, -20.8776414 ], [ 55.4672876, -20.8831465 ], [ 55.467575, -20.8832703 ], [ 55.4679011, -20.8834108 ], [ 55.4706292, -20.8844716 ], [ 55.4729614, -20.884278 ], [ 55.4855812, -20.8858513 ], [ 55.4906951, -20.8856682 ], [ 55.497087, -20.8835483 ], [ 55.5005638, -20.8826015 ], [ 55.5036271, -20.8823327 ], [ 55.5046766, -20.8824113 ], [ 55.511033, -20.8840779 ], [ 55.5191936, -20.8879256 ], [ 55.536394, -20.8913657 ], [ 55.5372523, -20.8923921 ], [ 55.5356816, -20.891919 ], [ 55.5354756, -20.8928091 ], [ 55.5378735, -20.8936757 ], [ 55.5380426, -20.8932133 ], [ 55.536892, -20.8928819 ], [ 55.5380336, -20.8929243 ], [ 55.5375074, -20.8914219 ], [ 55.5382995, -20.8935628 ], [ 55.5413808, -20.8946213 ], [ 55.5507807, -20.8955621 ], [ 55.5551323, -20.8925792 ], [ 55.5588574, -20.8915368 ], [ 55.5611405, -20.8922825 ], [ 55.5645479, -20.8920179 ], [ 55.5683846, -20.8931646 ], [ 55.5705132, -20.8928117 ], [ 55.5751806, -20.8945104 ], [ 55.5800575, -20.8970857 ], [ 55.5832848, -20.897679 ], [ 55.5894217, -20.8959631 ], [ 55.5928206, -20.8961234 ], [ 55.5972323, -20.8984889 ], [ 55.6003307, -20.8992827 ], [ 55.6036953, -20.9020009 ], [ 55.6156379, -20.9078846 ], [ 55.6172391, -20.9088562 ], [ 55.6220417, -20.9109404 ], [ 55.6283682, -20.9106466 ], [ 55.628561, -20.9106617 ], [ 55.6286382, -20.9106678 ], [ 55.6286675, -20.9106701 ], [ 55.6289953, -20.9106958 ], [ 55.6292765, -20.9106852 ], [ 55.6293594, -20.9106935 ], [ 55.629907, -20.9108614 ], [ 55.6299371, -20.9108654 ], [ 55.6299722, -20.910882 ], [ 55.6314222, -20.9113694 ], [ 55.6400751, -20.9128596 ], [ 55.6471429, -20.9151845 ], [ 55.658155, -20.9213018 ], [ 55.6658208, -20.9258364 ], [ 55.669118, -20.9314816 ], [ 55.671285, -20.9336953 ], [ 55.6827564, -20.9439044 ], [ 55.6875856, -20.9505487 ], [ 55.6914823, -20.9582755 ], [ 55.6946296, -20.9627051 ], [ 55.6967778, -20.9645535 ], [ 55.6983099, -20.9680173 ], [ 55.6994899, -20.974033 ], [ 55.6994404, -20.9746839 ], [ 55.7004985, -20.9770542 ], [ 55.7006434, -20.9814433 ], [ 55.7006233, -20.9817126 ], [ 55.7001523, -20.986405 ], [ 55.7009077, -20.9923799 ], [ 55.7009, -21.0044633 ], [ 55.7009455, -21.0054732 ], [ 55.7010833, -21.0061752 ], [ 55.7027084, -21.0173824 ], [ 55.7051563, -21.019497 ], [ 55.7049709, -21.021272 ], [ 55.7074308, -21.0268186 ], [ 55.7085179, -21.027983 ], [ 55.7155859, -21.0304995 ], [ 55.7181301, -21.0322022 ], [ 55.7208574, -21.0351936 ], [ 55.7226112, -21.0388549 ], [ 55.7232894, -21.0393159 ], [ 55.7239716, -21.0387964 ], [ 55.7270169, -21.0456129 ], [ 55.7319313, -21.0488153 ], [ 55.7325974, -21.0500976 ], [ 55.7310853, -21.0552893 ], [ 55.7311368, -21.0586695 ], [ 55.7326807, -21.0623372 ], [ 55.7430673, -21.0764663 ], [ 55.7480455, -21.0815358 ], [ 55.7516246, -21.0838823 ], [ 55.7560621, -21.0888795 ], [ 55.7585769, -21.0925472 ], [ 55.7608765, -21.0977557 ], [ 55.7617558, -21.0992252 ], [ 55.7673419, -21.1036207 ], [ 55.7696888, -21.1051854 ], [ 55.7730107, -21.1094543 ], [ 55.7800907, -21.1218392 ], [ 55.7831013, -21.1244978 ], [ 55.7862358, -21.1257063 ], [ 55.786819, -21.1256574 ], [ 55.7883178, -21.1252684 ], [ 55.7868698, -21.1254595 ], [ 55.7864054, -21.125061 ], [ 55.7887828, -21.1249301 ], [ 55.7891801, -21.1249523 ], [ 55.7914107, -21.1247986 ], [ 55.7917852, -21.1242129 ], [ 55.7994544, -21.1270157 ], [ 55.8028713, -21.1303972 ], [ 55.803734, -21.1303289 ], [ 55.8038864, -21.1310878 ], [ 55.8070412, -21.1330363 ], [ 55.8075276, -21.1348488 ], [ 55.8100421, -21.1376364 ], [ 55.8151475, -21.1397596 ], [ 55.8172613, -21.1387432 ], [ 55.8205667, -21.1411592 ], [ 55.821703, -21.1409127 ], [ 55.8223167, -21.1424218 ], [ 55.8235329, -21.1423355 ], [ 55.8258305, -21.1434812 ], [ 55.8268833, -21.144895 ], [ 55.8258897, -21.1467875 ], [ 55.8273304, -21.148178 ], [ 55.8276705, -21.1521129 ], [ 55.829438, -21.152882 ], [ 55.829717, -21.1544722 ], [ 55.830777, -21.1546095 ], [ 55.8318465, -21.1574542 ], [ 55.8350293, -21.1603809 ], [ 55.8345598, -21.1608748 ], [ 55.8352642, -21.1615892 ], [ 55.8351276, -21.1641571 ], [ 55.8331319, -21.1654282 ], [ 55.8326598, -21.165785 ], [ 55.8336069, -21.1701957 ], [ 55.8331057, -21.1720792 ], [ 55.8339563, -21.1737267 ], [ 55.8335908, -21.1746455 ], [ 55.8343762, -21.174855 ], [ 55.8337246, -21.1750657 ], [ 55.8338701, -21.1766091 ], [ 55.8351061, -21.1782764 ], [ 55.8347983, -21.1797708 ], [ 55.8361643, -21.1811096 ], [ 55.8366505, -21.183342 ], [ 55.8318454, -21.1863196 ], [ 55.8289966, -21.1863941 ], [ 55.8269482, -21.1855923 ], [ 55.8258187, -21.1861055 ], [ 55.8256942, -21.1870828 ], [ 55.8247828, -21.1894747 ], [ 55.824718, -21.1928692 ], [ 55.8256468, -21.1950147 ], [ 55.8246839, -21.1962548 ], [ 55.8254096, -21.1972443 ], [ 55.8250346, -21.1990751 ], [ 55.8256226, -21.2002994 ], [ 55.8241675, -21.2047351 ], [ 55.8232611, -21.2051969 ], [ 55.8236539, -21.2059001 ], [ 55.8228336, -21.2059226 ], [ 55.8227895, -21.2072376 ], [ 55.8219804, -21.2071024 ], [ 55.8209879, -21.2082648 ], [ 55.8190839, -21.2084555 ], [ 55.817739, -21.209415 ], [ 55.8142177, -21.2139838 ], [ 55.8139967, -21.2154109 ], [ 55.8142767, -21.2167433 ], [ 55.8135034, -21.2173793 ], [ 55.8133111, -21.2205893 ], [ 55.8119048, -21.2222029 ], [ 55.8084749, -21.2281444 ], [ 55.8084156, -21.2284973 ], [ 55.8082113, -21.2300497 ], [ 55.8078063, -21.2323308 ], [ 55.8083471, -21.2353995 ], [ 55.8072647, -21.2377068 ], [ 55.8071179, -21.2406958 ], [ 55.80537, -21.2432402 ], [ 55.8044335, -21.2518146 ], [ 55.80316409999999, -21.2549566 ], [ 55.8035473, -21.2563171 ], [ 55.8024348, -21.2565758 ], [ 55.8017193, -21.2620087 ], [ 55.8033435, -21.2658567 ], [ 55.8041215, -21.2716992 ], [ 55.8031284, -21.2769808 ], [ 55.8034951, -21.2777725 ], [ 55.806158, -21.2846141 ], [ 55.8083577, -21.287673 ], [ 55.8072874, -21.2913217 ], [ 55.8056275, -21.2928423 ], [ 55.8051781, -21.2947492 ], [ 55.805701, -21.2976913 ], [ 55.8050409, -21.3012753 ], [ 55.8047301, -21.3024702 ], [ 55.804773, -21.3040534 ], [ 55.8053829, -21.3043616 ], [ 55.8044978, -21.3046973 ], [ 55.805319, -21.306001 ], [ 55.8045803, -21.3064819 ], [ 55.805259, -21.3070633 ], [ 55.8038948, -21.3093016 ], [ 55.8047618, -21.3105359 ], [ 55.804693, -21.3132944 ], [ 55.8053452, -21.3154388 ], [ 55.8047555, -21.3154808 ], [ 55.8048377, -21.3164231 ], [ 55.8058993, -21.3175378 ], [ 55.8050965, -21.3195186 ], [ 55.8061671, -21.3256629 ], [ 55.8085536, -21.3297147 ], [ 55.8093766, -21.3309906 ], [ 55.8074272, -21.3366538 ], [ 55.8047199, -21.3393562 ], [ 55.7990676, -21.3481288 ], [ 55.7974803, -21.3491244 ], [ 55.7972932, -21.3503804 ], [ 55.7929041, -21.3519271 ], [ 55.7915271, -21.3539051 ], [ 55.78898, -21.3544445 ], [ 55.7866537, -21.35724 ], [ 55.7835227, -21.3590932 ], [ 55.78297, -21.3603358 ], [ 55.7834236, -21.3613647 ], [ 55.7820559, -21.3607287 ], [ 55.7815904, -21.3616652 ], [ 55.7790459, -21.3624319 ], [ 55.7790723, -21.3630633 ], [ 55.7770573, -21.3633154 ], [ 55.7751159, -21.3645361 ], [ 55.7753222, -21.3654692 ], [ 55.7743855, -21.3651221 ], [ 55.7738269, -21.3656677 ], [ 55.7740261, -21.365179 ], [ 55.7727281, -21.3648328 ], [ 55.7722059, -21.3654436 ], [ 55.7708542, -21.365244 ], [ 55.7707907, -21.365693 ], [ 55.7691361, -21.3648104 ], [ 55.7679305, -21.3656349 ], [ 55.7660927, -21.3643376 ], [ 55.7635516, -21.3634335 ], [ 55.7603009, -21.364322 ], [ 55.759169, -21.3633465 ], [ 55.7568935, -21.3629301 ], [ 55.7549792, -21.3634548 ], [ 55.7539307, -21.3646074 ], [ 55.7530443, -21.3663044 ], [ 55.7504342, -21.367516 ], [ 55.7433151, -21.3689976 ], [ 55.7381188, -21.368757899999988 ], [ 55.7348668, -21.3691325 ], [ 55.7341942, -21.3686582 ], [ 55.7329347, -21.3697361 ], [ 55.7313378, -21.3695567 ], [ 55.7312637, -21.3705158 ], [ 55.7300265, -21.3692674 ], [ 55.7270239, -21.3700381 ], [ 55.7256832, -21.3705073 ], [ 55.7249591, -21.3716185 ], [ 55.7235064, -21.37148 ], [ 55.7233532, -21.3722015 ], [ 55.7213731, -21.3728173 ], [ 55.7213633, -21.373363 ], [ 55.7187181, -21.3737813 ], [ 55.7169738, -21.3749006 ], [ 55.711524, -21.3749262 ], [ 55.7107705, -21.3754304 ], [ 55.7109467, -21.3762668 ], [ 55.7104466, -21.3753766 ], [ 55.708527, -21.3763691 ], [ 55.7081888, -21.3758286 ], [ 55.7078852, -21.3764818 ], [ 55.7046294, -21.3762598 ], [ 55.7026948, -21.3768129 ], [ 55.7004365, -21.376494 ], [ 55.7002759, -21.3763877 ], [ 55.6979858, -21.3755331 ], [ 55.6937773, -21.3759779 ], [ 55.6850684, -21.3744716 ], [ 55.6804384, -21.3747629 ], [ 55.6783905, -21.3758059 ], [ 55.6773523, -21.3771574 ], [ 55.677548, -21.3792382 ], [ 55.6756857, -21.3788417 ], [ 55.6744296, -21.3803449 ], [ 55.674664, -21.3819222 ], [ 55.6736514, -21.3815758 ], [ 55.672257, -21.3826966 ], [ 55.6713052, -21.3839073 ], [ 55.6674149, -21.3835494 ], [ 55.6670878, -21.3827974 ], [ 55.6663393, -21.3835276 ], [ 55.6638257, -21.3823676 ], [ 55.6598154, -21.3826054 ], [ 55.6575471, -21.3834113 ], [ 55.6501729, -21.386804 ], [ 55.6500946, -21.3879962 ], [ 55.6490738, -21.3889878 ], [ 55.6469315, -21.389037 ], [ 55.6464354, -21.3897087 ], [ 55.6440682, -21.3874774 ], [ 55.6429125, -21.3873316 ], [ 55.6436308, -21.3862876 ], [ 55.6437142, -21.3856658 ], [ 55.6434936, -21.3855924 ], [ 55.6429856, -21.3851388 ], [ 55.6378786, -21.382853 ], [ 55.6316473, -21.3825014 ], [ 55.6240084, -21.3830688 ], [ 55.6205522, -21.384726 ], [ 55.6167218, -21.3859456 ], [ 55.6123205, -21.3864034 ], [ 55.60952609999999, -21.3870052 ], [ 55.6023147, -21.3836334 ], [ 55.5983278, -21.3785852 ], [ 55.5953071, -21.3786093 ], [ 55.5941283, -21.3772819 ], [ 55.5903017, -21.3765389 ], [ 55.5898462, -21.3759456 ], [ 55.5894588, -21.3744845 ], [ 55.5867848, -21.3716449 ], [ 55.584322, -21.3723936 ], [ 55.5831261, -21.372476 ], [ 55.5774624, -21.3741332 ], [ 55.5747416, -21.3760834 ], [ 55.5743639, -21.3756838 ], [ 55.5718405, -21.3763312 ], [ 55.5682136, -21.3751946 ], [ 55.5674466, -21.3739837 ], [ 55.5646994, -21.3726785 ], [ 55.5629399, -21.3722789 ], [ 55.5605655, -21.3730257 ], [ 55.5586913, -21.372159 ], [ 55.557275, -21.3725666 ], [ 55.5563738, -21.3720311 ], [ 55.5564685, -21.3713628 ], [ 55.5559498, -21.3718787 ], [ 55.5548894, -21.3710265 ], [ 55.5536887, -21.3713786 ], [ 55.5537804, -21.3726955 ], [ 55.5524734, -21.3724558 ], [ 55.5510542, -21.3743401 ], [ 55.5503349, -21.3741738 ], [ 55.5495813, -21.371151 ], [ 55.5480493, -21.3695932 ], [ 55.5448087, -21.3676056 ], [ 55.5429604, -21.3679538 ], [ 55.5419714, -21.3666199 ], [ 55.5389838, -21.3654031 ], [ 55.5382836, -21.3639432 ], [ 55.5359966, -21.3631553 ], [ 55.5331413, -21.3635496 ], [ 55.5250899, -21.3610732 ], [ 55.5236226, -21.3612548 ], [ 55.5211588, -21.3591609 ], [ 55.5205962, -21.3593726 ], [ 55.5206831, -21.3588797 ], [ 55.5191793, -21.3588799 ], [ 55.5200483, -21.3585402 ], [ 55.5188038, -21.3579407 ], [ 55.5156384, -21.3584031 ], [ 55.5152537, -21.3572382 ], [ 55.5135193, -21.3572759 ], [ 55.5106108, -21.3550844 ], [ 55.5085594, -21.3548126 ], [ 55.5081131, -21.3538933 ], [ 55.5069802, -21.3537175 ], [ 55.506036, -21.3544449 ], [ 55.5035139, -21.3514546 ], [ 55.4977639, -21.3503011 ], [ 55.4966754, -21.35093 ], [ 55.4956759, -21.3500977 ], [ 55.4928303, -21.3498649 ], [ 55.4899748, -21.3508141 ], [ 55.4879049, -21.3499294 ], [ 55.4846281, -21.3519377 ], [ 55.4837055, -21.3508992 ], [ 55.4832687, -21.349361 ], [ 55.4816804, -21.3487129 ], [ 55.4814401, -21.3477554 ], [ 55.4807648, -21.3474547 ], [ 55.4804537, -21.3474585 ], [ 55.4802006, -21.3473465 ], [ 55.4788014, -21.3482436 ], [ 55.4787183, -21.347648 ], [ 55.4803844, -21.3468473 ], [ 55.4802311, -21.3454298 ], [ 55.4789368, -21.3441418 ], [ 55.4796875, -21.3413647 ], [ 55.4786986, -21.343171 ], [ 55.478346, -21.3443538 ], [ 55.4770086, -21.3441699 ], [ 55.4740524, -21.344185 ], [ 55.4752353, -21.3443315 ], [ 55.4756927, -21.3459103 ], [ 55.4771501, -21.345642 ], [ 55.4772472, -21.3447938 ], [ 55.4787013, -21.346021 ], [ 55.4773973, -21.3454364 ], [ 55.4774405, -21.3462411 ], [ 55.4763823, -21.3461148 ], [ 55.4749252, -21.346344599999988 ], [ 55.4748994, -21.3447793 ], [ 55.4746807, -21.3446219 ], [ 55.4696504, -21.3444157 ], [ 55.4672768, -21.3435356 ], [ 55.4646519, -21.3424422 ], [ 55.4631003, -21.3419219 ], [ 55.4624715, -21.3418537 ], [ 55.4601848, -21.3414637 ], [ 55.4575723, -21.3394928 ], [ 55.456663, -21.3385221 ], [ 55.4563014, -21.3382458 ], [ 55.4560473, -21.3366491 ], [ 55.4540093, -21.3347586 ], [ 55.4549799, -21.3317431 ], [ 55.454534, -21.3309975 ], [ 55.4517058, -21.3298484 ], [ 55.4505568, -21.3311568 ], [ 55.4514493, -21.3298541 ], [ 55.4488904, -21.3282412 ], [ 55.443103, -21.3281545 ], [ 55.4391244, -21.3274321 ], [ 55.4318588, -21.3262708 ], [ 55.4297583, -21.3262254 ], [ 55.4256856, -21.3247501 ], [ 55.4163129, -21.3191532 ], [ 55.4114549, -21.3144197 ], [ 55.4085752, -21.307527 ], [ 55.4044862, -21.3039281 ], [ 55.4038017, -21.3033166 ], [ 55.402296, -21.3019365 ], [ 55.3989526, -21.2983699 ], [ 55.3970782, -21.2958678 ], [ 55.3910733, -21.2925517 ], [ 55.3794486, -21.2878066 ], [ 55.3663337, -21.2845836 ], [ 55.358051, -21.2838319 ], [ 55.342959, -21.2809998 ], [ 55.3425598, -21.2817391 ], [ 55.3425871, -21.2812479 ], [ 55.3417689, -21.2807172 ], [ 55.3415792, -21.2817302 ], [ 55.34063, -21.2815754 ], [ 55.3409337, -21.2802724 ], [ 55.3394818, -21.2810168 ], [ 55.338177, -21.278878 ], [ 55.3363567, -21.2783495 ], [ 55.3359964, -21.2774966 ], [ 55.3354635, -21.2779198 ], [ 55.3337238, -21.2761472 ], [ 55.3321987, -21.2724537 ], [ 55.334553, -21.2695362 ], [ 55.3324124, -21.2657335 ], [ 55.3310438, -21.2655668 ], [ 55.3317899, -21.2629959 ], [ 55.3316073, -21.260823 ], [ 55.3304276, -21.2587113 ], [ 55.3220065, -21.2528901 ], [ 55.3202357, -21.2520902 ], [ 55.3211005, -21.2511638 ], [ 55.320582, -21.24924 ], [ 55.3186872, -21.2471386 ], [ 55.3164047, -21.2460801 ], [ 55.3151271, -21.2442775 ], [ 55.3141541, -21.2449938 ], [ 55.3131159, -21.2446701 ], [ 55.3122822, -21.2425912 ], [ 55.3120672, -21.2421763 ], [ 55.310912, -21.2424506 ], [ 55.3108465, -21.2401726 ], [ 55.3082249, -21.2390844 ], [ 55.3075155, -21.2379335 ], [ 55.3039577, -21.2364747 ], [ 55.3024557, -21.2365638 ], [ 55.300562, -21.2354488 ], [ 55.2973793, -21.2333981 ], [ 55.2966568, -21.2321684 ], [ 55.2954637, -21.2319797 ], [ 55.2953894, -21.2312507 ], [ 55.2930319, -21.2301124 ], [ 55.2931851, -21.2286604 ], [ 55.2928581, -21.2283606 ], [ 55.2921081, -21.2273956 ], [ 55.2924771, -21.2241416 ], [ 55.2881122, -21.2184637 ], [ 55.2883438, -21.2168858 ], [ 55.2877596, -21.2168189 ], [ 55.2878563, -21.215541 ], [ 55.2858361, -21.2120625 ], [ 55.2862814, -21.2097234 ], [ 55.285245, -21.2086186 ], [ 55.2854147, -21.2074447 ], [ 55.2831581, -21.2057572 ], [ 55.2827566, -21.2046984 ], [ 55.2818201, -21.2047338 ], [ 55.2811961, -21.2029567 ], [ 55.2806501, -21.203479 ], [ 55.2806287, -21.201885 ], [ 55.2826797, -21.2010344 ], [ 55.2828277, -21.1975656 ], [ 55.2844853, -21.1960362 ], [ 55.2864963, -21.1878768 ], [ 55.2860105, -21.1869604 ], [ 55.2868315, -21.1852277 ], [ 55.2865842, -21.1843858 ], [ 55.2873959, -21.1830206 ], [ 55.2866354, -21.1797334 ], [ 55.286776, -21.1748518 ], [ 55.2854459, -21.1676534 ], [ 55.2857325, -21.1677324 ], [ 55.2859668, -21.1654313 ], [ 55.2874424, -21.1635561 ], [ 55.2862453, -21.1602053 ], [ 55.2820249, -21.1541595 ], [ 55.27543, -21.1504155 ], [ 55.2731036, -21.1503459 ], [ 55.2722701, -21.149734 ], [ 55.2716749, -21.1494222 ], [ 55.2724552, -21.1470182 ], [ 55.2716939, -21.1460753 ], [ 55.2707074, -21.1461312 ], [ 55.2712735, -21.1446113 ], [ 55.270211, -21.1435127 ], [ 55.271647, -21.1429982 ], [ 55.2704887, -21.1421236 ], [ 55.2713004, -21.1410515 ], [ 55.2713576, -21.1383465 ], [ 55.2706562, -21.1371878 ], [ 55.2714029, -21.1356256 ], [ 55.2707702, -21.1350412 ], [ 55.2713315, -21.1344586 ], [ 55.2704668, -21.1338248 ], [ 55.2710228, -21.1317097 ], [ 55.2699286, -21.1317089 ], [ 55.2701455, -21.130946 ], [ 55.267595, -21.1304886 ], [ 55.2681349, -21.1294205 ], [ 55.2673566, -21.1275329 ], [ 55.2656516, -21.1266942 ], [ 55.2642108, -21.1269195 ], [ 55.2632043, -21.1257378 ], [ 55.2626166, -21.1247563 ], [ 55.2604979, -21.1224273 ], [ 55.2589642, -21.119589 ], [ 55.2573356, -21.1183414 ], [ 55.2571963, -21.1178133 ], [ 55.2565492, -21.117515 ], [ 55.2557334, -21.1158093 ], [ 55.2534868, -21.1143209 ], [ 55.2528533, -21.112995 ], [ 55.2547395, -21.1107909 ], [ 55.2541349, -21.1100257 ], [ 55.2539586, -21.1098253 ], [ 55.2537983, -21.1096492 ], [ 55.248966, -21.1065843 ], [ 55.2479043, -21.106182 ], [ 55.2461051, -21.1027645 ], [ 55.2392172, -21.0982873 ], [ 55.23255, -21.0927851 ], [ 55.2214101, -21.0789601 ], [ 55.2206409, -21.0770158 ], [ 55.2202188, -21.0714526 ], [ 55.2225697, -21.0557494 ], [ 55.2219995, -21.0555222 ], [ 55.222198, -21.054635 ], [ 55.2225803, -21.0548056 ], [ 55.2234615, -21.0550365 ], [ 55.2239431, -21.053728 ], [ 55.2218633, -21.0507833 ], [ 55.2171042, -21.042021 ] ] ] ]
    }
  }, {
    "type" : "Feature",
    "properties" : {
      "osm_id" : 278344,
      "admin_level" : "8",
      "country_code" : "RE",
      "name" : "Les Trois-Bassins",
      "population" : "6899",
      "wikidata" : "Q1014763",
      "wikipedia" : "fr:Les Trois-Bassins",
      "name_props" : {
        "name:ja" : "レ・トロワ・バシン"
      },
      "parent_boundary_id" : 77601
    },
    "geometry" : {
      "type" : "MultiPolygon",
      "coordinates" : [ [ [ [ 55.2541349, -21.1100257 ], [ 55.2539586, -21.1098253 ], [ 55.256755, -21.1098129 ], [ 55.2584399, -21.109116 ], [ 55.2597272, -21.1098123 ], [ 55.2653213, -21.1078017 ], [ 55.2671526, -21.1086171 ], [ 55.2684214, -21.1062206 ], [ 55.2702731, -21.1059247 ], [ 55.2763104, -21.102366 ], [ 55.2778777, -21.1028797 ], [ 55.282283, -21.1003626 ], [ 55.2873284, -21.099802 ], [ 55.292843, -21.0978708 ], [ 55.2943621, -21.0979182 ], [ 55.2980939, -21.0963504 ], [ 55.2994693, -21.0945333 ], [ 55.3046988, -21.0944932 ], [ 55.3072414, -21.0937373 ], [ 55.3075638, -21.092906 ], [ 55.3092006, -21.0921949 ], [ 55.3133494, -21.0919524 ], [ 55.3144493, -21.0923922 ], [ 55.3223473, -21.0920252 ], [ 55.3266495, -21.093985 ], [ 55.3294253, -21.093622 ], [ 55.3364453, -21.094926 ], [ 55.3390271, -21.093795 ], [ 55.3430104, -21.0934145 ], [ 55.3522411, -21.0946832 ], [ 55.3554844, -21.0942561 ], [ 55.3573695, -21.0949865 ], [ 55.36048069999999, -21.0935383 ], [ 55.3634589, -21.0947453 ], [ 55.3653648, -21.0963668 ], [ 55.3671911, -21.09614 ], [ 55.3756715, -21.0991549 ], [ 55.3787506, -21.0989346 ], [ 55.3837318, -21.097142 ], [ 55.3860215, -21.0980579 ], [ 55.3951561, -21.098065 ], [ 55.3997561, -21.0991865 ], [ 55.401883, -21.1021886 ], [ 55.4047076, -21.1040443 ], [ 55.4054283, -21.1054655 ], [ 55.4079629, -21.1067848 ], [ 55.4103875, -21.1094378 ], [ 55.4144141, -21.1113219 ], [ 55.4164317, -21.1130712 ], [ 55.4218777, -21.1146874 ], [ 55.4225686, -21.1161234 ], [ 55.422012, -21.117074 ], [ 55.4197144, -21.1177933 ], [ 55.4183173, -21.1209472 ], [ 55.4159843, -21.1227621 ], [ 55.4070041, -21.1216901 ], [ 55.4032106, -21.1192618 ], [ 55.3996824, -21.1200909 ], [ 55.3982563, -21.1192396 ], [ 55.3883629, -21.1174539 ], [ 55.3856291, -21.1177161 ], [ 55.3833585, -21.1188159 ], [ 55.3799803, -21.118995 ], [ 55.3751382, -21.1171681 ], [ 55.3738646, -21.1159414 ], [ 55.3700258, -21.1149074 ], [ 55.3646403, -21.1154568 ], [ 55.3622195, -21.1144684 ], [ 55.3588731, -21.1153779 ], [ 55.3553532, -21.1141344 ], [ 55.3532178, -21.1147008 ], [ 55.3506534, -21.1140411 ], [ 55.3428619, -21.1149616 ], [ 55.3406622, -21.116066 ], [ 55.3343041, -21.117376 ], [ 55.3325194, -21.1175837 ], [ 55.3293022, -21.1165792 ], [ 55.3262262, -21.1176676 ], [ 55.3253025, -21.1171091 ], [ 55.3229427, -21.1180066 ], [ 55.3217894, -21.1194228 ], [ 55.3154536, -21.1198249 ], [ 55.3132707, -21.1215545 ], [ 55.3054708, -21.123999 ], [ 55.301929, -21.1265885 ], [ 55.2976301, -21.1272559 ], [ 55.2922368, -21.1278695 ], [ 55.2826042, -21.1339252 ], [ 55.2777286, -21.1341397 ], [ 55.276967, -21.1336813 ], [ 55.2745818, -21.1349196 ], [ 55.272846, -21.1346725 ], [ 55.2714029, -21.1356256 ], [ 55.2707702, -21.1350412 ], [ 55.2713315, -21.1344586 ], [ 55.2704668, -21.1338248 ], [ 55.2710228, -21.1317097 ], [ 55.2699286, -21.1317089 ], [ 55.2701455, -21.130946 ], [ 55.267595, -21.1304886 ], [ 55.2681349, -21.1294205 ], [ 55.2673566, -21.1275329 ], [ 55.2656516, -21.1266942 ], [ 55.2642108, -21.1269195 ], [ 55.2632043, -21.1257378 ], [ 55.2626166, -21.1247563 ], [ 55.2604979, -21.1224273 ], [ 55.2589642, -21.119589 ], [ 55.2573356, -21.1183414 ], [ 55.2571963, -21.1178133 ], [ 55.2565492, -21.117515 ], [ 55.2557334, -21.1158093 ], [ 55.2534868, -21.1143209 ], [ 55.2528533, -21.112995 ], [ 55.2547395, -21.1107909 ], [ 55.2541349, -21.1100257 ] ] ] ]
    }
  }, {
    "type" : "Feature",
    "properties" : {
      "osm_id" : 2202162,
      "admin_level" : "2",
      "country_code" : "FR",
      "name" : "France",
      "population" : "67852556",
      "wikidata" : "Q142",
      "wikipedia" : "fr:France",
      "name_props" : {
        "name:af" : "Frankryk",
        "name:ak" : "Frɛnkyeman",
        "name:am" : "ፈረንሣይ",
        "name:an" : "Francia",
        "name:ar" : "فرنسا",
        "name:as" : "ফ্ৰান্স",
        "name:ay" : "Phransiya",
        "name:az" : "Fransa",
        "name:ba" : "Франция",
        "name:be" : "Францыя",
        "name:bg" : "Франция",
        "name:bi" : "Franis",
        "name:bm" : "France",
        "name:bn" : "ফ্রান্স",
        "name:bo" : "ཧྥ་རན་སི།",
        "name:br" : "Frañs",
        "name:bs" : "Francuska",
        "name:ca" : "França",
        "name:ce" : "Франци",
        "name:co" : "Francia",
        "name:cs" : "Francie",
        "name:cu" : "Франкїꙗ",
        "name:cv" : "Франци",
        "name:cy" : "Ffrainc",
        "name:da" : "Frankrig",
        "name:de" : "Frankreich",
        "name:dv" : "ފަރަންސޭސިވިލާތް",
        "name:dz" : "ཕརཱནསི་",
        "name:ee" : "France",
        "name:el" : "Γαλλία",
        "name:en" : "France",
        "name:eo" : "Francio",
        "name:es" : "Francia",
        "name:et" : "Prantsusmaa",
        "name:eu" : "Frantzia",
        "name:fa" : "فرانسه",
        "name:ff" : "Faransi",
        "name:fi" : "Ranska",
        "name:fo" : "Frakland",
        "name:fr" : "France",
        "name:fy" : "Frankryk",
        "name:ga" : "An Fhrainc",
        "name:gd" : "An Fhraing",
        "name:gl" : "Francia",
        "name:gn" : "Hyãsia",
        "name:gu" : "ફ્રાન્સ",
        "name:gv" : "Yn Rank",
        "name:ha" : "Faransa",
        "name:he" : "צרפת",
        "name:hi" : "फ़्रान्स",
        "name:hr" : "Francuska",
        "name:ht" : "Frans",
        "name:hu" : "Franciaország",
        "name:hy" : "Ֆրանսիա",
        "name:ia" : "Francia",
        "name:id" : "Perancis",
        "name:ie" : "Francia",
        "name:ii" : "ꃔꇩ",
        "name:io" : "Francia",
        "name:is" : "Frakkland",
        "name:it" : "Francia",
        "name:ja" : "フランス",
        "name:jv" : "Prancis",
        "name:ka" : "საფრანგეთი",
        "name:kg" : "Fwalansa",
        "name:ki" : "Ubaranja",
        "name:kk" : "Франция",
        "name:kl" : "Frankrigi",
        "name:km" : "បារាំង",
        "name:kn" : "ಫ್ರಾನ್ಸ್",
        "name:ko" : "프랑스",
        "name:ks" : "فرٛانس",
        "name:ku" : "Fransa",
        "name:kv" : "Франция",
        "name:kw" : "Pow Frynk",
        "name:ky" : "Франция",
        "name:la" : "Francia",
        "name:lb" : "Frankräich",
        "name:lg" : "Bufalansa",
        "name:li" : "Frankriek",
        "name:ln" : "Falansia",
        "name:lo" : "ປະເທດຝະລັ່ງ",
        "name:lt" : "Prancūzija",
        "name:lv" : "Francija",
        "name:mg" : "Frantsa",
        "name:mi" : "Wīwī",
        "name:mk" : "Франција",
        "name:ml" : "ഫ്രാൻസ്",
        "name:mn" : "Франц",
        "name:mo" : "Франца",
        "name:mr" : "फ्रान्स",
        "name:ms" : "Perancis",
        "name:mt" : "Franza",
        "name:my" : "ပြင်သစ်နိုင်ငံ",
        "name:na" : "Prant",
        "name:ne" : "फ्रान्स",
        "name:nl" : "Frankrijk",
        "name:nn" : "Frankrike",
        "name:no" : "Frankrike",
        "name:nv" : "Dáághahii Dineʼé Bikéyah",
        "name:oc" : "França",
        "name:or" : "ଫ୍ରାନ୍ସ",
        "name:os" : "Франц",
        "name:pa" : "ਫ੍ਰਾਂਸ",
        "name:pl" : "Francja",
        "name:ps" : "فرانسه",
        "name:pt" : "França",
        "name:qu" : "Ransiya",
        "name:rm" : "Frantscha",
        "name:rn" : "Francia",
        "name:ro" : "Franța",
        "name:ru" : "Франция",
        "name:rw" : "Ubufaransa",
        "name:sa" : "फ्रान्सदेशः",
        "name:sc" : "Frantza",
        "name:se" : "Frankriika",
        "name:sg" : "Farânzi",
        "name:sh" : "Francuska",
        "name:si" : "ප්රංශය",
        "name:sk" : "Francúzsko",
        "name:sl" : "Francija",
        "name:sm" : "Farani",
        "name:so" : "Faransiiska",
        "name:sq" : "Franca",
        "name:sr" : "Француска",
        "name:ss" : "IFulansi",
        "name:st" : "Fora",
        "name:su" : "Perancis",
        "name:sv" : "Frankrike",
        "name:sw" : "Ufaransa",
        "name:ta" : "பிரான்சு",
        "name:te" : "ఫ్రాన్స్",
        "name:tg" : "Фаронса",
        "name:th" : "ประเทศฝรั่งเศส",
        "name:ti" : "ፈረንሳይ",
        "name:tk" : "Fransiýa",
        "name:tl" : "Pransiya",
        "name:to" : "Falanisē",
        "name:tr" : "Fransa",
        "name:tt" : "Франция",
        "name:ty" : "Farāni",
        "name:ug" : "فرانسىيە",
        "name:uk" : "Франція",
        "name:ur" : "فرانس",
        "name:uz" : "Fransiya",
        "name:vi" : "Pháp",
        "name:vo" : "Fransän",
        "name:wa" : "France",
        "name:wo" : "Faraas",
        "name:yi" : "פראנקרייך",
        "name:yo" : "Fránsì",
        "name:za" : "Fazgoz",
        "name:zh" : "法国;法國",
        "name:zu" : "IFulansi",
        "name:ace" : "Peurancih",
        "name:ang" : "Francland",
        "name:arc" : "ܦܪܢܣܐ",
        "name:arz" : "فرنسا",
        "name:ast" : "Francia",
        "name:bar" : "Frankreich",
        "name:bcl" : "Pransya",
        "name:bjn" : "Parancis",
        "name:bpy" : "ফ্রান্স",
        "name:bug" : "Perancis",
        "name:bxr" : "Франци",
        "name:cdo" : "Huák-guók",
        "name:ceb" : "Pransiya",
        "name:chr" : "ᎦᎸᏥᏱ",
        "name:chy" : "France",
        "name:ckb" : "فەڕەنسا",
        "name:crh" : "Frenkistan",
        "name:csb" : "Francëjô",
        "name:diq" : "Fransa",
        "name:dsb" : "Francojska",
        "name:eml" : "Franza",
        "name:ext" : "Fráncia",
        "name:frp" : "France",
        "name:frr" : "Frånkrik",
        "name:fur" : "France",
        "name:gag" : "Franțiya",
        "name:gan" : "法國",
        "name:grc" : "Γαλλία",
        "name:gsw" : "Frankreich",
        "name:hak" : "Fap-koet",
        "name:haw" : "Palani",
        "name:hif" : "France",
        "name:hsb" : "Francoska",
        "name:ilo" : "Pransia",
        "name:jbo" : "fasygu'e'Eyn",
        "name:kaa" : "Frantsiya",
        "name:kab" : "Fransa",
        "name:kbd" : "Фрэндж",
        "name:koi" : "Франс",
        "name:krc" : "Франция",
        "name:ksh" : "Frankreich",
        "name:lad" : "Fransia",
        "name:lez" : "Франция",
        "name:lfn" : "Frans",
        "name:lij" : "Fransa",
        "name:lmo" : "Frància",
        "name:ltg" : "Praņceja",
        "name:lzh" : "法國",
        "name:mdf" : "Кранцмастор",
        "name:mhr" : "Франций",
        "name:min" : "Parancih",
        "name:mwl" : "Fráncia",
        "name:myv" : "Франция Мастор",
        "name:mzn" : "فرانسه",
        "name:nah" : "Francia",
        "name:nan" : "Hoat-kok",
        "name:nap" : "Franza",
        "name:nds" : "Frankriek",
        "name:nov" : "Fransia",
        "name:nrm" : "France",
        "name:nso" : "Fora",
        "name:pag" : "Fransia",
        "name:pam" : "Pransiya",
        "name:pap" : "Fransia",
        "name:pcd" : "Franche",
        "name:pdc" : "Frankreich",
        "name:pfl" : "Frongraisch",
        "name:pih" : "France",
        "name:pms" : "Fransa",
        "name:pnb" : "فرانس",
        "name:pnt" : "Γαλλία",
        "name:rmy" : "Franchiya",
        "name:rue" : "Франція",
        "name:sah" : "Франция",
        "name:scn" : "Francia",
        "name:sco" : "Fraunce",
        "name:sgs" : "Prancūzėjė",
        "name:sje" : "Frankrijjka",
        "name:smn" : "Ránská",
        "name:sms" : "Franskkjânnam",
        "name:srn" : "Franskondre",
        "name:stq" : "Frankriek",
        "name:szl" : "Francyjŏ",
        "name:tet" : "Fransa",
        "name:tok" : "ma Kanse",
        "name:tpi" : "Frens",
        "name:tzl" : "França",
        "name:udm" : "Франция",
        "name:vec" : "Fransa",
        "name:vep" : "Francii",
        "name:vls" : "Vrankryk",
        "name:vro" : "Prantsusmaa",
        "name:war" : "Fransya",
        "name:wuu" : "法国",
        "name:xal" : "Пранцсин Орн",
        "name:xmf" : "საფრანგეთი",
        "name:yue" : "法國",
        "name:zea" : "Frankriek",
        "name:nds-nl" : "Frankriek",
        "name:cbk-zam" : "Francia",
        "name:ja-Hira" : "ふらんす",
        "name:zh-Hans" : "法国",
        "name:zh-Hant" : "法國",
        "name:roa-tara" : "Frange",
        "name:be-tarask" : "Францыя",
        "name:zh-Latn-pinyin" : "Fǎguó"
      },
      "parent_boundary_id" : null
    },
    "geometry" : {
      "type" : "MultiPolygon",
      "coordinates" : [ [ [ [ 55.9275163, -20.9673746 ], [ 55.9492318, -20.9798892 ], [ 55.9611532, -20.988312 ], [ 55.9724213, -20.9974944 ], [ 55.9904055, -21.0152557 ], [ 55.9996047, -21.026287 ], [ 56.0079633, -21.0378935 ], [ 56.0204475, -21.0594179 ], [ 56.0276082, -21.0755877 ], [ 56.0311745, -21.0855491 ], [ 56.0350571, -21.0990775 ], [ 56.0384592, -21.1161485 ], [ 56.0443656, -21.1344696 ], [ 56.048111, -21.1516244 ], [ 56.0502491, -21.1690201 ], [ 56.0507905, -21.1830211 ], [ 56.0500012, -21.2005163 ], [ 56.0482003, -21.2144244 ], [ 56.0435704, -21.234981 ], [ 56.0392197, -21.2483843 ], [ 56.0308498, -21.2678742 ], [ 56.0205919, -21.2860506 ], [ 56.0199268, -21.3087178 ], [ 56.0214103, -21.3219488 ], [ 56.0219525, -21.3359497 ], [ 56.0211625, -21.3534445 ], [ 56.0193599, -21.3673524 ], [ 56.0165255, -21.3811085 ], [ 56.012673, -21.3946458 ], [ 56.0078207, -21.4078983 ], [ 55.9969967, -21.4302113 ], [ 55.9875233, -21.4453092 ], [ 55.9706446, -21.4684196 ], [ 55.9590147, -21.4821349 ], [ 55.9488169, -21.4923906 ], [ 55.9350339, -21.5042322 ], [ 55.9123214, -21.5215186 ], [ 55.8937161, -21.5332801 ], [ 55.8620815, -21.5487407 ], [ 55.8473964, -21.5543157 ], [ 55.8295472, -21.559588 ], [ 55.8038766, -21.5644804 ], [ 55.7797477, -21.566357 ], [ 55.766592, -21.5700931 ], [ 55.7519994, -21.5732488 ], [ 55.7253123, -21.5764927 ], [ 55.7022326, -21.583628 ], [ 55.680262, -21.5880019 ], [ 55.6579222, -21.5902009 ], [ 55.6426549, -21.5904458 ], [ 55.5797252, -21.5857492 ], [ 55.5576766, -21.5817351 ], [ 55.5329715, -21.5744542 ], [ 55.5128711, -21.572052 ], [ 55.5018632, -21.5699542 ], [ 55.4802757, -21.5641557 ], [ 55.4594566, -21.5562755 ], [ 55.4480661, -21.5508988 ], [ 55.4287351, -21.5469379 ], [ 55.4107994, -21.5416365 ], [ 55.3686236, -21.5252179 ], [ 55.348376, -21.5151195 ], [ 55.3278399, -21.5019675 ], [ 55.3156254, -21.4963467 ], [ 55.3026666, -21.4893336 ], [ 55.2902634, -21.4814905 ], [ 55.2800394, -21.4740641 ], [ 55.2546154, -21.4656785 ], [ 55.2377367, -21.4581309 ], [ 55.2220412, -21.4495683 ], [ 55.2036687, -21.4375044 ], [ 55.1840811, -21.421249 ], [ 55.1711653, -21.4083754 ], [ 55.1572689, -21.3916844 ], [ 55.1470718, -21.3766235 ], [ 55.1346599, -21.3647261 ], [ 55.1227852, -21.3512029 ], [ 55.1075029, -21.3295368 ], [ 55.0988317, -21.3138881 ], [ 55.0935501, -21.3022812 ], [ 55.0850209, -21.2862479 ], [ 55.0781078, -21.2697581 ], [ 55.071154, -21.2461334 ], [ 55.0672101, -21.2204992 ], [ 55.0580696, -21.2112364 ], [ 55.0464607, -21.1975208 ], [ 55.0361728, -21.1829079 ], [ 55.0289464, -21.1706463 ], [ 55.0241356, -21.1611558 ], [ 55.0164791, -21.1429635 ], [ 55.0121313, -21.12956 ], [ 55.0081159, -21.1124592 ], [ 55.0054169, -21.0916021 ], [ 55.004916, -21.0775996 ], [ 55.0053983, -21.0644775 ], [ 55.0037817, -21.0500582 ], [ 55.003421, -21.0290505 ], [ 55.0049091, -21.0115951 ], [ 55.0065779, -21.0012038 ], [ 55.012703, -20.9773801 ], [ 55.0218714, -20.9544346 ], [ 55.0339452, -20.9327087 ], [ 55.0442496, -20.918117 ], [ 55.0510677, -20.9097864 ], [ 55.0749674, -20.8846957 ], [ 55.0798402, -20.866901 ], [ 55.0834012, -20.8569393 ], [ 55.0905513, -20.840769 ], [ 55.1030171, -20.8192439 ], [ 55.1181764, -20.7993063 ], [ 55.1358026, -20.7812526 ], [ 55.1556329, -20.7653514 ], [ 55.1741614, -20.753615 ], [ 55.1938901, -20.7437624 ], [ 55.2146033, -20.7359011 ], [ 55.2252587, -20.732745 ], [ 55.2470218, -20.7280246 ], [ 55.260057, -20.7262605 ], [ 55.2726344, -20.7173134 ], [ 55.2883388, -20.7079148 ], [ 55.3048523, -20.6998382 ], [ 55.3185615, -20.6943703 ], [ 55.3664615, -20.680291 ], [ 55.3883013, -20.6759281 ], [ 55.4142243, -20.6735821 ], [ 55.4326609, -20.6737277 ], [ 55.4500853, -20.672764 ], [ 55.4761029, -20.6738316 ], [ 55.4981547, -20.6771143 ], [ 55.5197827, -20.6825644 ], [ 55.5332758, -20.6837069 ], [ 55.5479817, -20.6858959 ], [ 55.5707157, -20.6912888 ], [ 55.5932064, -20.6931237 ], [ 55.6301266, -20.6989136 ], [ 55.6446362, -20.7020613 ], [ 55.6588778, -20.7061526 ], [ 55.6727823, -20.7111675 ], [ 55.6870294, -20.7174472 ], [ 55.706345, -20.7234298 ], [ 55.7234189, -20.7304042 ], [ 55.7340656, -20.7356415 ], [ 55.7560037, -20.7438878 ], [ 55.7692791, -20.7502412 ], [ 55.7851597, -20.7593807 ], [ 55.7942609, -20.7654768 ], [ 55.8140912, -20.781378 ], [ 55.8269223, -20.794069 ], [ 55.8406746, -20.8105824 ], [ 55.8535093, -20.8241442 ], [ 55.8624907, -20.8353249 ], [ 55.870622, -20.8470668 ], [ 55.8826888, -20.8687929 ], [ 55.8891154, -20.8839581 ], [ 55.8958674, -20.8968894 ], [ 55.9014699, -20.9098735 ], [ 55.9060958, -20.923193 ], [ 55.9098959, -20.9375799 ], [ 55.9193573, -20.9520806 ], [ 55.9275163, -20.9673746 ] ] ] ]
    }
  }, {
    "type" : "Feature",
    "properties" : {
      "osm_id" : 192468,
      "admin_level" : "8",
      "country_code" : "RE",
      "name" : "Saint-Denis",
      "population" : "154765",
      "wikidata" : "Q47045",
      "wikipedia" : "fr:Saint-Denis (La Réunion)",
      "name_props" : {
        "name:br" : "Sant-Denez",
        "name:ca" : "Saint-Denis",
        "name:de" : "Saint-Denis",
        "name:es" : "Saint-Denis",
        "name:ja" : "サン＝ドニ",
        "name:sr" : "Сен Дени",
        "name:ur" : "سینٹ-ڈینس",
        "name:azb" : "سن-دنی",
        "name:rcf" : "Sin-Dni",
        "name:zh-Hans" : "圣但尼"
      },
      "parent_boundary_id" : 77601
    },
    "geometry" : {
      "type" : "MultiPolygon",
      "coordinates" : [ [ [ [ 55.4334011, -20.9906779 ], [ 55.4255961, -20.9880043 ], [ 55.42440650000001, -20.9863494 ], [ 55.4195274, -20.9832284 ], [ 55.4133398, -20.9828903 ], [ 55.4081061, -20.9838115 ], [ 55.4029786, -20.9836046 ], [ 55.4052014, -20.9759315 ], [ 55.4033507, -20.9731461 ], [ 55.404343, -20.9721968 ], [ 55.4062495, -20.96722 ], [ 55.4051669, -20.9636432 ], [ 55.4071065, -20.9567121 ], [ 55.4033493, -20.9500085 ], [ 55.4016511, -20.9490802 ], [ 55.4006269, -20.9494766 ], [ 55.399012, -20.9459521 ], [ 55.3965833, -20.9446589 ], [ 55.3946473, -20.9411828 ], [ 55.3922257, -20.9390592 ], [ 55.3917166, -20.9360941 ], [ 55.3923775, -20.9339418 ], [ 55.3906848, -20.9320167 ], [ 55.3900399, -20.9292339 ], [ 55.3891736, -20.9288527 ], [ 55.388777, -20.9254644 ], [ 55.3888792, -20.9240186 ], [ 55.3897462, -20.9231078 ], [ 55.3894579, -20.9222834 ], [ 55.3870579, -20.920587 ], [ 55.3856354, -20.9205801 ], [ 55.3847035, -20.9184006 ], [ 55.3819597, -20.9153046 ], [ 55.3814249, -20.9126088 ], [ 55.3803589, -20.9113647 ], [ 55.378956, -20.9111877 ], [ 55.3789256, -20.9084173 ], [ 55.3769234, -20.9053582 ], [ 55.3774496, -20.9030023 ], [ 55.3756386, -20.896102 ], [ 55.3770498, -20.8951489 ], [ 55.3767386, -20.8942006 ], [ 55.3806109, -20.8905855 ], [ 55.3812137, -20.8917125 ], [ 55.3846567, -20.8905215 ], [ 55.3901686, -20.8869632 ], [ 55.3955814, -20.8815589 ], [ 55.4106951, -20.8780538 ], [ 55.42161260000001, -20.8743043 ], [ 55.4280478, -20.8746966 ], [ 55.4281309, -20.8734811 ], [ 55.4344426, -20.874416 ], [ 55.4399241, -20.8763853 ], [ 55.4447104, -20.875182 ], [ 55.4478726, -20.8720849 ], [ 55.4505006, -20.8717411 ], [ 55.4519767, -20.8722649 ], [ 55.4582565, -20.8776414 ], [ 55.4672876, -20.8831465 ], [ 55.467575, -20.8832703 ], [ 55.4679011, -20.8834108 ], [ 55.4706292, -20.8844716 ], [ 55.4729614, -20.884278 ], [ 55.4855812, -20.8858513 ], [ 55.4906951, -20.8856682 ], [ 55.497087, -20.8835483 ], [ 55.5005638, -20.8826015 ], [ 55.5036271, -20.8823327 ], [ 55.5028941, -20.8883282 ], [ 55.5054885, -20.8941582 ], [ 55.5048368, -20.8954587 ], [ 55.5055663, -20.9011417 ], [ 55.5049977, -20.9033092 ], [ 55.5058721, -20.9047311 ], [ 55.5065507, -20.9060128 ], [ 55.5059083, -20.9070727 ], [ 55.5060303, -20.9096209 ], [ 55.5076209, -20.9114273 ], [ 55.5103379, -20.9177587 ], [ 55.5122316, -20.9196804 ], [ 55.5126514, -20.9223962 ], [ 55.5112338, -20.9264523 ], [ 55.5046999, -20.9311923 ], [ 55.5024737, -20.9345091 ], [ 55.5010374, -20.9354548 ], [ 55.5018085, -20.9374 ], [ 55.5010843, -20.9407869 ], [ 55.4995421, -20.9425555 ], [ 55.5000684, -20.944066 ], [ 55.4977611, -20.9458883 ], [ 55.4975895, -20.947516 ], [ 55.4966446, -20.9486482 ], [ 55.497167, -20.9507767 ], [ 55.4950869, -20.9510047 ], [ 55.4942393, -20.9522947 ], [ 55.4954885, -20.9533499 ], [ 55.4956146, -20.9543242 ], [ 55.4931611, -20.9554608 ], [ 55.4953061, -20.9579512 ], [ 55.4944539, -20.9609762 ], [ 55.4937431, -20.9617327 ], [ 55.4914525, -20.9619756 ], [ 55.4899424, -20.9649562 ], [ 55.4895911, -20.9668772 ], [ 55.4915327, -20.9686509 ], [ 55.4901874, -20.973348 ], [ 55.491146, -20.9740008 ], [ 55.4917616, -20.9768234 ], [ 55.4902649, -20.9827688 ], [ 55.4892189, -20.9839108 ], [ 55.4902998, -20.9850803 ], [ 55.4925286, -20.9857254 ], [ 55.4920071, -20.9877903 ], [ 55.4897354, -20.9889849 ], [ 55.4882828, -20.9909566 ], [ 55.487257, -20.990515 ], [ 55.4849147, -20.9911137 ], [ 55.4827734, -20.9927105 ], [ 55.4809537, -20.9925874 ], [ 55.4798878, -20.9944635 ], [ 55.4786464, -20.9950953 ], [ 55.478246, -21.0012921 ], [ 55.4755213, -21.0030996 ], [ 55.4755415, -21.0043183 ], [ 55.4736834, -21.0067713 ], [ 55.4691583, -21.0098487 ], [ 55.4656903, -21.011057 ], [ 55.4628797, -21.0144528 ], [ 55.4610797, -21.0150497 ], [ 55.4590948, -21.0132736 ], [ 55.4567895, -21.0074302 ], [ 55.453485, -21.0040747 ], [ 55.4520364, -21.001377 ], [ 55.4489078, -20.9988875 ], [ 55.4452551, -20.9975927 ], [ 55.444175, -20.9963004 ], [ 55.4371189, -20.9900249 ], [ 55.4357691, -20.9897916 ], [ 55.4334011, -20.9906779 ] ] ] ]
    }
  }, {
    "type" : "Feature",
    "properties" : {
      "osm_id" : 278311,
      "admin_level" : "8",
      "country_code" : "RE",
      "name" : "Le Port",
      "population" : "33336",
      "wikidata" : "Q956943",
      "wikipedia" : "fr:Le Port (La Réunion)",
      "name_props" : {
        "name:br" : "Ar Porzh",
        "name:fr" : "Le Port",
        "name:ja" : "レ・ポール",
        "name:rcf" : "Le Port"
      },
      "parent_boundary_id" : 77601
    },
    "geometry" : {
      "type" : "MultiPolygon",
      "coordinates" : [ [ [ [ 55.2772401, -20.9578463 ], [ 55.2773561, -20.9535157 ], [ 55.2791153, -20.951063 ], [ 55.2808854, -20.9464896 ], [ 55.2816972, -20.9404582 ], [ 55.2814371, -20.937284 ], [ 55.2830601, -20.9370466 ], [ 55.2847508, -20.9381676 ], [ 55.2834515, -20.9382282 ], [ 55.2829757, -20.9417862 ], [ 55.2824256, -20.9420195 ], [ 55.282053, -20.945201 ], [ 55.2836701, -20.944321 ], [ 55.2840137, -20.9427003 ], [ 55.2830791, -20.9417341 ], [ 55.2836238, -20.9416004 ], [ 55.284189, -20.9385318 ], [ 55.28487, -20.9384296 ], [ 55.2855851, -20.9387132 ], [ 55.2852997, -20.9404087 ], [ 55.2864333, -20.9405785 ], [ 55.286717, -20.9388778 ], [ 55.287325, -20.9386996 ], [ 55.2868769, -20.9404299 ], [ 55.2878312, -20.9405778 ], [ 55.2881135, -20.9389245 ], [ 55.2874135, -20.9389507 ], [ 55.2881676, -20.9369745 ], [ 55.2869118, -20.9358063 ], [ 55.2871106, -20.9348003 ], [ 55.2894248, -20.9350697 ], [ 55.289506, -20.9345519 ], [ 55.2878615, -20.9341514 ], [ 55.2880598, -20.9333531 ], [ 55.2895088, -20.9335921 ], [ 55.2896999, -20.9330377 ], [ 55.2864017, -20.9323177 ], [ 55.2865673, -20.9313244 ], [ 55.2880258, -20.9315326 ], [ 55.2881548, -20.9307346 ], [ 55.287662, -20.9312079 ], [ 55.2876931, -20.9306648 ], [ 55.2871969, -20.9311403 ], [ 55.2872271, -20.930597 ], [ 55.2867316, -20.9310736 ], [ 55.2867651, -20.9305296 ], [ 55.2857693, -20.9305422 ], [ 55.28577339999999, -20.9339185 ], [ 55.2847608, -20.9341415 ], [ 55.2846368, -20.9349005 ], [ 55.2863547, -20.9348097 ], [ 55.286407, -20.935793 ], [ 55.2822813, -20.9359645 ], [ 55.2831625, -20.9356382 ], [ 55.2840502, -20.9335173 ], [ 55.2834956, -20.9271728 ], [ 55.2840333, -20.9257291 ], [ 55.2888674, -20.9233896 ], [ 55.3006726, -20.9281882 ], [ 55.3053589, -20.9291503 ], [ 55.3081742, -20.9293908 ], [ 55.3180447, -20.9283326 ], [ 55.3191691, -20.9270018 ], [ 55.3187056, -20.9289338 ], [ 55.3194385, -20.9290604 ], [ 55.3193855, -20.9312173 ], [ 55.31295449999999, -20.9317339 ], [ 55.3130977, -20.9329625 ], [ 55.3194609, -20.9327578 ], [ 55.322807, -20.9354065 ], [ 55.3250658, -20.9350162 ], [ 55.3250385, -20.9294033 ], [ 55.3226921, -20.9290726 ], [ 55.3232889, -20.9284769 ], [ 55.3218899, -20.926184 ], [ 55.3238983, -20.9286414 ], [ 55.3303606, -20.9275658 ], [ 55.3282719, -20.9349197 ], [ 55.325708, -20.9364353 ], [ 55.3251378, -20.9370419 ], [ 55.3265194, -20.9376101 ], [ 55.3293123, -20.9400622 ], [ 55.3297017, -20.9404108 ], [ 55.3301364, -20.9407932 ], [ 55.3286783, -20.943857 ], [ 55.3281777, -20.9449967 ], [ 55.3277316, -20.9459895 ], [ 55.3273036, -20.9469767 ], [ 55.3237851, -20.9548961 ], [ 55.3202522, -20.9629073 ], [ 55.320152, -20.9630856 ], [ 55.3209338, -20.9646836 ], [ 55.3190753, -20.9687793 ], [ 55.315344, -20.9659455 ], [ 55.3134987, -20.9631603 ], [ 55.3120824, -20.9628397 ], [ 55.307233, -20.9594333 ], [ 55.2967286, -20.9567525 ], [ 55.2847883, -20.9563875 ], [ 55.2803036, -20.9578503 ], [ 55.2772401, -20.9578463 ] ] ] ]
    }
  }, {
    "type" : "Feature",
    "properties" : {
      "osm_id" : 278304,
      "admin_level" : "8",
      "country_code" : "RE",
      "name" : "La Possession",
      "population" : "35245",
      "wikidata" : "Q429770",
      "wikipedia" : "fr:La Possession",
      "name_props" : {
        "name:fr" : "La Possession",
        "name:ja" : "ラ・ポゼッション"
      },
      "parent_boundary_id" : 77601
    },
    "geometry" : {
      "type" : "MultiPolygon",
      "coordinates" : [ [ [ [ 55.3881772, -21.0007426 ], [ 55.3847167, -20.9984683 ], [ 55.3786656, -20.9988389 ], [ 55.3747925, -20.9961745 ], [ 55.3732046, -20.9938106 ], [ 55.3720996, -20.9897037 ], [ 55.3676149, -20.9849657 ], [ 55.3597185, -20.9797366 ], [ 55.3578731, -20.9774826 ], [ 55.3532919, -20.9750383 ], [ 55.3490004, -20.9735255 ], [ 55.3441831, -20.9732751 ], [ 55.3362438, -20.971011 ], [ 55.3258154, -20.9705101 ], [ 55.3190753, -20.9687793 ], [ 55.3209338, -20.9646836 ], [ 55.320152, -20.9630856 ], [ 55.3202522, -20.9629073 ], [ 55.3237851, -20.9548961 ], [ 55.3273036, -20.9469767 ], [ 55.3277316, -20.9459895 ], [ 55.3281777, -20.9449967 ], [ 55.3286783, -20.943857 ], [ 55.3301364, -20.9407932 ], [ 55.3297017, -20.9404108 ], [ 55.3293123, -20.9400622 ], [ 55.3265194, -20.9376101 ], [ 55.3251378, -20.9370419 ], [ 55.325708, -20.9364353 ], [ 55.3282719, -20.9349197 ], [ 55.3303606, -20.9275658 ], [ 55.3437511, -20.922148 ], [ 55.3459646, -20.9196251 ], [ 55.3521802, -20.9114746 ], [ 55.360078, -20.9079362 ], [ 55.3636946, -20.9052865 ], [ 55.368039, -20.9002814 ], [ 55.3673196, -20.8995488 ], [ 55.3681372, -20.898607 ], [ 55.3748126, -20.8956567 ], [ 55.3756386, -20.896102 ], [ 55.3774496, -20.9030023 ], [ 55.3769234, -20.9053582 ], [ 55.3789256, -20.9084173 ], [ 55.378956, -20.9111877 ], [ 55.3803589, -20.9113647 ], [ 55.3814249, -20.9126088 ], [ 55.3819597, -20.9153046 ], [ 55.3847035, -20.9184006 ], [ 55.3856354, -20.9205801 ], [ 55.3870579, -20.920587 ], [ 55.3894579, -20.9222834 ], [ 55.3897462, -20.9231078 ], [ 55.3888792, -20.9240186 ], [ 55.388777, -20.9254644 ], [ 55.3891736, -20.9288527 ], [ 55.3900399, -20.9292339 ], [ 55.3906848, -20.9320167 ], [ 55.3923775, -20.9339418 ], [ 55.3917166, -20.9360941 ], [ 55.3922257, -20.9390592 ], [ 55.3946473, -20.9411828 ], [ 55.3965833, -20.9446589 ], [ 55.399012, -20.9459521 ], [ 55.4006269, -20.9494766 ], [ 55.4016511, -20.9490802 ], [ 55.4033493, -20.9500085 ], [ 55.4071065, -20.9567121 ], [ 55.4051669, -20.9636432 ], [ 55.4062495, -20.96722 ], [ 55.404343, -20.9721968 ], [ 55.4033507, -20.9731461 ], [ 55.4052014, -20.9759315 ], [ 55.4029786, -20.9836046 ], [ 55.4081061, -20.9838115 ], [ 55.4133398, -20.9828903 ], [ 55.4195274, -20.9832284 ], [ 55.42440650000001, -20.9863494 ], [ 55.4255961, -20.9880043 ], [ 55.4334011, -20.9906779 ], [ 55.4357691, -20.9897916 ], [ 55.4371189, -20.9900249 ], [ 55.444175, -20.9963004 ], [ 55.4452551, -20.9975927 ], [ 55.4489078, -20.9988875 ], [ 55.4520364, -21.001377 ], [ 55.453485, -21.0040747 ], [ 55.4567895, -21.0074302 ], [ 55.4590948, -21.0132736 ], [ 55.4610797, -21.0150497 ], [ 55.4600804, -21.0204908 ], [ 55.4618781, -21.0253776 ], [ 55.461677, -21.0267077 ], [ 55.4603706, -21.0279056 ], [ 55.4538059, -21.0305175 ], [ 55.4544405, -21.0384889 ], [ 55.4536354, -21.0442903 ], [ 55.4543987, -21.0462904 ], [ 55.4539964, -21.0481487 ], [ 55.4547901, -21.0491393 ], [ 55.4541667, -21.0505354 ], [ 55.4544575, -21.0536013 ], [ 55.4535628, -21.0552331 ], [ 55.4544568, -21.0574595 ], [ 55.4528082, -21.0594685 ], [ 55.4530391, -21.0605912 ], [ 55.4477832, -21.0633005 ], [ 55.4439739, -21.0664447 ], [ 55.4449755, -21.0685834 ], [ 55.4500313, -21.0719304 ], [ 55.4532337, -21.0772815 ], [ 55.4554634, -21.0791833 ], [ 55.4574892, -21.0797732 ], [ 55.4584311, -21.0817485 ], [ 55.4631581, -21.0826335 ], [ 55.4650147, -21.085831 ], [ 55.4586349, -21.0868978 ], [ 55.4564148, -21.0862232 ], [ 55.4485545, -21.0837712 ], [ 55.4460702, -21.0853347 ], [ 55.4454211, -21.0851332 ], [ 55.4454177, -21.0859228 ], [ 55.4442582, -21.086774 ], [ 55.4429258, -21.0856995 ], [ 55.4413648, -21.0863602 ], [ 55.4423022, -21.089886 ], [ 55.4381529, -21.092639 ], [ 55.4357953, -21.0916662 ], [ 55.4348599, -21.0928555 ], [ 55.4337129, -21.0922987 ], [ 55.4323914, -21.0926646 ], [ 55.4283482, -21.0913359 ], [ 55.4266718, -21.0927786 ], [ 55.4253897, -21.0954815 ], [ 55.4228215, -21.0958729 ], [ 55.4215779, -21.0972142 ], [ 55.4179459, -21.0950302 ], [ 55.414285, -21.091919 ], [ 55.4139739, -21.0908779 ], [ 55.4117428, -21.0902397 ], [ 55.4099616, -21.0875558 ], [ 55.4089024, -21.0871916 ], [ 55.4089665, -21.0856713 ], [ 55.4059223, -21.0856851 ], [ 55.4036316, -21.0840997 ], [ 55.404793, -21.0810864 ], [ 55.4067832, -21.0799777 ], [ 55.4085213, -21.0773173 ], [ 55.4098678, -21.077027 ], [ 55.4115114, -21.0754617 ], [ 55.4153341, -21.0693834 ], [ 55.4173036, -21.0678341 ], [ 55.4174458, -21.0659271 ], [ 55.4165687, -21.0634154 ], [ 55.4123461, -21.0592013 ], [ 55.4059572, -21.0566072 ], [ 55.406637, -21.0546994 ], [ 55.4046294, -21.0543753 ], [ 55.4048373, -21.0528884 ], [ 55.4038893, -21.0510321 ], [ 55.4017729, -21.0495354 ], [ 55.4017818, -21.0470452 ], [ 55.4030549, -21.0460471 ], [ 55.4027231, -21.0438508 ], [ 55.40338, -21.0417045 ], [ 55.4022302, -21.0390002 ], [ 55.4033609, -21.0363069 ], [ 55.4013224, -21.0343815 ], [ 55.4001179, -21.0302681 ], [ 55.3975538, -21.0283053 ], [ 55.4014636, -21.0263982 ], [ 55.4021671, -21.024342 ], [ 55.4034895, -21.0234808 ], [ 55.4031971, -21.0214253 ], [ 55.4045027, -21.0203894 ], [ 55.4028568, -21.0159383 ], [ 55.4004961, -21.0141694 ], [ 55.4011445, -21.0103088 ], [ 55.399372, -21.0083015 ], [ 55.3964655, -21.0079121 ], [ 55.3955045, -21.0053807 ], [ 55.3942208, -21.0046696 ], [ 55.3903164, -21.0039565 ], [ 55.3881772, -21.0007426 ] ] ] ]
    }
  }, {
    "type" : "Feature",
    "properties" : {
      "osm_id" : 278305,
      "admin_level" : "8",
      "country_code" : "RE",
      "name" : "Salazie",
      "population" : "7243",
      "wikidata" : "Q1014778",
      "wikipedia" : "fr:Salazie",
      "name_props" : {
        "name:ja" : "サラジー"
      },
      "parent_boundary_id" : 77601
    },
    "geometry" : {
      "type" : "MultiPolygon",
      "coordinates" : [ [ [ [ 55.4650147, -21.085831 ], [ 55.4631581, -21.0826335 ], [ 55.4584311, -21.0817485 ], [ 55.4574892, -21.0797732 ], [ 55.4554634, -21.0791833 ], [ 55.4532337, -21.0772815 ], [ 55.4500313, -21.0719304 ], [ 55.4449755, -21.0685834 ], [ 55.4439739, -21.0664447 ], [ 55.4477832, -21.0633005 ], [ 55.4530391, -21.0605912 ], [ 55.4528082, -21.0594685 ], [ 55.4544568, -21.0574595 ], [ 55.4535628, -21.0552331 ], [ 55.4544575, -21.0536013 ], [ 55.4541667, -21.0505354 ], [ 55.4547901, -21.0491393 ], [ 55.4539964, -21.0481487 ], [ 55.4543987, -21.0462904 ], [ 55.4536354, -21.0442903 ], [ 55.4544405, -21.0384889 ], [ 55.4538059, -21.0305175 ], [ 55.4603706, -21.0279056 ], [ 55.461677, -21.0267077 ], [ 55.4618781, -21.0253776 ], [ 55.4600804, -21.0204908 ], [ 55.4610797, -21.0150497 ], [ 55.4628797, -21.0144528 ], [ 55.4656903, -21.011057 ], [ 55.4691583, -21.0098487 ], [ 55.4723748, -21.0102466 ], [ 55.4748475, -21.0086638 ], [ 55.4810964, -21.0074609 ], [ 55.487851, -21.0048119 ], [ 55.4889973, -21.0037777 ], [ 55.4923464, -21.0030388 ], [ 55.4929421, -21.0034398 ], [ 55.4977633, -21.0010333 ], [ 55.5017978, -21.0002625 ], [ 55.507889, -20.9999346 ], [ 55.5111811, -21.0010946 ], [ 55.5141288, -21.00328 ], [ 55.5172481, -21.0084418 ], [ 55.5238673, -21.0061397 ], [ 55.5318355, -21.0058105 ], [ 55.5326894, -21.0050188 ], [ 55.5405563, -21.0041404 ], [ 55.5434876, -21.0058621 ], [ 55.5546464, -21.0062975 ], [ 55.5572668, -21.0032042 ], [ 55.5611681, -21.002631 ], [ 55.5628523, -21.0002854 ], [ 55.5679854, -20.9980261 ], [ 55.5740769, -20.9935942 ], [ 55.5781556, -20.9974934 ], [ 55.579102, -20.9976017 ], [ 55.5793925, -20.9989254 ], [ 55.5843757, -20.9997387 ], [ 55.5852369, -21.0010421 ], [ 55.5840705, -21.0021128 ], [ 55.5845479, -21.0054642 ], [ 55.5766892, -21.0098793 ], [ 55.5719056, -21.009963 ], [ 55.5718823, -21.0123773 ], [ 55.5699544, -21.0131908 ], [ 55.5698318, -21.0149551 ], [ 55.5678059, -21.0175096 ], [ 55.563752, -21.0187767 ], [ 55.5620583, -21.0186034 ], [ 55.5605273, -21.0222139 ], [ 55.5598474, -21.0222722 ], [ 55.5585877, -21.0246406 ], [ 55.5571322, -21.0313268 ], [ 55.5535254, -21.0380139 ], [ 55.5546265, -21.0398125 ], [ 55.5576814, -21.0419585 ], [ 55.5585831, -21.0403912 ], [ 55.5593499, -21.0408551 ], [ 55.5597242, -21.0432595 ], [ 55.5611535, -21.0438366 ], [ 55.5613161, -21.0472781 ], [ 55.5609797, -21.048879 ], [ 55.5616133, -21.0494898 ], [ 55.5608108, -21.0511911 ], [ 55.5616876, -21.0569761 ], [ 55.5617028, -21.0638185 ], [ 55.5602372, -21.064854 ], [ 55.558708, -21.067585 ], [ 55.5528262, -21.071616 ], [ 55.5522441, -21.0730286 ], [ 55.5505571, -21.0755093 ], [ 55.5477185, -21.0753694 ], [ 55.5425301, -21.0777273 ], [ 55.5385135, -21.0768875 ], [ 55.536026, -21.0785641 ], [ 55.5349913, -21.0811558 ], [ 55.5325328, -21.0817334 ], [ 55.5295117, -21.0837027 ], [ 55.5283902, -21.0836105 ], [ 55.5256395, -21.0796214 ], [ 55.5241989, -21.0792474 ], [ 55.5202122, -21.0855369 ], [ 55.5203489, -21.088025 ], [ 55.5185196, -21.0913458 ], [ 55.5153527, -21.0936187 ], [ 55.509926, -21.094515 ], [ 55.5096096, -21.0953944 ], [ 55.5048168, -21.0982675 ], [ 55.5010673, -21.1017291 ], [ 55.5012772, -21.1032931 ], [ 55.4987162, -21.1055812 ], [ 55.4951426, -21.1113376 ], [ 55.49355030000001, -21.1103273 ], [ 55.4925012, -21.1072232 ], [ 55.4902167, -21.1044683 ], [ 55.4864205, -21.1019133 ], [ 55.4826285, -21.100267 ], [ 55.4808389, -21.1004074 ], [ 55.4800341, -21.0994461 ], [ 55.4799935, -21.095545 ], [ 55.477292, -21.0920168 ], [ 55.4740876, -21.0911263 ], [ 55.47352, -21.0901389 ], [ 55.4719016, -21.08973 ], [ 55.4697006, -21.0877849 ], [ 55.4678383, -21.0872479 ], [ 55.4659778, -21.0856975 ], [ 55.4650147, -21.085831 ] ] ] ]
    }
  }, {
    "type" : "Feature",
    "properties" : {
      "osm_id" : 280102,
      "admin_level" : "8",
      "country_code" : "RE",
      "name" : "Sainte-Suzanne",
      "population" : "24293",
      "wikidata" : "Q1757048",
      "wikipedia" : "fr:Sainte-Suzanne (La Réunion)",
      "name_props" : {
        "name:br" : "Santez-Suzana",
        "name:ja" : "サント・スザンヌ",
        "name:rcf" : "Sinte-Sizane"
      },
      "parent_boundary_id" : 77601
    },
    "geometry" : {
      "type" : "MultiPolygon",
      "coordinates" : [ [ [ [ 55.5740769, -20.9935942 ], [ 55.5679854, -20.9980261 ], [ 55.5628523, -21.0002854 ], [ 55.5611681, -21.002631 ], [ 55.5572668, -21.0032042 ], [ 55.5546464, -21.0062975 ], [ 55.5434876, -21.0058621 ], [ 55.5405563, -21.0041404 ], [ 55.5426557, -20.9983458 ], [ 55.5459917, -20.9941865 ], [ 55.547328, -20.9918114 ], [ 55.5469795, -20.991305 ], [ 55.5485753, -20.9913888 ], [ 55.5492263, -20.9897739 ], [ 55.5488327, -20.9890669 ], [ 55.5500685, -20.9882116 ], [ 55.5502251, -20.9865652 ], [ 55.5508991, -20.9861322 ], [ 55.5511785, -20.9826811 ], [ 55.5545812, -20.978015 ], [ 55.5607999, -20.9652214 ], [ 55.5635732, -20.9615791 ], [ 55.5632572, -20.9588775 ], [ 55.5659633, -20.9558895 ], [ 55.5669046, -20.9514249 ], [ 55.570082, -20.9479301 ], [ 55.57009269999999, -20.947033 ], [ 55.5715755, -20.9467051 ], [ 55.5767627, -20.9416682 ], [ 55.5775028, -20.9395466 ], [ 55.577154, -20.9385758 ], [ 55.5777489, -20.9378473 ], [ 55.5765807, -20.9379112 ], [ 55.576468, -20.9374258 ], [ 55.5774784, -20.936296 ], [ 55.5767591, -20.9357687 ], [ 55.5762634, -20.9334261 ], [ 55.5756456, -20.9335425 ], [ 55.5744538, -20.9318229 ], [ 55.5736325, -20.929586 ], [ 55.5738223, -20.9276123 ], [ 55.5725411, -20.9265365 ], [ 55.5726638, -20.9251328 ], [ 55.5721021, -20.925112 ], [ 55.57231, -20.9215362 ], [ 55.5713967, -20.9205472 ], [ 55.57255459999999, -20.9197221 ], [ 55.572641, -20.9173805 ], [ 55.5717805, -20.916408 ], [ 55.5719192, -20.9134892 ], [ 55.5725155, -20.9128622 ], [ 55.5721459, -20.9110155 ], [ 55.5772646, -20.9017618 ], [ 55.5764217, -20.9007399 ], [ 55.5762622, -20.898184 ], [ 55.5752616, -20.8976239 ], [ 55.5751806, -20.8945104 ], [ 55.5800575, -20.8970857 ], [ 55.5832848, -20.897679 ], [ 55.5894217, -20.8959631 ], [ 55.5928206, -20.8961234 ], [ 55.5972323, -20.8984889 ], [ 55.6003307, -20.8992827 ], [ 55.6036953, -20.9020009 ], [ 55.6156379, -20.9078846 ], [ 55.6172391, -20.9088562 ], [ 55.6220417, -20.9109404 ], [ 55.6283682, -20.9106466 ], [ 55.628561, -20.9106617 ], [ 55.6286382, -20.9106678 ], [ 55.6286675, -20.9106701 ], [ 55.6289953, -20.9106958 ], [ 55.6292765, -20.9106852 ], [ 55.6293594, -20.9106935 ], [ 55.629907, -20.9108614 ], [ 55.6299371, -20.9108654 ], [ 55.6297188, -20.9115005 ], [ 55.6307372, -20.9121971 ], [ 55.6295604, -20.9256997 ], [ 55.6337808, -20.9251339 ], [ 55.6359957, -20.9265594 ], [ 55.6362127, -20.9290247 ], [ 55.6381398, -20.9286669 ], [ 55.6397245, -20.9301852 ], [ 55.6415478, -20.9299581 ], [ 55.6419182, -20.9322396 ], [ 55.642091, -20.9341043 ], [ 55.6443038, -20.9342899 ], [ 55.6445504, -20.9353831 ], [ 55.6460369, -20.935675 ], [ 55.646424, -20.9387051 ], [ 55.6453478, -20.9396054 ], [ 55.6454084, -20.9411964 ], [ 55.64537519999999, -20.941366 ], [ 55.6452088, -20.9426839 ], [ 55.6437127, -20.9421284 ], [ 55.6429489, -20.9427831 ], [ 55.6430398, -20.9440744 ], [ 55.641794, -20.9440198 ], [ 55.64059369999999, -20.9425103 ], [ 55.6399481, -20.9429104 ], [ 55.6409575, -20.94472 ], [ 55.6380476, -20.9471206 ], [ 55.6371586, -20.9497313 ], [ 55.6371019, -20.9516036 ], [ 55.6359743, -20.9517582 ], [ 55.6355105, -20.9506398 ], [ 55.6343193, -20.9512672 ], [ 55.6351377, -20.9520401 ], [ 55.6340829, -20.9537133 ], [ 55.6317277, -20.9527676 ], [ 55.6318005, -20.9541043 ], [ 55.6306911, -20.9536951 ], [ 55.6299636, -20.954168 ], [ 55.6301, -20.9549318 ], [ 55.6275084, -20.9559503 ], [ 55.6258443, -20.955241 ], [ 55.6239802, -20.9528222 ], [ 55.6229526, -20.9527949 ], [ 55.6198791, -20.9554683 ], [ 55.61987, -20.9567596 ], [ 55.6169874, -20.9574507 ], [ 55.6149643, -20.9596195 ], [ 55.6109673, -20.9616324 ], [ 55.6107471, -20.9637219 ], [ 55.6091567, -20.9648955 ], [ 55.603572, -20.9660132 ], [ 55.6021844, -20.9673478 ], [ 55.6006551, -20.9669092 ], [ 55.5960541, -20.9692717 ], [ 55.5947602, -20.9707381 ], [ 55.5940423, -20.970592 ], [ 55.5932637, -20.9726442 ], [ 55.5923901, -20.9729378 ], [ 55.5906446, -20.9757673 ], [ 55.5853581, -20.9803136 ], [ 55.5803382, -20.9873362 ], [ 55.5789499, -20.9881723 ], [ 55.5789513, -20.9903852 ], [ 55.577969, -20.9916167 ], [ 55.5740769, -20.9935942 ] ] ] ]
    }
  }, {
    "type" : "Feature",
    "properties" : {
      "osm_id" : 278308,
      "admin_level" : "8",
      "country_code" : "RE",
      "name" : "Saint-Paul",
      "population" : "105240",
      "wikidata" : "Q316887",
      "wikipedia" : "fr:Saint-Paul (La Réunion)",
      "name_props" : {
        "name:br" : "Sant-Paol",
        "name:el" : "Σαιν-Πωλ",
        "name:ja" : "サン＝ポール",
        "name:rcf" : "Sin-Pol"
      },
      "parent_boundary_id" : 77601
    },
    "geometry" : {
      "type" : "MultiPolygon",
      "coordinates" : [ [ [ [ 55.2218633, -21.0507833 ], [ 55.2171042, -21.042021 ], [ 55.2164268, -21.0390355 ], [ 55.2171785, -21.036341 ], [ 55.2179085, -21.0362148 ], [ 55.2214987, -21.032248 ], [ 55.2252281, -21.0288532 ], [ 55.2256674, -21.0270014 ], [ 55.2252918, -21.0264477 ], [ 55.2270166, -21.0269048 ], [ 55.2294208, -21.0231512 ], [ 55.2327207, -21.0215125 ], [ 55.2336075, -21.0205132 ], [ 55.2337031, -21.0190753 ], [ 55.2352379, -21.0178679 ], [ 55.2360941, -21.0183617 ], [ 55.2363859, -21.0175705 ], [ 55.2372472, -21.0184184 ], [ 55.237506, -21.0175623 ], [ 55.2380672, -21.0183392 ], [ 55.2402874, -21.0190241 ], [ 55.2467599, -21.0200303 ], [ 55.2522214, -21.0175941 ], [ 55.2546843, -21.0166119 ], [ 55.2653387, -21.0106914 ], [ 55.2715943, -21.0057815 ], [ 55.2759817, -21.0010602 ], [ 55.2788828, -20.9962203 ], [ 55.2804244, -20.9900932 ], [ 55.280423, -20.9899805 ], [ 55.2804304, -20.9894536 ], [ 55.2804406, -20.9893028 ], [ 55.2805065, -20.9889487 ], [ 55.2825092, -20.9787018 ], [ 55.2825399, -20.97413 ], [ 55.2820245, -20.9707297 ], [ 55.2772929, -20.9581283 ], [ 55.2772401, -20.9578463 ], [ 55.2803036, -20.9578503 ], [ 55.2847883, -20.9563875 ], [ 55.2967286, -20.9567525 ], [ 55.307233, -20.9594333 ], [ 55.3120824, -20.9628397 ], [ 55.3134987, -20.9631603 ], [ 55.315344, -20.9659455 ], [ 55.3190753, -20.9687793 ], [ 55.3258154, -20.9705101 ], [ 55.3362438, -20.971011 ], [ 55.3441831, -20.9732751 ], [ 55.3490004, -20.9735255 ], [ 55.3532919, -20.9750383 ], [ 55.3578731, -20.9774826 ], [ 55.3597185, -20.9797366 ], [ 55.3676149, -20.9849657 ], [ 55.3720996, -20.9897037 ], [ 55.3732046, -20.9938106 ], [ 55.3747925, -20.9961745 ], [ 55.3786656, -20.9988389 ], [ 55.3847167, -20.9984683 ], [ 55.3881772, -21.0007426 ], [ 55.3903164, -21.0039565 ], [ 55.3942208, -21.0046696 ], [ 55.3955045, -21.0053807 ], [ 55.3964655, -21.0079121 ], [ 55.399372, -21.0083015 ], [ 55.4011445, -21.0103088 ], [ 55.4004961, -21.0141694 ], [ 55.4028568, -21.0159383 ], [ 55.4045027, -21.0203894 ], [ 55.4031971, -21.0214253 ], [ 55.4034895, -21.0234808 ], [ 55.4021671, -21.024342 ], [ 55.4014636, -21.0263982 ], [ 55.3975538, -21.0283053 ], [ 55.4001179, -21.0302681 ], [ 55.4013224, -21.0343815 ], [ 55.4033609, -21.0363069 ], [ 55.4022302, -21.0390002 ], [ 55.40338, -21.0417045 ], [ 55.4027231, -21.0438508 ], [ 55.4030549, -21.0460471 ], [ 55.4017818, -21.0470452 ], [ 55.4017729, -21.0495354 ], [ 55.4038893, -21.0510321 ], [ 55.4048373, -21.0528884 ], [ 55.4046294, -21.0543753 ], [ 55.406637, -21.0546994 ], [ 55.4059572, -21.0566072 ], [ 55.4123461, -21.0592013 ], [ 55.4165687, -21.0634154 ], [ 55.4174458, -21.0659271 ], [ 55.4173036, -21.0678341 ], [ 55.4153341, -21.0693834 ], [ 55.4115114, -21.0754617 ], [ 55.4098678, -21.077027 ], [ 55.4085213, -21.0773173 ], [ 55.4067832, -21.0799777 ], [ 55.404793, -21.0810864 ], [ 55.4036316, -21.0840997 ], [ 55.4059223, -21.0856851 ], [ 55.4089665, -21.0856713 ], [ 55.4089024, -21.0871916 ], [ 55.4099616, -21.0875558 ], [ 55.4117428, -21.0902397 ], [ 55.4139739, -21.0908779 ], [ 55.414285, -21.091919 ], [ 55.4179459, -21.0950302 ], [ 55.4215779, -21.0972142 ], [ 55.4228215, -21.0958729 ], [ 55.4253897, -21.0954815 ], [ 55.4266718, -21.0927786 ], [ 55.4283482, -21.0913359 ], [ 55.4323914, -21.0926646 ], [ 55.4337129, -21.0922987 ], [ 55.4348599, -21.0928555 ], [ 55.4357953, -21.0916662 ], [ 55.4381529, -21.092639 ], [ 55.4423022, -21.089886 ], [ 55.4413648, -21.0863602 ], [ 55.4429258, -21.0856995 ], [ 55.4442582, -21.086774 ], [ 55.4454177, -21.0859228 ], [ 55.4454211, -21.0851332 ], [ 55.4460702, -21.0853347 ], [ 55.4485545, -21.0837712 ], [ 55.4564148, -21.0862232 ], [ 55.4586349, -21.0868978 ], [ 55.4650147, -21.085831 ], [ 55.4628724, -21.0869932 ], [ 55.4613023, -21.0895104 ], [ 55.4578025, -21.0927306 ], [ 55.4555014, -21.0934497 ], [ 55.4550969, -21.0948107 ], [ 55.45609489999999, -21.0981354 ], [ 55.4546203, -21.1006787 ], [ 55.4526943, -21.1011023 ], [ 55.4469157, -21.1050058 ], [ 55.4399957, -21.1079716 ], [ 55.4386159, -21.1101132 ], [ 55.4359998, -21.1117636 ], [ 55.4327509, -21.1124827 ], [ 55.4322491, -21.1134487 ], [ 55.42984, -21.1138007 ], [ 55.428811, -21.1132501 ], [ 55.4276572, -21.1154508 ], [ 55.42520720000001, -21.11685 ], [ 55.4239903, -21.1170592 ], [ 55.4225686, -21.1161234 ], [ 55.4218777, -21.1146874 ], [ 55.4164317, -21.1130712 ], [ 55.4144141, -21.1113219 ], [ 55.4103875, -21.1094378 ], [ 55.4079629, -21.1067848 ], [ 55.4054283, -21.1054655 ], [ 55.4047076, -21.1040443 ], [ 55.401883, -21.1021886 ], [ 55.3997561, -21.0991865 ], [ 55.3951561, -21.098065 ], [ 55.3860215, -21.0980579 ], [ 55.3837318, -21.097142 ], [ 55.3787506, -21.0989346 ], [ 55.3756715, -21.0991549 ], [ 55.3671911, -21.09614 ], [ 55.3653648, -21.0963668 ], [ 55.3634589, -21.0947453 ], [ 55.36048069999999, -21.0935383 ], [ 55.3573695, -21.0949865 ], [ 55.3554844, -21.0942561 ], [ 55.3522411, -21.0946832 ], [ 55.3430104, -21.0934145 ], [ 55.3390271, -21.093795 ], [ 55.3364453, -21.094926 ], [ 55.3294253, -21.093622 ], [ 55.3266495, -21.093985 ], [ 55.3223473, -21.0920252 ], [ 55.3144493, -21.0923922 ], [ 55.3133494, -21.0919524 ], [ 55.3092006, -21.0921949 ], [ 55.3075638, -21.092906 ], [ 55.3072414, -21.0937373 ], [ 55.3046988, -21.0944932 ], [ 55.2994693, -21.0945333 ], [ 55.2980939, -21.0963504 ], [ 55.2943621, -21.0979182 ], [ 55.292843, -21.0978708 ], [ 55.2873284, -21.099802 ], [ 55.282283, -21.1003626 ], [ 55.2778777, -21.1028797 ], [ 55.2763104, -21.102366 ], [ 55.2702731, -21.1059247 ], [ 55.2684214, -21.1062206 ], [ 55.2671526, -21.1086171 ], [ 55.2653213, -21.1078017 ], [ 55.2597272, -21.1098123 ], [ 55.2584399, -21.109116 ], [ 55.256755, -21.1098129 ], [ 55.2539586, -21.1098253 ], [ 55.2537983, -21.1096492 ], [ 55.248966, -21.1065843 ], [ 55.2479043, -21.106182 ], [ 55.2461051, -21.1027645 ], [ 55.2392172, -21.0982873 ], [ 55.23255, -21.0927851 ], [ 55.2214101, -21.0789601 ], [ 55.2206409, -21.0770158 ], [ 55.2202188, -21.0714526 ], [ 55.2225697, -21.0557494 ], [ 55.2219995, -21.0555222 ], [ 55.222198, -21.054635 ], [ 55.2225803, -21.0548056 ], [ 55.2234615, -21.0550365 ], [ 55.2239431, -21.053728 ], [ 55.2218633, -21.0507833 ] ] ] ]
    }
  }, {
    "type" : "Feature",
    "properties" : {
      "osm_id" : 278309,
      "admin_level" : "8",
      "country_code" : "RE",
      "name" : "Cilaos",
      "population" : "5390",
      "wikidata" : "Q1014746",
      "wikipedia" : "fr:Cilaos",
      "name_props" : {
        "name:ja" : "シラオス"
      },
      "parent_boundary_id" : 77601
    },
    "geometry" : {
      "type" : "MultiPolygon",
      "coordinates" : [ [ [ [ 55.4054166, -21.1470199 ], [ 55.4055658, -21.1446809 ], [ 55.4036519, -21.1393834 ], [ 55.4046713, -21.1369897 ], [ 55.4062188, -21.1357413 ], [ 55.4082209, -21.1354065 ], [ 55.4082689, -21.132867 ], [ 55.4099496, -21.1275929 ], [ 55.41275, -21.1263144 ], [ 55.4142837, -21.1237459 ], [ 55.4159843, -21.1227621 ], [ 55.4183173, -21.1209472 ], [ 55.4197144, -21.1177933 ], [ 55.422012, -21.117074 ], [ 55.4225686, -21.1161234 ], [ 55.4239903, -21.1170592 ], [ 55.42520720000001, -21.11685 ], [ 55.4276572, -21.1154508 ], [ 55.428811, -21.1132501 ], [ 55.42984, -21.1138007 ], [ 55.4322491, -21.1134487 ], [ 55.4327509, -21.1124827 ], [ 55.4359998, -21.1117636 ], [ 55.4386159, -21.1101132 ], [ 55.4399957, -21.1079716 ], [ 55.4469157, -21.1050058 ], [ 55.4526943, -21.1011023 ], [ 55.4546203, -21.1006787 ], [ 55.45609489999999, -21.0981354 ], [ 55.4550969, -21.0948107 ], [ 55.4555014, -21.0934497 ], [ 55.4578025, -21.0927306 ], [ 55.4613023, -21.0895104 ], [ 55.4628724, -21.0869932 ], [ 55.4650147, -21.085831 ], [ 55.4659778, -21.0856975 ], [ 55.4678383, -21.0872479 ], [ 55.4697006, -21.0877849 ], [ 55.4719016, -21.08973 ], [ 55.47352, -21.0901389 ], [ 55.4740876, -21.0911263 ], [ 55.477292, -21.0920168 ], [ 55.4799935, -21.095545 ], [ 55.4800341, -21.0994461 ], [ 55.4808389, -21.1004074 ], [ 55.4826285, -21.100267 ], [ 55.4864205, -21.1019133 ], [ 55.4902167, -21.1044683 ], [ 55.4925012, -21.1072232 ], [ 55.49355030000001, -21.1103273 ], [ 55.4951426, -21.1113376 ], [ 55.5016884, -21.1175338 ], [ 55.5038164, -21.1216484 ], [ 55.5043651, -21.1255305 ], [ 55.505429, -21.126308 ], [ 55.5064435, -21.1292669 ], [ 55.5073772, -21.1341567 ], [ 55.5067493, -21.1360703 ], [ 55.5074676, -21.1384966 ], [ 55.5066601, -21.1396448 ], [ 55.5063177, -21.1417497 ], [ 55.5019535, -21.1470927 ], [ 55.5010405, -21.1546015 ], [ 55.50171, -21.1585356 ], [ 55.4980552, -21.1653557 ], [ 55.4977618, -21.1695654 ], [ 55.4964971, -21.1713183 ], [ 55.4953551, -21.1767681 ], [ 55.4935722, -21.179389 ], [ 55.4874599, -21.1842954 ], [ 55.4831509, -21.1867524 ], [ 55.4744347, -21.1902423 ], [ 55.4707785, -21.189071 ], [ 55.4685748, -21.1912063 ], [ 55.4677097, -21.1910455 ], [ 55.4652692, -21.1933031 ], [ 55.4632206, -21.1938157 ], [ 55.4621023, -21.1949866 ], [ 55.456561, -21.1927508 ], [ 55.455843, -21.1916026 ], [ 55.4540964, -21.1920845 ], [ 55.4528311, -21.193416 ], [ 55.4514361, -21.1934347 ], [ 55.4495944, -21.1911594 ], [ 55.4457342, -21.191472 ], [ 55.4446245, -21.1905763 ], [ 55.4375512, -21.1899152 ], [ 55.4370995, -21.1863753 ], [ 55.431914, -21.1845865 ], [ 55.4304975, -21.1822156 ], [ 55.4299027, -21.1789367 ], [ 55.4256262, -21.176486 ], [ 55.422035, -21.1716498 ], [ 55.4165634, -21.1681648 ], [ 55.413301, -21.1644678 ], [ 55.4111571, -21.1598153 ], [ 55.4112365, -21.1577188 ], [ 55.4102971, -21.1565917 ], [ 55.4108878, -21.1552987 ], [ 55.4103925, -21.1536036 ], [ 55.4079663, -21.1516748 ], [ 55.4054166, -21.1470199 ] ] ] ]
    }
  }, {
    "type" : "Feature",
    "properties" : {
      "osm_id" : 280118,
      "admin_level" : "8",
      "country_code" : "RE",
      "name" : "Saint-André",
      "population" : "57150",
      "wikidata" : "Q1649370",
      "wikipedia" : "fr:Saint-André (La Réunion)",
      "name_props" : {
        "name:br" : "Sant-Andrev",
        "name:ja" : "サン＝タンドレ",
        "name:rcf" : "Sin-André"
      },
      "parent_boundary_id" : 77601
    },
    "geometry" : {
      "type" : "MultiPolygon",
      "coordinates" : [ [ [ [ 55.5852369, -21.0010421 ], [ 55.5843757, -20.9997387 ], [ 55.5793925, -20.9989254 ], [ 55.579102, -20.9976017 ], [ 55.5781556, -20.9974934 ], [ 55.5740769, -20.9935942 ], [ 55.577969, -20.9916167 ], [ 55.5789513, -20.9903852 ], [ 55.5789499, -20.9881723 ], [ 55.5803382, -20.9873362 ], [ 55.5853581, -20.9803136 ], [ 55.5906446, -20.9757673 ], [ 55.5923901, -20.9729378 ], [ 55.5932637, -20.9726442 ], [ 55.5940423, -20.970592 ], [ 55.5947602, -20.9707381 ], [ 55.5960541, -20.9692717 ], [ 55.6006551, -20.9669092 ], [ 55.6021844, -20.9673478 ], [ 55.603572, -20.9660132 ], [ 55.6091567, -20.9648955 ], [ 55.6107471, -20.9637219 ], [ 55.6109673, -20.9616324 ], [ 55.6149643, -20.9596195 ], [ 55.6169874, -20.9574507 ], [ 55.61987, -20.9567596 ], [ 55.6198791, -20.9554683 ], [ 55.6229526, -20.9527949 ], [ 55.6239802, -20.9528222 ], [ 55.6258443, -20.955241 ], [ 55.6275084, -20.9559503 ], [ 55.6301, -20.9549318 ], [ 55.6299636, -20.954168 ], [ 55.6306911, -20.9536951 ], [ 55.6318005, -20.9541043 ], [ 55.6317277, -20.9527676 ], [ 55.6340829, -20.9537133 ], [ 55.6351377, -20.9520401 ], [ 55.6343193, -20.9512672 ], [ 55.6355105, -20.9506398 ], [ 55.6359743, -20.9517582 ], [ 55.6371019, -20.9516036 ], [ 55.6371586, -20.9497313 ], [ 55.6380476, -20.9471206 ], [ 55.6409575, -20.94472 ], [ 55.6399481, -20.9429104 ], [ 55.64059369999999, -20.9425103 ], [ 55.641794, -20.9440198 ], [ 55.6430398, -20.9440744 ], [ 55.6429489, -20.9427831 ], [ 55.6437127, -20.9421284 ], [ 55.6452088, -20.9426839 ], [ 55.64537519999999, -20.941366 ], [ 55.6454084, -20.9411964 ], [ 55.6453478, -20.9396054 ], [ 55.646424, -20.9387051 ], [ 55.6460369, -20.935675 ], [ 55.6445504, -20.9353831 ], [ 55.6443038, -20.9342899 ], [ 55.642091, -20.9341043 ], [ 55.6419182, -20.9322396 ], [ 55.6415478, -20.9299581 ], [ 55.6397245, -20.9301852 ], [ 55.6381398, -20.9286669 ], [ 55.6362127, -20.9290247 ], [ 55.6359957, -20.9265594 ], [ 55.6337808, -20.9251339 ], [ 55.6295604, -20.9256997 ], [ 55.6307372, -20.9121971 ], [ 55.6297188, -20.9115005 ], [ 55.6299371, -20.9108654 ], [ 55.6299722, -20.910882 ], [ 55.6314222, -20.9113694 ], [ 55.6400751, -20.9128596 ], [ 55.6471429, -20.9151845 ], [ 55.658155, -20.9213018 ], [ 55.6658208, -20.9258364 ], [ 55.669118, -20.9314816 ], [ 55.671285, -20.9336953 ], [ 55.6827564, -20.9439044 ], [ 55.6875856, -20.9505487 ], [ 55.6914823, -20.9582755 ], [ 55.6946296, -20.9627051 ], [ 55.6967778, -20.9645535 ], [ 55.6983099, -20.9680173 ], [ 55.6994899, -20.974033 ], [ 55.6994404, -20.9746839 ], [ 55.6963939, -20.9755697 ], [ 55.6935774, -20.9775137 ], [ 55.6912609, -20.9780062 ], [ 55.6904683, -20.9773906 ], [ 55.6860469, -20.9777404 ], [ 55.6739629, -20.9809462 ], [ 55.6724194, -20.9819817 ], [ 55.6611233, -20.9824109 ], [ 55.6540883, -20.9786322 ], [ 55.6431797, -20.9775657 ], [ 55.6392932, -20.9784857 ], [ 55.6356909, -20.9818732 ], [ 55.6237845, -20.9906067 ], [ 55.6149785, -20.9907407 ], [ 55.611624, -20.9974535 ], [ 55.6012376, -21.0021763 ], [ 55.5984182, -21.0025772 ], [ 55.593705, -21.0015103 ], [ 55.5914849, -21.0027268 ], [ 55.5886653, -21.0028555 ], [ 55.5866371, -21.0023308 ], [ 55.5852369, -21.0010421 ] ] ] ]
    }
  }, {
    "type" : "Feature",
    "properties" : {
      "osm_id" : 280168,
      "admin_level" : "8",
      "country_code" : "RE",
      "name" : "Saint-Benoît",
      "population" : "37023",
      "wikidata" : "Q478215",
      "wikipedia" : "fr:Saint-Benoît (La Réunion)",
      "name_props" : {
        "name:br" : "Sant-Beneat",
        "name:ja" : "サン＝ブノワ"
      },
      "parent_boundary_id" : 77601
    },
    "geometry" : {
      "type" : "MultiPolygon",
      "coordinates" : [ [ [ [ 55.5064435, -21.1292669 ], [ 55.505429, -21.126308 ], [ 55.5043651, -21.1255305 ], [ 55.5038164, -21.1216484 ], [ 55.5016884, -21.1175338 ], [ 55.4951426, -21.1113376 ], [ 55.4987162, -21.1055812 ], [ 55.5012772, -21.1032931 ], [ 55.5010673, -21.1017291 ], [ 55.5048168, -21.0982675 ], [ 55.5096096, -21.0953944 ], [ 55.509926, -21.094515 ], [ 55.5153527, -21.0936187 ], [ 55.5185196, -21.0913458 ], [ 55.5203489, -21.088025 ], [ 55.5202122, -21.0855369 ], [ 55.5241989, -21.0792474 ], [ 55.5256395, -21.0796214 ], [ 55.5283902, -21.0836105 ], [ 55.5295117, -21.0837027 ], [ 55.5325328, -21.0817334 ], [ 55.5349913, -21.0811558 ], [ 55.536026, -21.0785641 ], [ 55.5385135, -21.0768875 ], [ 55.5425301, -21.0777273 ], [ 55.5477185, -21.0753694 ], [ 55.5505571, -21.0755093 ], [ 55.5522441, -21.0730286 ], [ 55.5558343, -21.0738959 ], [ 55.5592454, -21.0727458 ], [ 55.5605886, -21.0741723 ], [ 55.5652474, -21.0762586 ], [ 55.5663755, -21.0774832 ], [ 55.5677399, -21.0769813 ], [ 55.5701434, -21.0775927 ], [ 55.57361610000001, -21.0803476 ], [ 55.574537, -21.0822128 ], [ 55.5819562, -21.0852995 ], [ 55.5838546, -21.0846302 ], [ 55.5877651, -21.0852126 ], [ 55.5873365, -21.0831634 ], [ 55.5878813, -21.0815814 ], [ 55.5908954, -21.0791207 ], [ 55.5924455, -21.0750349 ], [ 55.5963592, -21.0718023 ], [ 55.5980435, -21.0687226 ], [ 55.6015572, -21.0658943 ], [ 55.6031531, -21.065669 ], [ 55.6060016, -21.0607457 ], [ 55.6120232, -21.055314 ], [ 55.6133214, -21.0482625 ], [ 55.6154296, -21.0472086 ], [ 55.6164166, -21.0447904 ], [ 55.6184095, -21.0431708 ], [ 55.6191749, -21.0409887 ], [ 55.624423, -21.0405172 ], [ 55.6272018, -21.0417639 ], [ 55.6299269, -21.0408877 ], [ 55.6315872, -21.0410655 ], [ 55.6338242, -21.0395459 ], [ 55.6346208, -21.038487 ], [ 55.6344491, -21.0374956 ], [ 55.6356203, -21.036709 ], [ 55.6382203, -21.0354503 ], [ 55.6415031, -21.0350775 ], [ 55.64276129999999, -21.0336378 ], [ 55.6486648, -21.0347143 ], [ 55.6563077, -21.0338825 ], [ 55.659627, -21.0354829 ], [ 55.6618452, -21.0340083 ], [ 55.6682879, -21.0326464 ], [ 55.6707251, -21.0314298 ], [ 55.6725311, -21.0293517 ], [ 55.6703136, -21.0231716 ], [ 55.6693408, -21.0207939 ], [ 55.6696531, -21.0185735 ], [ 55.6709164, -21.0178825 ], [ 55.6745081, -21.0178632 ], [ 55.6749333, -21.016404 ], [ 55.6741422, -21.0132345 ], [ 55.6775709, -21.0131778 ], [ 55.6773781, -21.011061 ], [ 55.6780805, -21.0102704 ], [ 55.68339670000001, -21.0086725 ], [ 55.6862184, -21.0091015 ], [ 55.6908988, -21.0083977 ], [ 55.6928596, -21.0056962 ], [ 55.6953648, -21.0068555 ], [ 55.699152, -21.0050176 ], [ 55.7009455, -21.0054732 ], [ 55.7010833, -21.0061752 ], [ 55.7027084, -21.0173824 ], [ 55.7051563, -21.019497 ], [ 55.7049709, -21.021272 ], [ 55.7074308, -21.0268186 ], [ 55.7085179, -21.027983 ], [ 55.7155859, -21.0304995 ], [ 55.7181301, -21.0322022 ], [ 55.7208574, -21.0351936 ], [ 55.7226112, -21.0388549 ], [ 55.7232894, -21.0393159 ], [ 55.7239716, -21.0387964 ], [ 55.7270169, -21.0456129 ], [ 55.7319313, -21.0488153 ], [ 55.7325974, -21.0500976 ], [ 55.7310853, -21.0552893 ], [ 55.7311368, -21.0586695 ], [ 55.7326807, -21.0623372 ], [ 55.7430673, -21.0764663 ], [ 55.7480455, -21.0815358 ], [ 55.7516246, -21.0838823 ], [ 55.7560621, -21.0888795 ], [ 55.7585769, -21.0925472 ], [ 55.7608765, -21.0977557 ], [ 55.7617558, -21.0992252 ], [ 55.7673419, -21.1036207 ], [ 55.7513877, -21.1166 ], [ 55.7499773, -21.120483 ], [ 55.7462675, -21.1250017 ], [ 55.7463623, -21.1260481 ], [ 55.7444347, -21.1266179 ], [ 55.74395, -21.1285372 ], [ 55.7411167, -21.1294572 ], [ 55.7407933, -21.1305696 ], [ 55.7416084, -21.1316366 ], [ 55.740472, -21.1329029 ], [ 55.7430802, -21.1361474 ], [ 55.739433, -21.1368506 ], [ 55.7404805, -21.1378519 ], [ 55.7401347, -21.1394657 ], [ 55.7428558, -21.1407479 ], [ 55.7416945, -21.1411203 ], [ 55.7417661, -21.1422103 ], [ 55.7431161, -21.1434292 ], [ 55.7439737, -21.1421415 ], [ 55.7465312, -21.1428571 ], [ 55.7449794, -21.1458463 ], [ 55.7437938, -21.1456083 ], [ 55.7430765, -21.1473972 ], [ 55.7417185, -21.1485443 ], [ 55.7435046, -21.1492671 ], [ 55.7434038, -21.1511789 ], [ 55.742696, -21.1518248 ], [ 55.7412142, -21.1516636 ], [ 55.7400843, -21.1534639 ], [ 55.7391259, -21.1536562 ], [ 55.7397691, -21.1560261 ], [ 55.735702, -21.156114 ], [ 55.735213, -21.1589762 ], [ 55.7358564, -21.1614824 ], [ 55.7346703, -21.1645092 ], [ 55.7323187, -21.1655755 ], [ 55.731074, -21.1683026 ], [ 55.7267156, -21.1681181 ], [ 55.7252641, -21.1688832 ], [ 55.7218362, -21.1691606 ], [ 55.7157978, -21.1723029 ], [ 55.6623843, -21.1126686 ], [ 55.65603740000001, -21.1056876 ], [ 55.6516606, -21.1044301 ], [ 55.6507531, -21.1031447 ], [ 55.6451299, -21.102387 ], [ 55.641856, -21.1042869 ], [ 55.6379998, -21.1047483 ], [ 55.6365374, -21.1060577 ], [ 55.6364921, -21.1072351 ], [ 55.6343806, -21.109984 ], [ 55.6345442, -21.1108777 ], [ 55.6333819, -21.1117495 ], [ 55.6333477, -21.1138616 ], [ 55.631212, -21.1158344 ], [ 55.6313616, -21.1167063 ], [ 55.6304517, -21.1176664 ], [ 55.624541, -21.1180551 ], [ 55.6241501, -21.1174973 ], [ 55.6224044, -21.1191905 ], [ 55.6204711, -21.1191398 ], [ 55.6180369, -21.1200661 ], [ 55.6140797, -21.1225808 ], [ 55.6118709, -21.1263847 ], [ 55.6099382, -21.127171 ], [ 55.6093797, -21.1262122 ], [ 55.6062747, -21.1254121 ], [ 55.6031333, -21.1256411 ], [ 55.6007926, -21.1277182 ], [ 55.6001624, -21.130021 ], [ 55.5984892, -21.1298651 ], [ 55.596575, -21.1306338 ], [ 55.5929296, -21.1281944 ], [ 55.5916268, -21.1261022 ], [ 55.5877965, -21.1247267 ], [ 55.5857517, -21.1247454 ], [ 55.5820902, -21.1256196 ], [ 55.5797673, -21.1268418 ], [ 55.5787127, -21.1289075 ], [ 55.5758873, -21.129216 ], [ 55.5743733, -21.1301899 ], [ 55.5735087, -21.1307103 ], [ 55.5727983, -21.1335824 ], [ 55.56633329999999, -21.1371764 ], [ 55.5625224, -21.1375968 ], [ 55.5609232, -21.1368998 ], [ 55.5589341, -21.1370053 ], [ 55.5551423, -21.1384721 ], [ 55.5538781, -21.1384865 ], [ 55.546648, -21.1338848 ], [ 55.5437041, -21.1359369 ], [ 55.5388412, -21.1369572 ], [ 55.5347068, -21.1372933 ], [ 55.5326836, -21.1358288 ], [ 55.53079489999999, -21.13622 ], [ 55.52727, -21.1356628 ], [ 55.5230612, -21.135901 ], [ 55.520786, -21.1372829 ], [ 55.5187321, -21.1372502 ], [ 55.5144357, -21.138526 ], [ 55.5134093, -21.1378424 ], [ 55.5112379, -21.1378288 ], [ 55.509855, -21.1394895 ], [ 55.5066601, -21.1396448 ], [ 55.5074676, -21.1384966 ], [ 55.5067493, -21.1360703 ], [ 55.5073772, -21.1341567 ], [ 55.5064435, -21.1292669 ] ] ] ]
    }
  }, {
    "type" : "Feature",
    "properties" : {
      "osm_id" : 1282229,
      "admin_level" : "8",
      "country_code" : "RE",
      "name" : "Saint-Louis",
      "population" : "53935",
      "wikidata" : "Q1617681",
      "wikipedia" : "fr:Saint-Louis (La Réunion)",
      "name_props" : {
        "name:br" : "Sant-Loeiz",
        "name:ja" : "サン＝ルイ"
      },
      "parent_boundary_id" : 77601
    },
    "geometry" : {
      "type" : "MultiPolygon",
      "coordinates" : [ [ [ [ 55.3910733, -21.2925517 ], [ 55.3913507, -21.2910304 ], [ 55.3848683, -21.2870698 ], [ 55.3832689, -21.2841292 ], [ 55.3804117, -21.2821304 ], [ 55.3890086, -21.2699549 ], [ 55.389407, -21.2676604 ], [ 55.3886812, -21.2646583 ], [ 55.3916206, -21.2618318 ], [ 55.3921352, -21.2589854 ], [ 55.392913, -21.2583036 ], [ 55.3918069, -21.2549385 ], [ 55.3916111, -21.250752 ], [ 55.3902228, -21.2491387 ], [ 55.388803, -21.2451067 ], [ 55.3893018, -21.2411377 ], [ 55.3876523, -21.2328783 ], [ 55.3896256, -21.216965 ], [ 55.3912666, -21.2122204 ], [ 55.3894366, -21.2080281 ], [ 55.3892936, -21.2054945 ], [ 55.3881555, -21.2049524 ], [ 55.3861968, -21.2052818 ], [ 55.3848567, -21.2029902 ], [ 55.3828666, -21.2016612 ], [ 55.3824558, -21.1979749 ], [ 55.3815581, -21.1963263 ], [ 55.3826788, -21.1956743 ], [ 55.382738, -21.1937692 ], [ 55.3856757, -21.189786 ], [ 55.3851413, -21.1867381 ], [ 55.3859443, -21.1857855 ], [ 55.3874975, -21.1856002 ], [ 55.3888477, -21.1823912 ], [ 55.3893636, -21.1796467 ], [ 55.3883939, -21.1768093 ], [ 55.3904497, -21.1736759 ], [ 55.390756, -21.1709064 ], [ 55.391853, -21.1694142 ], [ 55.3938622, -21.1683079 ], [ 55.3950049, -21.1684106 ], [ 55.3957685, -21.1670136 ], [ 55.3972773, -21.1662471 ], [ 55.3979079, -21.1645306 ], [ 55.3997575, -21.1633013 ], [ 55.3997965, -21.1603193 ], [ 55.4017465, -21.1575522 ], [ 55.4022122, -21.1539114 ], [ 55.4054166, -21.1470199 ], [ 55.4079663, -21.1516748 ], [ 55.4103925, -21.1536036 ], [ 55.4108878, -21.1552987 ], [ 55.4102971, -21.1565917 ], [ 55.4112365, -21.1577188 ], [ 55.4111571, -21.1598153 ], [ 55.413301, -21.1644678 ], [ 55.4165634, -21.1681648 ], [ 55.422035, -21.1716498 ], [ 55.4256262, -21.176486 ], [ 55.4299027, -21.1789367 ], [ 55.4304975, -21.1822156 ], [ 55.431914, -21.1845865 ], [ 55.4370995, -21.1863753 ], [ 55.4375512, -21.1899152 ], [ 55.4446245, -21.1905763 ], [ 55.4457342, -21.191472 ], [ 55.4495944, -21.1911594 ], [ 55.4514361, -21.1934347 ], [ 55.4528311, -21.193416 ], [ 55.4540964, -21.1920845 ], [ 55.455843, -21.1916026 ], [ 55.456561, -21.1927508 ], [ 55.4621023, -21.1949866 ], [ 55.4621913, -21.1984053 ], [ 55.4605235, -21.2008436 ], [ 55.463388, -21.215764 ], [ 55.4613667, -21.2191352 ], [ 55.4605636, -21.2222529 ], [ 55.4612303, -21.2296657 ], [ 55.4591863, -21.2352013 ], [ 55.4599993, -21.2385317 ], [ 55.4593151, -21.2421449 ], [ 55.4606905, -21.243305 ], [ 55.4621789, -21.2461322 ], [ 55.4617554, -21.2503936 ], [ 55.4644433, -21.2555254 ], [ 55.4635558, -21.2572886 ], [ 55.4639751, -21.2592535 ], [ 55.4632229, -21.2630531 ], [ 55.4607638, -21.2697721 ], [ 55.4565983, -21.2713127 ], [ 55.4599335, -21.2734505 ], [ 55.4604266, -21.2745767 ], [ 55.4574556, -21.2807444 ], [ 55.4565428, -21.2805807 ], [ 55.4554848, -21.2858273 ], [ 55.4507517, -21.2864146 ], [ 55.4492577, -21.2873052 ], [ 55.4411079, -21.2911034 ], [ 55.4376482, -21.2914474 ], [ 55.433771, -21.29278 ], [ 55.4299679, -21.2926178 ], [ 55.4269004, -21.2938586 ], [ 55.4186556, -21.2950053 ], [ 55.4160783, -21.2969128 ], [ 55.40497, -21.3020279 ], [ 55.4038017, -21.3033166 ], [ 55.402296, -21.3019365 ], [ 55.3989526, -21.2983699 ], [ 55.3970782, -21.2958678 ], [ 55.3910733, -21.2925517 ] ] ] ]
    }
  }, {
    "type" : "Feature",
    "properties" : {
      "osm_id" : 280198,
      "admin_level" : "8",
      "country_code" : "RE",
      "name" : "Sainte-Rose",
      "population" : "6343",
      "wikidata" : "Q1014731",
      "wikipedia" : "fr:Sainte-Rose (La Réunion)",
      "name_props" : {
        "name:br" : "Santez-Rozenn",
        "name:ja" : "サント＝ローズ"
      },
      "parent_boundary_id" : 77601
    },
    "geometry" : {
      "type" : "MultiPolygon",
      "coordinates" : [ [ [ [ 55.6787577, -21.2400753 ], [ 55.6490689, -21.2371896 ], [ 55.64748190000001, -21.2365433 ], [ 55.6470707, -21.234363 ], [ 55.6502225, -21.2298039 ], [ 55.6503631, -21.2280663 ], [ 55.6530774, -21.2253807 ], [ 55.6538546, -21.2233264 ], [ 55.6545935, -21.2202279 ], [ 55.653998, -21.2188363 ], [ 55.6549978, -21.2166773 ], [ 55.6542609, -21.2120064 ], [ 55.6583094, -21.2045057 ], [ 55.6607041, -21.2034624 ], [ 55.6620178, -21.2017731 ], [ 55.6647189, -21.2010184 ], [ 55.6646881, -21.2000439 ], [ 55.6742688, -21.1922925 ], [ 55.676281, -21.1870832 ], [ 55.6789209, -21.1851311 ], [ 55.6818591, -21.1844037 ], [ 55.68881, -21.1870407 ], [ 55.6930538, -21.1857547 ], [ 55.6952807, -21.185919 ], [ 55.7009753, -21.1806961 ], [ 55.7031976, -21.177686 ], [ 55.7069052, -21.1754535 ], [ 55.7095763, -21.1749767 ], [ 55.7157978, -21.1723029 ], [ 55.7218362, -21.1691606 ], [ 55.7252641, -21.1688832 ], [ 55.7267156, -21.1681181 ], [ 55.731074, -21.1683026 ], [ 55.7323187, -21.1655755 ], [ 55.7346703, -21.1645092 ], [ 55.7358564, -21.1614824 ], [ 55.735213, -21.1589762 ], [ 55.735702, -21.156114 ], [ 55.7397691, -21.1560261 ], [ 55.7391259, -21.1536562 ], [ 55.7400843, -21.1534639 ], [ 55.7412142, -21.1516636 ], [ 55.742696, -21.1518248 ], [ 55.7434038, -21.1511789 ], [ 55.7435046, -21.1492671 ], [ 55.7417185, -21.1485443 ], [ 55.7430765, -21.1473972 ], [ 55.7437938, -21.1456083 ], [ 55.7449794, -21.1458463 ], [ 55.7465312, -21.1428571 ], [ 55.7439737, -21.1421415 ], [ 55.7431161, -21.1434292 ], [ 55.7417661, -21.1422103 ], [ 55.7416945, -21.1411203 ], [ 55.7428558, -21.1407479 ], [ 55.7401347, -21.1394657 ], [ 55.7404805, -21.1378519 ], [ 55.739433, -21.1368506 ], [ 55.7430802, -21.1361474 ], [ 55.740472, -21.1329029 ], [ 55.7416084, -21.1316366 ], [ 55.7407933, -21.1305696 ], [ 55.7411167, -21.1294572 ], [ 55.74395, -21.1285372 ], [ 55.7444347, -21.1266179 ], [ 55.7463623, -21.1260481 ], [ 55.7462675, -21.1250017 ], [ 55.7499773, -21.120483 ], [ 55.7513877, -21.1166 ], [ 55.7673419, -21.1036207 ], [ 55.7696888, -21.1051854 ], [ 55.7730107, -21.1094543 ], [ 55.7800907, -21.1218392 ], [ 55.7831013, -21.1244978 ], [ 55.7862358, -21.1257063 ], [ 55.786819, -21.1256574 ], [ 55.7883178, -21.1252684 ], [ 55.7868698, -21.1254595 ], [ 55.7864054, -21.125061 ], [ 55.7887828, -21.1249301 ], [ 55.7891801, -21.1249523 ], [ 55.7914107, -21.1247986 ], [ 55.7917852, -21.1242129 ], [ 55.7994544, -21.1270157 ], [ 55.8028713, -21.1303972 ], [ 55.803734, -21.1303289 ], [ 55.8038864, -21.1310878 ], [ 55.8070412, -21.1330363 ], [ 55.8075276, -21.1348488 ], [ 55.8100421, -21.1376364 ], [ 55.8151475, -21.1397596 ], [ 55.8172613, -21.1387432 ], [ 55.8205667, -21.1411592 ], [ 55.821703, -21.1409127 ], [ 55.8223167, -21.1424218 ], [ 55.8235329, -21.1423355 ], [ 55.8258305, -21.1434812 ], [ 55.8268833, -21.144895 ], [ 55.8258897, -21.1467875 ], [ 55.8273304, -21.148178 ], [ 55.8276705, -21.1521129 ], [ 55.829438, -21.152882 ], [ 55.829717, -21.1544722 ], [ 55.830777, -21.1546095 ], [ 55.8318465, -21.1574542 ], [ 55.8350293, -21.1603809 ], [ 55.8345598, -21.1608748 ], [ 55.8352642, -21.1615892 ], [ 55.8351276, -21.1641571 ], [ 55.8331319, -21.1654282 ], [ 55.8326598, -21.165785 ], [ 55.8336069, -21.1701957 ], [ 55.8331057, -21.1720792 ], [ 55.8339563, -21.1737267 ], [ 55.8335908, -21.1746455 ], [ 55.8343762, -21.174855 ], [ 55.8337246, -21.1750657 ], [ 55.8338701, -21.1766091 ], [ 55.8351061, -21.1782764 ], [ 55.8347983, -21.1797708 ], [ 55.8361643, -21.1811096 ], [ 55.8366505, -21.183342 ], [ 55.8318454, -21.1863196 ], [ 55.8289966, -21.1863941 ], [ 55.8269482, -21.1855923 ], [ 55.8258187, -21.1861055 ], [ 55.8256942, -21.1870828 ], [ 55.8247828, -21.1894747 ], [ 55.824718, -21.1928692 ], [ 55.8256468, -21.1950147 ], [ 55.8246839, -21.1962548 ], [ 55.8254096, -21.1972443 ], [ 55.8250346, -21.1990751 ], [ 55.8256226, -21.2002994 ], [ 55.8241675, -21.2047351 ], [ 55.8232611, -21.2051969 ], [ 55.8236539, -21.2059001 ], [ 55.8228336, -21.2059226 ], [ 55.8227895, -21.2072376 ], [ 55.8219804, -21.2071024 ], [ 55.8209879, -21.2082648 ], [ 55.8190839, -21.2084555 ], [ 55.817739, -21.209415 ], [ 55.8142177, -21.2139838 ], [ 55.8139967, -21.2154109 ], [ 55.8142767, -21.2167433 ], [ 55.8135034, -21.2173793 ], [ 55.8133111, -21.2205893 ], [ 55.8119048, -21.2222029 ], [ 55.8084749, -21.2281444 ], [ 55.8084156, -21.2284973 ], [ 55.8082113, -21.2300497 ], [ 55.8078063, -21.2323308 ], [ 55.8083471, -21.2353995 ], [ 55.8072647, -21.2377068 ], [ 55.8071179, -21.2406958 ], [ 55.80537, -21.2432402 ], [ 55.8044335, -21.2518146 ], [ 55.6893699, -21.2411045 ], [ 55.6787577, -21.2400753 ] ] ] ]
    }
  }, {
    "type" : "Feature",
    "properties" : {
      "osm_id" : 280212,
      "admin_level" : "8",
      "country_code" : "RE",
      "name" : "Sainte-Marie",
      "population" : "34344",
      "wikidata" : "Q662942",
      "wikipedia" : "fr:Sainte-Marie (La Réunion)",
      "name_props" : {
        "name:br" : "Santez-Mari",
        "name:ja" : "サント・マリー",
        "name:rcf" : "Sint’ Marie"
      },
      "parent_boundary_id" : 77601
    },
    "geometry" : {
      "type" : "MultiPolygon",
      "coordinates" : [ [ [ [ 55.4691583, -21.0098487 ], [ 55.4736834, -21.0067713 ], [ 55.4755415, -21.0043183 ], [ 55.4755213, -21.0030996 ], [ 55.478246, -21.0012921 ], [ 55.4786464, -20.9950953 ], [ 55.4798878, -20.9944635 ], [ 55.4809537, -20.9925874 ], [ 55.4827734, -20.9927105 ], [ 55.4849147, -20.9911137 ], [ 55.487257, -20.990515 ], [ 55.4882828, -20.9909566 ], [ 55.4897354, -20.9889849 ], [ 55.4920071, -20.9877903 ], [ 55.4925286, -20.9857254 ], [ 55.4902998, -20.9850803 ], [ 55.4892189, -20.9839108 ], [ 55.4902649, -20.9827688 ], [ 55.4917616, -20.9768234 ], [ 55.491146, -20.9740008 ], [ 55.4901874, -20.973348 ], [ 55.4915327, -20.9686509 ], [ 55.4895911, -20.9668772 ], [ 55.4899424, -20.9649562 ], [ 55.4914525, -20.9619756 ], [ 55.4937431, -20.9617327 ], [ 55.4944539, -20.9609762 ], [ 55.4953061, -20.9579512 ], [ 55.4931611, -20.9554608 ], [ 55.4956146, -20.9543242 ], [ 55.4954885, -20.9533499 ], [ 55.4942393, -20.9522947 ], [ 55.4950869, -20.9510047 ], [ 55.497167, -20.9507767 ], [ 55.4966446, -20.9486482 ], [ 55.4975895, -20.947516 ], [ 55.4977611, -20.9458883 ], [ 55.5000684, -20.944066 ], [ 55.4995421, -20.9425555 ], [ 55.5010843, -20.9407869 ], [ 55.5018085, -20.9374 ], [ 55.5010374, -20.9354548 ], [ 55.5024737, -20.9345091 ], [ 55.5046999, -20.9311923 ], [ 55.5112338, -20.9264523 ], [ 55.5126514, -20.9223962 ], [ 55.5122316, -20.9196804 ], [ 55.5103379, -20.9177587 ], [ 55.5076209, -20.9114273 ], [ 55.5060303, -20.9096209 ], [ 55.5059083, -20.9070727 ], [ 55.5065507, -20.9060128 ], [ 55.5058721, -20.9047311 ], [ 55.5049977, -20.9033092 ], [ 55.5055663, -20.9011417 ], [ 55.5048368, -20.8954587 ], [ 55.5054885, -20.8941582 ], [ 55.5028941, -20.8883282 ], [ 55.5036271, -20.8823327 ], [ 55.5046766, -20.8824113 ], [ 55.511033, -20.8840779 ], [ 55.5191936, -20.8879256 ], [ 55.536394, -20.8913657 ], [ 55.5372523, -20.8923921 ], [ 55.5356816, -20.891919 ], [ 55.5354756, -20.8928091 ], [ 55.5378735, -20.8936757 ], [ 55.5380426, -20.8932133 ], [ 55.536892, -20.8928819 ], [ 55.5380336, -20.8929243 ], [ 55.5375074, -20.8914219 ], [ 55.5382995, -20.8935628 ], [ 55.5413808, -20.8946213 ], [ 55.5507807, -20.8955621 ], [ 55.5551323, -20.8925792 ], [ 55.5588574, -20.8915368 ], [ 55.5611405, -20.8922825 ], [ 55.5645479, -20.8920179 ], [ 55.5683846, -20.8931646 ], [ 55.5705132, -20.8928117 ], [ 55.5751806, -20.8945104 ], [ 55.5752616, -20.8976239 ], [ 55.5762622, -20.898184 ], [ 55.5764217, -20.9007399 ], [ 55.5772646, -20.9017618 ], [ 55.5721459, -20.9110155 ], [ 55.5725155, -20.9128622 ], [ 55.5719192, -20.9134892 ], [ 55.5717805, -20.916408 ], [ 55.572641, -20.9173805 ], [ 55.57255459999999, -20.9197221 ], [ 55.5713967, -20.9205472 ], [ 55.57231, -20.9215362 ], [ 55.5721021, -20.925112 ], [ 55.5726638, -20.9251328 ], [ 55.5725411, -20.9265365 ], [ 55.5738223, -20.9276123 ], [ 55.5736325, -20.929586 ], [ 55.5744538, -20.9318229 ], [ 55.5756456, -20.9335425 ], [ 55.5762634, -20.9334261 ], [ 55.5767591, -20.9357687 ], [ 55.5774784, -20.936296 ], [ 55.576468, -20.9374258 ], [ 55.5765807, -20.9379112 ], [ 55.5777489, -20.9378473 ], [ 55.577154, -20.9385758 ], [ 55.5775028, -20.9395466 ], [ 55.5767627, -20.9416682 ], [ 55.5715755, -20.9467051 ], [ 55.57009269999999, -20.947033 ], [ 55.570082, -20.9479301 ], [ 55.5669046, -20.9514249 ], [ 55.5659633, -20.9558895 ], [ 55.5632572, -20.9588775 ], [ 55.5635732, -20.9615791 ], [ 55.5607999, -20.9652214 ], [ 55.5545812, -20.978015 ], [ 55.5511785, -20.9826811 ], [ 55.5508991, -20.9861322 ], [ 55.5502251, -20.9865652 ], [ 55.5500685, -20.9882116 ], [ 55.5488327, -20.9890669 ], [ 55.5492263, -20.9897739 ], [ 55.5485753, -20.9913888 ], [ 55.5469795, -20.991305 ], [ 55.547328, -20.9918114 ], [ 55.5459917, -20.9941865 ], [ 55.5426557, -20.9983458 ], [ 55.5405563, -21.0041404 ], [ 55.5326894, -21.0050188 ], [ 55.5318355, -21.0058105 ], [ 55.5238673, -21.0061397 ], [ 55.5172481, -21.0084418 ], [ 55.5141288, -21.00328 ], [ 55.5111811, -21.0010946 ], [ 55.507889, -20.9999346 ], [ 55.5017978, -21.0002625 ], [ 55.4977633, -21.0010333 ], [ 55.4929421, -21.0034398 ], [ 55.4923464, -21.0030388 ], [ 55.4889973, -21.0037777 ], [ 55.487851, -21.0048119 ], [ 55.4810964, -21.0074609 ], [ 55.4748475, -21.0086638 ], [ 55.4723748, -21.0102466 ], [ 55.4691583, -21.0098487 ] ] ] ]
    }
  }, {
    "type" : "Feature",
    "properties" : {
      "osm_id" : 289451,
      "admin_level" : "8",
      "country_code" : "RE",
      "name" : "Saint-Leu",
      "population" : "34893",
      "wikidata" : "Q1649363",
      "wikipedia" : "fr:Saint-Leu (La Réunion)",
      "name_props" : {
        "name:ja" : "サン＝ルー",
        "name:rcf" : "Sin-Lé"
      },
      "parent_boundary_id" : 77601
    },
    "geometry" : {
      "type" : "MultiPolygon",
      "coordinates" : [ [ [ [ 55.2722701, -21.149734 ], [ 55.2716749, -21.1494222 ], [ 55.2724552, -21.1470182 ], [ 55.2716939, -21.1460753 ], [ 55.2707074, -21.1461312 ], [ 55.2712735, -21.1446113 ], [ 55.270211, -21.1435127 ], [ 55.271647, -21.1429982 ], [ 55.2704887, -21.1421236 ], [ 55.2713004, -21.1410515 ], [ 55.2713576, -21.1383465 ], [ 55.2706562, -21.1371878 ], [ 55.2714029, -21.1356256 ], [ 55.272846, -21.1346725 ], [ 55.2745818, -21.1349196 ], [ 55.276967, -21.1336813 ], [ 55.2777286, -21.1341397 ], [ 55.2826042, -21.1339252 ], [ 55.2922368, -21.1278695 ], [ 55.2976301, -21.1272559 ], [ 55.301929, -21.1265885 ], [ 55.3054708, -21.123999 ], [ 55.3132707, -21.1215545 ], [ 55.3154536, -21.1198249 ], [ 55.3217894, -21.1194228 ], [ 55.3229427, -21.1180066 ], [ 55.3253025, -21.1171091 ], [ 55.3262262, -21.1176676 ], [ 55.3293022, -21.1165792 ], [ 55.3325194, -21.1175837 ], [ 55.3343041, -21.117376 ], [ 55.3406622, -21.116066 ], [ 55.3428619, -21.1149616 ], [ 55.3506534, -21.1140411 ], [ 55.3532178, -21.1147008 ], [ 55.3553532, -21.1141344 ], [ 55.3588731, -21.1153779 ], [ 55.3622195, -21.1144684 ], [ 55.3646403, -21.1154568 ], [ 55.3700258, -21.1149074 ], [ 55.3738646, -21.1159414 ], [ 55.3751382, -21.1171681 ], [ 55.3799803, -21.118995 ], [ 55.3833585, -21.1188159 ], [ 55.3856291, -21.1177161 ], [ 55.3883629, -21.1174539 ], [ 55.3982563, -21.1192396 ], [ 55.3996824, -21.1200909 ], [ 55.4032106, -21.1192618 ], [ 55.4070041, -21.1216901 ], [ 55.4159843, -21.1227621 ], [ 55.4142837, -21.1237459 ], [ 55.41275, -21.1263144 ], [ 55.4099496, -21.1275929 ], [ 55.4082689, -21.132867 ], [ 55.4082209, -21.1354065 ], [ 55.4062188, -21.1357413 ], [ 55.4046713, -21.1369897 ], [ 55.4036519, -21.1393834 ], [ 55.4055658, -21.1446809 ], [ 55.4026873, -21.1469678 ], [ 55.4017342, -21.1493242 ], [ 55.3994554, -21.1507963 ], [ 55.3979262, -21.152791 ], [ 55.3970324, -21.1527859 ], [ 55.395778, -21.1545606 ], [ 55.3885735, -21.1574774 ], [ 55.3866369, -21.1598551 ], [ 55.3831674, -21.1673114 ], [ 55.3816568, -21.1688411 ], [ 55.3780919, -21.1704728 ], [ 55.3761865, -21.1744182 ], [ 55.3742305, -21.1754377 ], [ 55.3690451, -21.1804113 ], [ 55.3678568, -21.1830674 ], [ 55.363727, -21.1848577 ], [ 55.3605708, -21.1889396 ], [ 55.3599837, -21.1899809 ], [ 55.3565799, -21.1913368 ], [ 55.3546548, -21.1937477 ], [ 55.3524909, -21.1949628 ], [ 55.3497999, -21.199097 ], [ 55.3481573, -21.1994659 ], [ 55.3467044, -21.2029201 ], [ 55.3433344, -21.2045378 ], [ 55.3431294, -21.2067042 ], [ 55.3413956, -21.2078445 ], [ 55.3407772, -21.2096518 ], [ 55.3374558, -21.2117871 ], [ 55.3379176, -21.2124746 ], [ 55.3369479, -21.2143548 ], [ 55.3373285, -21.2162362 ], [ 55.3348693, -21.2165927 ], [ 55.3358866, -21.2219 ], [ 55.3355101, -21.2236929 ], [ 55.3336816, -21.2255138 ], [ 55.3321391, -21.2300869 ], [ 55.3310151, -21.2299542 ], [ 55.3299364, -21.2312487 ], [ 55.3285936, -21.2313572 ], [ 55.3286221, -21.2339483 ], [ 55.3252301, -21.237612 ], [ 55.3253218, -21.2394712 ], [ 55.3232181, -21.2427497 ], [ 55.3239782, -21.2444777 ], [ 55.3228224, -21.247869 ], [ 55.320582, -21.24924 ], [ 55.3186872, -21.2471386 ], [ 55.3164047, -21.2460801 ], [ 55.3151271, -21.2442775 ], [ 55.3141541, -21.2449938 ], [ 55.3131159, -21.2446701 ], [ 55.3122822, -21.2425912 ], [ 55.3120672, -21.2421763 ], [ 55.310912, -21.2424506 ], [ 55.3108465, -21.2401726 ], [ 55.3082249, -21.2390844 ], [ 55.3075155, -21.2379335 ], [ 55.3039577, -21.2364747 ], [ 55.3024557, -21.2365638 ], [ 55.300562, -21.2354488 ], [ 55.2973793, -21.2333981 ], [ 55.2966568, -21.2321684 ], [ 55.2954637, -21.2319797 ], [ 55.2953894, -21.2312507 ], [ 55.2930319, -21.2301124 ], [ 55.2931851, -21.2286604 ], [ 55.2928581, -21.2283606 ], [ 55.2921081, -21.2273956 ], [ 55.2924771, -21.2241416 ], [ 55.2881122, -21.2184637 ], [ 55.2883438, -21.2168858 ], [ 55.2877596, -21.2168189 ], [ 55.2878563, -21.215541 ], [ 55.2858361, -21.2120625 ], [ 55.2862814, -21.2097234 ], [ 55.285245, -21.2086186 ], [ 55.2854147, -21.2074447 ], [ 55.2831581, -21.2057572 ], [ 55.2827566, -21.2046984 ], [ 55.2818201, -21.2047338 ], [ 55.2811961, -21.2029567 ], [ 55.2806501, -21.203479 ], [ 55.2806287, -21.201885 ], [ 55.2826797, -21.2010344 ], [ 55.2828277, -21.1975656 ], [ 55.2844853, -21.1960362 ], [ 55.2864963, -21.1878768 ], [ 55.2860105, -21.1869604 ], [ 55.2868315, -21.1852277 ], [ 55.2865842, -21.1843858 ], [ 55.2873959, -21.1830206 ], [ 55.2866354, -21.1797334 ], [ 55.286776, -21.1748518 ], [ 55.2854459, -21.1676534 ], [ 55.2857325, -21.1677324 ], [ 55.2859668, -21.1654313 ], [ 55.2874424, -21.1635561 ], [ 55.2862453, -21.1602053 ], [ 55.2820249, -21.1541595 ], [ 55.27543, -21.1504155 ], [ 55.2731036, -21.1503459 ], [ 55.2722701, -21.149734 ] ] ] ]
    }
  }, {
    "type" : "Feature",
    "properties" : {
      "osm_id" : 315484,
      "admin_level" : "8",
      "country_code" : "RE",
      "name" : "Saint-Pierre",
      "population" : "84077",
      "wikidata" : "Q249884",
      "wikipedia" : "fr:Saint-Pierre (La Réunion)",
      "name_props" : {
        "name:br" : "Sant-Pêr",
        "name:ca" : "Saint-Pierre",
        "name:ja" : "サン＝ピエール",
        "name:rcf" : "Sin-Pier"
      },
      "parent_boundary_id" : 77601
    },
    "geometry" : {
      "type" : "MultiPolygon",
      "coordinates" : [ [ [ [ 55.4044862, -21.3039281 ], [ 55.4038017, -21.3033166 ], [ 55.40497, -21.3020279 ], [ 55.4160783, -21.2969128 ], [ 55.4186556, -21.2950053 ], [ 55.4269004, -21.2938586 ], [ 55.4299679, -21.2926178 ], [ 55.433771, -21.29278 ], [ 55.4376482, -21.2914474 ], [ 55.4411079, -21.2911034 ], [ 55.4492577, -21.2873052 ], [ 55.4507517, -21.2864146 ], [ 55.4554848, -21.2858273 ], [ 55.4612461, -21.2825652 ], [ 55.46322519999999, -21.2788715 ], [ 55.4654236, -21.2772382 ], [ 55.4667586, -21.2749572 ], [ 55.4670788, -21.2710051 ], [ 55.4702226, -21.2698091 ], [ 55.4710421, -21.2679565 ], [ 55.4710117, -21.264712 ], [ 55.4698942, -21.2625466 ], [ 55.4705519, -21.2578533 ], [ 55.475966, -21.2562217 ], [ 55.4769063, -21.2550371 ], [ 55.4795291, -21.2543907 ], [ 55.4867302, -21.260036 ], [ 55.4860261, -21.2607919 ], [ 55.4881588, -21.2632532 ], [ 55.4919849, -21.267415 ], [ 55.4928808, -21.2673513 ], [ 55.4934306, -21.2692921 ], [ 55.4962644, -21.2709518 ], [ 55.4976296, -21.2734463 ], [ 55.496947, -21.2747985 ], [ 55.4973547, -21.2770054 ], [ 55.4982761, -21.2784851 ], [ 55.4999913, -21.2787625 ], [ 55.5000937, -21.2795311 ], [ 55.5036566, -21.2835887 ], [ 55.50749359999999, -21.2854795 ], [ 55.5121511, -21.2884422 ], [ 55.5130959, -21.2888439 ], [ 55.5140421, -21.2883672 ], [ 55.5141695, -21.2893219 ], [ 55.5165694, -21.2918035 ], [ 55.5162856, -21.2939587 ], [ 55.5123792, -21.2974443 ], [ 55.5096405, -21.2977156 ], [ 55.5094021, -21.2995169 ], [ 55.5100482, -21.3008397 ], [ 55.5121786, -21.2997167 ], [ 55.5147491, -21.300338 ], [ 55.5165758, -21.2998219 ], [ 55.5173172, -21.3007165 ], [ 55.5185764, -21.3003904 ], [ 55.5310295, -21.3121826 ], [ 55.5347856, -21.3166066 ], [ 55.537185, -21.315146 ], [ 55.5384279, -21.3124965 ], [ 55.5402247, -21.3126137 ], [ 55.541129, -21.3117657 ], [ 55.5420842, -21.3126484 ], [ 55.5431642, -21.3113765 ], [ 55.5472852, -21.3111631 ], [ 55.5485663, -21.309997 ], [ 55.5501244, -21.3103496 ], [ 55.552259, -21.3074996 ], [ 55.5534021, -21.3069693 ], [ 55.5533638, -21.3056507 ], [ 55.5556751, -21.3048138 ], [ 55.5555361, -21.3031655 ], [ 55.5566038, -21.3026235 ], [ 55.5594559, -21.3031285 ], [ 55.5600082, -21.3020216 ], [ 55.5607747, -21.3022567 ], [ 55.5613898, -21.3014087 ], [ 55.5633747, -21.3011252 ], [ 55.5632986, -21.2997949 ], [ 55.5653214, -21.2998999 ], [ 55.5683357, -21.2982972 ], [ 55.5701699, -21.298414 ], [ 55.5726561, -21.2960933 ], [ 55.5738998, -21.2961398 ], [ 55.5749157, -21.2932076 ], [ 55.5781293, -21.2893559 ], [ 55.5791823, -21.2858115 ], [ 55.580225, -21.2858697 ], [ 55.5829347, -21.2834039 ], [ 55.5847163, -21.2833788 ], [ 55.5853714, -21.2820462 ], [ 55.5887477, -21.2815136 ], [ 55.5886955, -21.2805552 ], [ 55.5914219, -21.2797156 ], [ 55.5913376, -21.2787692 ], [ 55.5943979, -21.2772181 ], [ 55.5952141, -21.2764339 ], [ 55.5951298, -21.2754875 ], [ 55.5978979, -21.2739629 ], [ 55.5982244, -21.2730744 ], [ 55.5995912, -21.273243 ], [ 55.6006455, -21.2722062 ], [ 55.60166069999999, -21.2724975 ], [ 55.6025086, -21.2772817 ], [ 55.6037051, -21.2781474 ], [ 55.6035177, -21.2825744 ], [ 55.6047362, -21.2858634 ], [ 55.6044261, -21.2878412 ], [ 55.5961383, -21.2891046 ], [ 55.5937674, -21.2902741 ], [ 55.5943012, -21.2917242 ], [ 55.592664, -21.2931287 ], [ 55.59203, -21.2962117 ], [ 55.5908836, -21.2961535 ], [ 55.5883567, -21.2981713 ], [ 55.5877427, -21.301087 ], [ 55.5859443, -21.3020582 ], [ 55.584388, -21.3043762 ], [ 55.5822771, -21.304076 ], [ 55.5810921, -21.3056497 ], [ 55.5804453, -21.309875 ], [ 55.5795815, -21.3097872 ], [ 55.5791423, -21.3106704 ], [ 55.5729239, -21.3121308 ], [ 55.5717469, -21.3137797 ], [ 55.5701451, -21.3139865 ], [ 55.5682303, -21.3163716 ], [ 55.5606568, -21.3159755 ], [ 55.5576017, -21.3173237 ], [ 55.5575618, -21.3178701 ], [ 55.5570791, -21.3174464 ], [ 55.5537827, -21.3186817 ], [ 55.5517595, -21.3206627 ], [ 55.5496111, -21.321417 ], [ 55.5484015, -21.3210016 ], [ 55.5481381, -21.3220747 ], [ 55.5466715, -21.3225755 ], [ 55.5458145, -21.3244874 ], [ 55.5436199, -21.3266658 ], [ 55.5450456, -21.3322337 ], [ 55.5446122, -21.334291 ], [ 55.5436633, -21.3347434 ], [ 55.5443073, -21.3362351 ], [ 55.5428814, -21.3391997 ], [ 55.5433216, -21.340009 ], [ 55.5417289, -21.3418815 ], [ 55.5417699, -21.3440102 ], [ 55.5405345, -21.3472224 ], [ 55.5386752, -21.3491256 ], [ 55.5388668, -21.3506043 ], [ 55.537912, -21.3516407 ], [ 55.5373906, -21.3554649 ], [ 55.538316, -21.3565478 ], [ 55.5373813, -21.3577913 ], [ 55.5370905, -21.3598636 ], [ 55.5360651, -21.3605891 ], [ 55.5359966, -21.3631553 ], [ 55.5331413, -21.3635496 ], [ 55.5250899, -21.3610732 ], [ 55.5236226, -21.3612548 ], [ 55.5211588, -21.3591609 ], [ 55.5205962, -21.3593726 ], [ 55.5206831, -21.3588797 ], [ 55.5191793, -21.3588799 ], [ 55.5200483, -21.3585402 ], [ 55.5188038, -21.3579407 ], [ 55.5156384, -21.3584031 ], [ 55.5152537, -21.3572382 ], [ 55.5135193, -21.3572759 ], [ 55.5106108, -21.3550844 ], [ 55.5085594, -21.3548126 ], [ 55.5081131, -21.3538933 ], [ 55.5069802, -21.3537175 ], [ 55.506036, -21.3544449 ], [ 55.5035139, -21.3514546 ], [ 55.4977639, -21.3503011 ], [ 55.4966754, -21.35093 ], [ 55.4956759, -21.3500977 ], [ 55.4928303, -21.3498649 ], [ 55.4899748, -21.3508141 ], [ 55.4879049, -21.3499294 ], [ 55.4846281, -21.3519377 ], [ 55.4837055, -21.3508992 ], [ 55.4832687, -21.349361 ], [ 55.4816804, -21.3487129 ], [ 55.4814401, -21.3477554 ], [ 55.4807648, -21.3474547 ], [ 55.4804537, -21.3474585 ], [ 55.4802006, -21.3473465 ], [ 55.4788014, -21.3482436 ], [ 55.4787183, -21.347648 ], [ 55.4803844, -21.3468473 ], [ 55.4802311, -21.3454298 ], [ 55.4789368, -21.3441418 ], [ 55.4796875, -21.3413647 ], [ 55.4786986, -21.343171 ], [ 55.478346, -21.3443538 ], [ 55.4770086, -21.3441699 ], [ 55.4740524, -21.344185 ], [ 55.4752353, -21.3443315 ], [ 55.4756927, -21.3459103 ], [ 55.4771501, -21.345642 ], [ 55.4772472, -21.3447938 ], [ 55.4787013, -21.346021 ], [ 55.4773973, -21.3454364 ], [ 55.4774405, -21.3462411 ], [ 55.4763823, -21.3461148 ], [ 55.4749252, -21.346344599999988 ], [ 55.4748994, -21.3447793 ], [ 55.4746807, -21.3446219 ], [ 55.4696504, -21.3444157 ], [ 55.4672768, -21.3435356 ], [ 55.4646519, -21.3424422 ], [ 55.4631003, -21.3419219 ], [ 55.4624715, -21.3418537 ], [ 55.4601848, -21.3414637 ], [ 55.4575723, -21.3394928 ], [ 55.456663, -21.3385221 ], [ 55.4563014, -21.3382458 ], [ 55.4560473, -21.3366491 ], [ 55.4540093, -21.3347586 ], [ 55.4549799, -21.3317431 ], [ 55.454534, -21.3309975 ], [ 55.4517058, -21.3298484 ], [ 55.4505568, -21.3311568 ], [ 55.4514493, -21.3298541 ], [ 55.4488904, -21.3282412 ], [ 55.443103, -21.3281545 ], [ 55.4391244, -21.3274321 ], [ 55.4318588, -21.3262708 ], [ 55.4297583, -21.3262254 ], [ 55.4256856, -21.3247501 ], [ 55.4163129, -21.3191532 ], [ 55.4114549, -21.3144197 ], [ 55.4085752, -21.307527 ], [ 55.4044862, -21.3039281 ] ] ] ]
    }
  }, {
    "type" : "Feature",
    "properties" : {
      "osm_id" : 317234,
      "admin_level" : "8",
      "country_code" : "RE",
      "name" : "Entre-Deux",
      "population" : "7105",
      "wikidata" : "Q1014800",
      "wikipedia" : "fr:Entre-Deux",
      "name_props" : {
        "name:ja" : "アントル・トゥ",
        "name:rcf" : "Lantre-Deu"
      },
      "parent_boundary_id" : 77601
    },
    "geometry" : {
      "type" : "MultiPolygon",
      "coordinates" : [ [ [ [ 55.4670788, -21.2710051 ], [ 55.4667586, -21.2749572 ], [ 55.4654236, -21.2772382 ], [ 55.46322519999999, -21.2788715 ], [ 55.4612461, -21.2825652 ], [ 55.4554848, -21.2858273 ], [ 55.4565428, -21.2805807 ], [ 55.4574556, -21.2807444 ], [ 55.4604266, -21.2745767 ], [ 55.4599335, -21.2734505 ], [ 55.4565983, -21.2713127 ], [ 55.4607638, -21.2697721 ], [ 55.4632229, -21.2630531 ], [ 55.4639751, -21.2592535 ], [ 55.4635558, -21.2572886 ], [ 55.4644433, -21.2555254 ], [ 55.4617554, -21.2503936 ], [ 55.4621789, -21.2461322 ], [ 55.4606905, -21.243305 ], [ 55.4593151, -21.2421449 ], [ 55.4599993, -21.2385317 ], [ 55.4591863, -21.2352013 ], [ 55.4612303, -21.2296657 ], [ 55.4605636, -21.2222529 ], [ 55.4613667, -21.2191352 ], [ 55.463388, -21.215764 ], [ 55.4605235, -21.2008436 ], [ 55.4621913, -21.1984053 ], [ 55.4621023, -21.1949866 ], [ 55.4632206, -21.1938157 ], [ 55.4652692, -21.1933031 ], [ 55.4677097, -21.1910455 ], [ 55.4685748, -21.1912063 ], [ 55.4707785, -21.189071 ], [ 55.4744347, -21.1902423 ], [ 55.4831509, -21.1867524 ], [ 55.4874599, -21.1842954 ], [ 55.4935722, -21.179389 ], [ 55.4953551, -21.1767681 ], [ 55.4964971, -21.1713183 ], [ 55.4977618, -21.1695654 ], [ 55.4980552, -21.1653557 ], [ 55.50171, -21.1585356 ], [ 55.5010405, -21.1546015 ], [ 55.5019535, -21.1470927 ], [ 55.5063177, -21.1417497 ], [ 55.5066601, -21.1396448 ], [ 55.509855, -21.1394895 ], [ 55.5112379, -21.1378288 ], [ 55.5134093, -21.1378424 ], [ 55.5144357, -21.138526 ], [ 55.5187321, -21.1372502 ], [ 55.520786, -21.1372829 ], [ 55.5230612, -21.135901 ], [ 55.52727, -21.1356628 ], [ 55.5270867, -21.1370787 ], [ 55.524083, -21.1381776 ], [ 55.5239525, -21.1398748 ], [ 55.5251892, -21.1424548 ], [ 55.5225369, -21.1420484 ], [ 55.5212193, -21.1430777 ], [ 55.521891, -21.1450665 ], [ 55.5248059, -21.1479994 ], [ 55.5254865, -21.1520155 ], [ 55.5243433, -21.1555491 ], [ 55.5282648, -21.1633907 ], [ 55.5281949, -21.1691982 ], [ 55.5315837, -21.1737089 ], [ 55.5320346, -21.1753311 ], [ 55.5315239, -21.1787197 ], [ 55.5306044, -21.1839708 ], [ 55.5297652, -21.1840574 ], [ 55.5298887, -21.1862652 ], [ 55.5258859, -21.1831944 ], [ 55.5233373, -21.1826959 ], [ 55.5194483, -21.1834743 ], [ 55.5188136, -21.1830328 ], [ 55.5172584, -21.1852601 ], [ 55.5163167, -21.1851643 ], [ 55.5151816, -21.1896858 ], [ 55.5155474, -21.1964378 ], [ 55.5139183, -21.1987956 ], [ 55.5156875, -21.2011528 ], [ 55.5109551, -21.2054771 ], [ 55.5089241, -21.2043178 ], [ 55.5076548, -21.2043103 ], [ 55.506836, -21.2053318 ], [ 55.5085803, -21.2089375 ], [ 55.5147532, -21.2134906 ], [ 55.5132282, -21.2149014 ], [ 55.5124531, -21.2178111 ], [ 55.5105664, -21.2194676 ], [ 55.5124168, -21.2198311 ], [ 55.5131088, -21.2208827 ], [ 55.5128156, -21.2225783 ], [ 55.5107349, -21.2235125 ], [ 55.5118937, -21.2260631 ], [ 55.5111864, -21.227685 ], [ 55.5075908, -21.2298137 ], [ 55.5043775, -21.2293619 ], [ 55.5022443, -21.2315394 ], [ 55.5007766, -21.2316034 ], [ 55.4996969, -21.2329993 ], [ 55.5003909, -21.2360825 ], [ 55.4964307, -21.2391002 ], [ 55.493222, -21.2395397 ], [ 55.4910218, -21.2386766 ], [ 55.487982, -21.2388107 ], [ 55.4891402, -21.2435351 ], [ 55.4922411, -21.2445878 ], [ 55.4902907, -21.2461766 ], [ 55.4892564, -21.2460339 ], [ 55.48813, -21.2483529 ], [ 55.4855366, -21.2493232 ], [ 55.4836772, -21.2519583 ], [ 55.48257129999999, -21.2520147 ], [ 55.4795291, -21.2543907 ], [ 55.4769063, -21.2550371 ], [ 55.475966, -21.2562217 ], [ 55.4705519, -21.2578533 ], [ 55.4698942, -21.2625466 ], [ 55.4710117, -21.264712 ], [ 55.4710421, -21.2679565 ], [ 55.4702226, -21.2698091 ], [ 55.4670788, -21.2710051 ] ] ] ]
    }
  }, {
    "type" : "Feature",
    "properties" : {
      "osm_id" : 317239,
      "admin_level" : "8",
      "country_code" : "RE",
      "name" : "Le Tampon",
      "population" : "81943",
      "wikidata" : "Q13648",
      "wikipedia" : "fr:Le Tampon",
      "name_props" : {
        "name:br" : "Ar Stoker",
        "name:ja" : "ル・タンポン"
      },
      "parent_boundary_id" : 77601
    },
    "geometry" : {
      "type" : "MultiPolygon",
      "coordinates" : [ [ [ [ 55.4795291, -21.2543907 ], [ 55.48257129999999, -21.2520147 ], [ 55.4836772, -21.2519583 ], [ 55.4855366, -21.2493232 ], [ 55.48813, -21.2483529 ], [ 55.4892564, -21.2460339 ], [ 55.4902907, -21.2461766 ], [ 55.4922411, -21.2445878 ], [ 55.4891402, -21.2435351 ], [ 55.487982, -21.2388107 ], [ 55.4910218, -21.2386766 ], [ 55.493222, -21.2395397 ], [ 55.4964307, -21.2391002 ], [ 55.5003909, -21.2360825 ], [ 55.4996969, -21.2329993 ], [ 55.5007766, -21.2316034 ], [ 55.5022443, -21.2315394 ], [ 55.5043775, -21.2293619 ], [ 55.5075908, -21.2298137 ], [ 55.5111864, -21.227685 ], [ 55.5118937, -21.2260631 ], [ 55.5107349, -21.2235125 ], [ 55.5128156, -21.2225783 ], [ 55.5131088, -21.2208827 ], [ 55.5124168, -21.2198311 ], [ 55.5105664, -21.2194676 ], [ 55.5124531, -21.2178111 ], [ 55.5132282, -21.2149014 ], [ 55.5147532, -21.2134906 ], [ 55.5085803, -21.2089375 ], [ 55.506836, -21.2053318 ], [ 55.5076548, -21.2043103 ], [ 55.5089241, -21.2043178 ], [ 55.5109551, -21.2054771 ], [ 55.5156875, -21.2011528 ], [ 55.5139183, -21.1987956 ], [ 55.5155474, -21.1964378 ], [ 55.5151816, -21.1896858 ], [ 55.5163167, -21.1851643 ], [ 55.5172584, -21.1852601 ], [ 55.5188136, -21.1830328 ], [ 55.5194483, -21.1834743 ], [ 55.5233373, -21.1826959 ], [ 55.5258859, -21.1831944 ], [ 55.5298887, -21.1862652 ], [ 55.5297652, -21.1840574 ], [ 55.5306044, -21.1839708 ], [ 55.5315239, -21.1787197 ], [ 55.5320346, -21.1753311 ], [ 55.5315837, -21.1737089 ], [ 55.5281949, -21.1691982 ], [ 55.5282648, -21.1633907 ], [ 55.5243433, -21.1555491 ], [ 55.5254865, -21.1520155 ], [ 55.5248059, -21.1479994 ], [ 55.521891, -21.1450665 ], [ 55.5212193, -21.1430777 ], [ 55.5225369, -21.1420484 ], [ 55.5251892, -21.1424548 ], [ 55.5239525, -21.1398748 ], [ 55.524083, -21.1381776 ], [ 55.5270867, -21.1370787 ], [ 55.52727, -21.1356628 ], [ 55.53079489999999, -21.13622 ], [ 55.5326836, -21.1358288 ], [ 55.5347068, -21.1372933 ], [ 55.5388412, -21.1369572 ], [ 55.5437041, -21.1359369 ], [ 55.546648, -21.1338848 ], [ 55.5538781, -21.1384865 ], [ 55.5551423, -21.1384721 ], [ 55.5589341, -21.1370053 ], [ 55.5609232, -21.1368998 ], [ 55.5625224, -21.1375968 ], [ 55.56633329999999, -21.1371764 ], [ 55.5727983, -21.1335824 ], [ 55.5740548, -21.1342251 ], [ 55.5749975, -21.1362888 ], [ 55.5800122, -21.1367949 ], [ 55.5820706, -21.13905 ], [ 55.5821941, -21.140106 ], [ 55.5800278, -21.1452149 ], [ 55.5831911, -21.1466245 ], [ 55.5829878, -21.1488136 ], [ 55.585557, -21.1492825 ], [ 55.5870929, -21.1504625 ], [ 55.5858866, -21.1523834 ], [ 55.5896664, -21.1570376 ], [ 55.5889746, -21.163029 ], [ 55.5868954, -21.1639212 ], [ 55.5881874, -21.1672328 ], [ 55.5911368, -21.1686585 ], [ 55.5913065, -21.1733388 ], [ 55.5937766, -21.1742014 ], [ 55.5949917, -21.1736605 ], [ 55.5966177, -21.1750516 ], [ 55.6003404, -21.174053 ], [ 55.6002918, -21.1774013 ], [ 55.6022125, -21.1792242 ], [ 55.6052969, -21.1800261 ], [ 55.6060269, -21.1808296 ], [ 55.6102382, -21.1827348 ], [ 55.6123994, -21.181125 ], [ 55.6158417, -21.1814464 ], [ 55.6163161, -21.1825261 ], [ 55.6172119, -21.1826694 ], [ 55.6234551, -21.1814763 ], [ 55.6246824, -21.1803112 ], [ 55.6260083, -21.1752336 ], [ 55.6292556, -21.1724466 ], [ 55.6294069, -21.1701302 ], [ 55.6337164, -21.1677983 ], [ 55.6377201, -21.1668586 ], [ 55.6420019, -21.1748595 ], [ 55.6450114, -21.1773049 ], [ 55.6454105, -21.1796207 ], [ 55.646371, -21.1803639 ], [ 55.6463863, -21.1826681 ], [ 55.6496473, -21.1863698 ], [ 55.6543802, -21.196158 ], [ 55.6607041, -21.2034624 ], [ 55.6583094, -21.2045057 ], [ 55.6542609, -21.2120064 ], [ 55.651647, -21.2056915 ], [ 55.6490134, -21.2016848 ], [ 55.643917, -21.1998079 ], [ 55.6385967, -21.1951353 ], [ 55.6364092, -21.1943692 ], [ 55.6346257, -21.1950021 ], [ 55.6305395, -21.1969397 ], [ 55.6274065, -21.2009056 ], [ 55.6259583, -21.2013667 ], [ 55.6210406, -21.2059862 ], [ 55.6184621, -21.2066568 ], [ 55.6154965, -21.2092931 ], [ 55.6134973, -21.2131141 ], [ 55.61364789999999, -21.2145639 ], [ 55.6124488, -21.2154349 ], [ 55.6079429, -21.2222188 ], [ 55.6069382, -21.2261349 ], [ 55.6049243, -21.2286716 ], [ 55.6043986, -21.2351271 ], [ 55.6053096, -21.2377667 ], [ 55.6048519, -21.2415713 ], [ 55.6010157, -21.2467585 ], [ 55.6015038, -21.2489423 ], [ 55.6001629, -21.2530356 ], [ 55.600626, -21.2559635 ], [ 55.600026, -21.2581601 ], [ 55.6018861, -21.2622761 ], [ 55.602843, -21.2645826 ], [ 55.6014454, -21.2691382 ], [ 55.60166069999999, -21.2724975 ], [ 55.6006455, -21.2722062 ], [ 55.5995912, -21.273243 ], [ 55.5982244, -21.2730744 ], [ 55.5978979, -21.2739629 ], [ 55.5951298, -21.2754875 ], [ 55.5952141, -21.2764339 ], [ 55.5943979, -21.2772181 ], [ 55.5913376, -21.2787692 ], [ 55.5914219, -21.2797156 ], [ 55.5886955, -21.2805552 ], [ 55.5887477, -21.2815136 ], [ 55.5853714, -21.2820462 ], [ 55.5847163, -21.2833788 ], [ 55.5829347, -21.2834039 ], [ 55.580225, -21.2858697 ], [ 55.5791823, -21.2858115 ], [ 55.5781293, -21.2893559 ], [ 55.5749157, -21.2932076 ], [ 55.5738998, -21.2961398 ], [ 55.5726561, -21.2960933 ], [ 55.5701699, -21.298414 ], [ 55.5683357, -21.2982972 ], [ 55.5653214, -21.2998999 ], [ 55.5632986, -21.2997949 ], [ 55.5633747, -21.3011252 ], [ 55.5613898, -21.3014087 ], [ 55.5607747, -21.3022567 ], [ 55.5600082, -21.3020216 ], [ 55.5594559, -21.3031285 ], [ 55.5566038, -21.3026235 ], [ 55.5555361, -21.3031655 ], [ 55.5556751, -21.3048138 ], [ 55.5533638, -21.3056507 ], [ 55.5534021, -21.3069693 ], [ 55.552259, -21.3074996 ], [ 55.5501244, -21.3103496 ], [ 55.5485663, -21.309997 ], [ 55.5472852, -21.3111631 ], [ 55.5431642, -21.3113765 ], [ 55.5420842, -21.3126484 ], [ 55.541129, -21.3117657 ], [ 55.5402247, -21.3126137 ], [ 55.5384279, -21.3124965 ], [ 55.537185, -21.315146 ], [ 55.5347856, -21.3166066 ], [ 55.5310295, -21.3121826 ], [ 55.5185764, -21.3003904 ], [ 55.5173172, -21.3007165 ], [ 55.5165758, -21.2998219 ], [ 55.5147491, -21.300338 ], [ 55.5121786, -21.2997167 ], [ 55.5100482, -21.3008397 ], [ 55.5094021, -21.2995169 ], [ 55.5096405, -21.2977156 ], [ 55.5123792, -21.2974443 ], [ 55.5162856, -21.2939587 ], [ 55.5165694, -21.2918035 ], [ 55.5141695, -21.2893219 ], [ 55.5140421, -21.2883672 ], [ 55.5130959, -21.2888439 ], [ 55.5121511, -21.2884422 ], [ 55.50749359999999, -21.2854795 ], [ 55.5036566, -21.2835887 ], [ 55.5000937, -21.2795311 ], [ 55.4999913, -21.2787625 ], [ 55.4982761, -21.2784851 ], [ 55.4973547, -21.2770054 ], [ 55.496947, -21.2747985 ], [ 55.4976296, -21.2734463 ], [ 55.4962644, -21.2709518 ], [ 55.4934306, -21.2692921 ], [ 55.4928808, -21.2673513 ], [ 55.4919849, -21.267415 ], [ 55.4881588, -21.2632532 ], [ 55.4860261, -21.2607919 ], [ 55.4867302, -21.260036 ], [ 55.4795291, -21.2543907 ] ] ] ]
    }
  }, {
    "type" : "Feature",
    "properties" : {
      "osm_id" : 317242,
      "admin_level" : "8",
      "country_code" : "RE",
      "name" : "La Plaine-des-Palmistes",
      "population" : "6821",
      "wikidata" : "Q579430",
      "wikipedia" : "fr:La Plaine-des-Palmistes",
      "name_props" : {
        "name:br" : "Ar Plaenenn-Palmistoù",
        "name:ja" : "ラ・プレンヌ・デ・パルミスト"
      },
      "parent_boundary_id" : 77601
    },
    "geometry" : {
      "type" : "MultiPolygon",
      "coordinates" : [ [ [ [ 55.5727983, -21.1335824 ], [ 55.5735087, -21.1307103 ], [ 55.5743733, -21.1301899 ], [ 55.5758873, -21.129216 ], [ 55.5787127, -21.1289075 ], [ 55.5797673, -21.1268418 ], [ 55.5820902, -21.1256196 ], [ 55.5857517, -21.1247454 ], [ 55.5877965, -21.1247267 ], [ 55.5916268, -21.1261022 ], [ 55.5929296, -21.1281944 ], [ 55.596575, -21.1306338 ], [ 55.5984892, -21.1298651 ], [ 55.6001624, -21.130021 ], [ 55.6007926, -21.1277182 ], [ 55.6031333, -21.1256411 ], [ 55.6062747, -21.1254121 ], [ 55.6093797, -21.1262122 ], [ 55.6099382, -21.127171 ], [ 55.6118709, -21.1263847 ], [ 55.6140797, -21.1225808 ], [ 55.6180369, -21.1200661 ], [ 55.6204711, -21.1191398 ], [ 55.6224044, -21.1191905 ], [ 55.6241501, -21.1174973 ], [ 55.624541, -21.1180551 ], [ 55.6304517, -21.1176664 ], [ 55.6313616, -21.1167063 ], [ 55.631212, -21.1158344 ], [ 55.6333477, -21.1138616 ], [ 55.6333819, -21.1117495 ], [ 55.6345442, -21.1108777 ], [ 55.6343806, -21.109984 ], [ 55.6364921, -21.1072351 ], [ 55.6365374, -21.1060577 ], [ 55.6379998, -21.1047483 ], [ 55.641856, -21.1042869 ], [ 55.6451299, -21.102387 ], [ 55.6507531, -21.1031447 ], [ 55.6516606, -21.1044301 ], [ 55.65603740000001, -21.1056876 ], [ 55.6623843, -21.1126686 ], [ 55.7157978, -21.1723029 ], [ 55.7095763, -21.1749767 ], [ 55.7069052, -21.1754535 ], [ 55.7031976, -21.177686 ], [ 55.7009753, -21.1806961 ], [ 55.6952807, -21.185919 ], [ 55.6930538, -21.1857547 ], [ 55.68881, -21.1870407 ], [ 55.6818591, -21.1844037 ], [ 55.6789209, -21.1851311 ], [ 55.676281, -21.1870832 ], [ 55.6742688, -21.1922925 ], [ 55.6646881, -21.2000439 ], [ 55.6647189, -21.2010184 ], [ 55.6620178, -21.2017731 ], [ 55.6607041, -21.2034624 ], [ 55.6543802, -21.196158 ], [ 55.6496473, -21.1863698 ], [ 55.6463863, -21.1826681 ], [ 55.646371, -21.1803639 ], [ 55.6454105, -21.1796207 ], [ 55.6450114, -21.1773049 ], [ 55.6420019, -21.1748595 ], [ 55.6377201, -21.1668586 ], [ 55.6337164, -21.1677983 ], [ 55.6294069, -21.1701302 ], [ 55.6292556, -21.1724466 ], [ 55.6260083, -21.1752336 ], [ 55.6246824, -21.1803112 ], [ 55.6234551, -21.1814763 ], [ 55.6172119, -21.1826694 ], [ 55.6163161, -21.1825261 ], [ 55.6158417, -21.1814464 ], [ 55.6123994, -21.181125 ], [ 55.6102382, -21.1827348 ], [ 55.6060269, -21.1808296 ], [ 55.6052969, -21.1800261 ], [ 55.6022125, -21.1792242 ], [ 55.6002918, -21.1774013 ], [ 55.6003404, -21.174053 ], [ 55.5966177, -21.1750516 ], [ 55.5949917, -21.1736605 ], [ 55.5937766, -21.1742014 ], [ 55.5913065, -21.1733388 ], [ 55.5911368, -21.1686585 ], [ 55.5881874, -21.1672328 ], [ 55.5868954, -21.1639212 ], [ 55.5889746, -21.163029 ], [ 55.5896664, -21.1570376 ], [ 55.5858866, -21.1523834 ], [ 55.5870929, -21.1504625 ], [ 55.585557, -21.1492825 ], [ 55.5829878, -21.1488136 ], [ 55.5831911, -21.1466245 ], [ 55.5800278, -21.1452149 ], [ 55.5821941, -21.140106 ], [ 55.5820706, -21.13905 ], [ 55.5800122, -21.1367949 ], [ 55.5749975, -21.1362888 ], [ 55.5740548, -21.1342251 ], [ 55.5727983, -21.1335824 ] ] ] ]
    }
  }, {
    "type" : "Feature",
    "properties" : {
      "osm_id" : 1282217,
      "admin_level" : "8",
      "country_code" : "RE",
      "name" : "L'Étang-Salé",
      "population" : "13836",
      "wikidata" : "Q1014771",
      "wikipedia" : "fr:L'Étang-Salé",
      "name_props" : {
        "name:fr" : "L'Étang-Salé",
        "name:ja" : "レタン・サレ"
      },
      "parent_boundary_id" : 77601
    },
    "geometry" : {
      "type" : "MultiPolygon",
      "coordinates" : [ [ [ [ 55.3317899, -21.2629959 ], [ 55.3316073, -21.260823 ], [ 55.3304276, -21.2587113 ], [ 55.3220065, -21.2528901 ], [ 55.3236384, -21.2503312 ], [ 55.3246506, -21.2468011 ], [ 55.3274876, -21.2472451 ], [ 55.3309806, -21.2499464 ], [ 55.3375902, -21.2509574 ], [ 55.3409133, -21.252202 ], [ 55.3426892, -21.2521745 ], [ 55.3426098, -21.2514672 ], [ 55.348255, -21.2528089 ], [ 55.3478081, -21.2544578 ], [ 55.3484561, -21.2542394 ], [ 55.3487032, -21.2551871 ], [ 55.3521639, -21.257788 ], [ 55.3544702, -21.2587384 ], [ 55.3549392, -21.2584553 ], [ 55.3526383, -21.2548467 ], [ 55.3538003, -21.251143 ], [ 55.3550487, -21.2499698 ], [ 55.3569076, -21.2453708 ], [ 55.3571874, -21.2436768 ], [ 55.356469, -21.2431959 ], [ 55.3564545, -21.2416693 ], [ 55.357296, -21.2404161 ], [ 55.3579326, -21.235029 ], [ 55.3556349, -21.2312591 ], [ 55.3524518, -21.2313121 ], [ 55.3521692, -21.2289668 ], [ 55.354359, -21.224609 ], [ 55.3540375, -21.2232688 ], [ 55.3564377, -21.2216759 ], [ 55.3562776, -21.2203077 ], [ 55.3583191, -21.2185108 ], [ 55.360161, -21.218601 ], [ 55.3622219, -21.2163115 ], [ 55.3656345, -21.2156612 ], [ 55.3681526, -21.2128833 ], [ 55.3704464, -21.2129139 ], [ 55.3709069, -21.2100339 ], [ 55.3737416, -21.2070661 ], [ 55.3741573, -21.2052345 ], [ 55.3777911, -21.2029262 ], [ 55.3786903, -21.2003542 ], [ 55.3783471, -21.1975391 ], [ 55.3803633, -21.1941959 ], [ 55.3788183, -21.1902429 ], [ 55.3797244, -21.1880319 ], [ 55.3805368, -21.1879675 ], [ 55.3822879, -21.1833014 ], [ 55.3821079, -21.1820516 ], [ 55.3833333, -21.1810112 ], [ 55.3844844, -21.1779051 ], [ 55.385174, -21.1769957 ], [ 55.3870576, -21.1768625 ], [ 55.3859688, -21.1790753 ], [ 55.38584259999999, -21.1815049 ], [ 55.3865129, -21.1825696 ], [ 55.3857414, -21.1843425 ], [ 55.3859443, -21.1857855 ], [ 55.3851413, -21.1867381 ], [ 55.3856757, -21.189786 ], [ 55.382738, -21.1937692 ], [ 55.3826788, -21.1956743 ], [ 55.3815581, -21.1963263 ], [ 55.3824558, -21.1979749 ], [ 55.3828666, -21.2016612 ], [ 55.3848567, -21.2029902 ], [ 55.3861968, -21.2052818 ], [ 55.3881555, -21.2049524 ], [ 55.3892936, -21.2054945 ], [ 55.3894366, -21.2080281 ], [ 55.3912666, -21.2122204 ], [ 55.3896256, -21.216965 ], [ 55.3876523, -21.2328783 ], [ 55.3893018, -21.2411377 ], [ 55.388803, -21.2451067 ], [ 55.3902228, -21.2491387 ], [ 55.3916111, -21.250752 ], [ 55.3918069, -21.2549385 ], [ 55.392913, -21.2583036 ], [ 55.3921352, -21.2589854 ], [ 55.3916206, -21.2618318 ], [ 55.3886812, -21.2646583 ], [ 55.389407, -21.2676604 ], [ 55.3890086, -21.2699549 ], [ 55.3804117, -21.2821304 ], [ 55.3832689, -21.2841292 ], [ 55.3848683, -21.2870698 ], [ 55.3913507, -21.2910304 ], [ 55.3910733, -21.2925517 ], [ 55.3794486, -21.2878066 ], [ 55.3663337, -21.2845836 ], [ 55.358051, -21.2838319 ], [ 55.342959, -21.2809998 ], [ 55.3425598, -21.2817391 ], [ 55.3425871, -21.2812479 ], [ 55.3417689, -21.2807172 ], [ 55.3415792, -21.2817302 ], [ 55.34063, -21.2815754 ], [ 55.3409337, -21.2802724 ], [ 55.3394818, -21.2810168 ], [ 55.338177, -21.278878 ], [ 55.3363567, -21.2783495 ], [ 55.3359964, -21.2774966 ], [ 55.3354635, -21.2779198 ], [ 55.3337238, -21.2761472 ], [ 55.3321987, -21.2724537 ], [ 55.334553, -21.2695362 ], [ 55.3324124, -21.2657335 ], [ 55.3310438, -21.2655668 ], [ 55.3317899, -21.2629959 ] ] ] ]
    }
  }, {
    "type" : "Feature",
    "properties" : {
      "osm_id" : 1282272,
      "admin_level" : "8",
      "country_code" : "RE",
      "name" : "Saint-Joseph",
      "population" : "38807",
      "wikidata" : "Q305275",
      "wikipedia" : "fr:Saint-Joseph (La Réunion)",
      "name_props" : {
        "name:br" : "Sant-Jozeb",
        "name:ja" : "サン＝ジョゼフ",
        "name:rcf" : "Sin-Josèf"
      },
      "parent_boundary_id" : 77601
    },
    "geometry" : {
      "type" : "MultiPolygon",
      "coordinates" : [ [ [ [ 55.584322, -21.3723936 ], [ 55.5831261, -21.372476 ], [ 55.5833933, -21.3711504 ], [ 55.58212549999999, -21.368762 ], [ 55.5831912, -21.3637303 ], [ 55.5841753, -21.364433 ], [ 55.5862429, -21.3629762 ], [ 55.5871192, -21.3634061 ], [ 55.5875527, -21.3612321 ], [ 55.5892967, -21.3594916 ], [ 55.589748, -21.3577744 ], [ 55.5890659, -21.3562795 ], [ 55.5895776, -21.3519999 ], [ 55.588986, -21.3488582 ], [ 55.5898747, -21.3460233 ], [ 55.5889273, -21.3421535 ], [ 55.5899202, -21.3398642 ], [ 55.5892698, -21.3386434 ], [ 55.5899191, -21.3360647 ], [ 55.5856148, -21.3335014 ], [ 55.5849988, -21.3285108 ], [ 55.5873586, -21.3269266 ], [ 55.5878888, -21.3244618 ], [ 55.5870283, -21.323536 ], [ 55.5872546, -21.3202512 ], [ 55.5891018, -21.318952 ], [ 55.5882647, -21.318386 ], [ 55.5889992, -21.3171308 ], [ 55.5879974, -21.316555 ], [ 55.5906604, -21.3145828 ], [ 55.589642, -21.3132371 ], [ 55.5959883, -21.3099098 ], [ 55.5981479, -21.307026 ], [ 55.5993469, -21.307183 ], [ 55.600768, -21.3052135 ], [ 55.6002726, -21.3034331 ], [ 55.6007804, -21.3022795 ], [ 55.6055414, -21.2976787 ], [ 55.603769, -21.2909544 ], [ 55.6044261, -21.2878412 ], [ 55.6047362, -21.2858634 ], [ 55.6035177, -21.2825744 ], [ 55.6037051, -21.2781474 ], [ 55.6025086, -21.2772817 ], [ 55.60166069999999, -21.2724975 ], [ 55.6014454, -21.2691382 ], [ 55.602843, -21.2645826 ], [ 55.6018861, -21.2622761 ], [ 55.600026, -21.2581601 ], [ 55.600626, -21.2559635 ], [ 55.6001629, -21.2530356 ], [ 55.6015038, -21.2489423 ], [ 55.6010157, -21.2467585 ], [ 55.6048519, -21.2415713 ], [ 55.6053096, -21.2377667 ], [ 55.6043986, -21.2351271 ], [ 55.6049243, -21.2286716 ], [ 55.6069382, -21.2261349 ], [ 55.6079429, -21.2222188 ], [ 55.6124488, -21.2154349 ], [ 55.61364789999999, -21.2145639 ], [ 55.6134973, -21.2131141 ], [ 55.6154965, -21.2092931 ], [ 55.6184621, -21.2066568 ], [ 55.6210406, -21.2059862 ], [ 55.6259583, -21.2013667 ], [ 55.6274065, -21.2009056 ], [ 55.6305395, -21.1969397 ], [ 55.6346257, -21.1950021 ], [ 55.6364092, -21.1943692 ], [ 55.6385967, -21.1951353 ], [ 55.643917, -21.1998079 ], [ 55.6490134, -21.2016848 ], [ 55.651647, -21.2056915 ], [ 55.6542609, -21.2120064 ], [ 55.6549978, -21.2166773 ], [ 55.653998, -21.2188363 ], [ 55.6545935, -21.2202279 ], [ 55.6538546, -21.2233264 ], [ 55.6530774, -21.2253807 ], [ 55.6503631, -21.2280663 ], [ 55.6502225, -21.2298039 ], [ 55.6470707, -21.234363 ], [ 55.64748190000001, -21.2365433 ], [ 55.6490689, -21.2371896 ], [ 55.6787577, -21.2400753 ], [ 55.6783185, -21.2457807 ], [ 55.6819062, -21.263539 ], [ 55.6860261, -21.2709536 ], [ 55.6896911, -21.273857 ], [ 55.6947049, -21.2753408 ], [ 55.6909867, -21.2829926 ], [ 55.6914847, -21.2882165 ], [ 55.6908249, -21.2936074 ], [ 55.6879752, -21.301701 ], [ 55.6879308, -21.3036878 ], [ 55.6935642, -21.3227541 ], [ 55.696352, -21.3281664 ], [ 55.6966541, -21.3307268 ], [ 55.6991392, -21.33299 ], [ 55.699099, -21.3378172 ], [ 55.697435, -21.3385552 ], [ 55.6985239, -21.342027 ], [ 55.6983871, -21.3451619 ], [ 55.6975569, -21.3468406 ], [ 55.6991455, -21.3510699 ], [ 55.6992127, -21.3540839 ], [ 55.7001307, -21.3544712 ], [ 55.6999579, -21.3566024 ], [ 55.7041622, -21.3610356 ], [ 55.7054514, -21.3658375 ], [ 55.7049419, -21.3697587 ], [ 55.7056605, -21.3712059 ], [ 55.7051219, -21.3724899 ], [ 55.7035264, -21.3730454 ], [ 55.7002759, -21.3763877 ], [ 55.6979858, -21.3755331 ], [ 55.6937773, -21.3759779 ], [ 55.6850684, -21.3744716 ], [ 55.6804384, -21.3747629 ], [ 55.6783905, -21.3758059 ], [ 55.6773523, -21.3771574 ], [ 55.677548, -21.3792382 ], [ 55.6756857, -21.3788417 ], [ 55.6744296, -21.3803449 ], [ 55.674664, -21.3819222 ], [ 55.6736514, -21.3815758 ], [ 55.672257, -21.3826966 ], [ 55.6713052, -21.3839073 ], [ 55.6674149, -21.3835494 ], [ 55.6670878, -21.3827974 ], [ 55.6663393, -21.3835276 ], [ 55.6638257, -21.3823676 ], [ 55.6598154, -21.3826054 ], [ 55.6575471, -21.3834113 ], [ 55.6501729, -21.386804 ], [ 55.6500946, -21.3879962 ], [ 55.6490738, -21.3889878 ], [ 55.6469315, -21.389037 ], [ 55.6464354, -21.3897087 ], [ 55.6440682, -21.3874774 ], [ 55.6429125, -21.3873316 ], [ 55.6436308, -21.3862876 ], [ 55.6437142, -21.3856658 ], [ 55.6434936, -21.3855924 ], [ 55.6429856, -21.3851388 ], [ 55.6378786, -21.382853 ], [ 55.6316473, -21.3825014 ], [ 55.6240084, -21.3830688 ], [ 55.6205522, -21.384726 ], [ 55.6167218, -21.3859456 ], [ 55.6123205, -21.3864034 ], [ 55.60952609999999, -21.3870052 ], [ 55.6023147, -21.3836334 ], [ 55.5983278, -21.3785852 ], [ 55.5953071, -21.3786093 ], [ 55.5941283, -21.3772819 ], [ 55.5903017, -21.3765389 ], [ 55.5898462, -21.3759456 ], [ 55.5894588, -21.3744845 ], [ 55.5867848, -21.3716449 ], [ 55.584322, -21.3723936 ] ] ] ]
    }
  }, {
    "type" : "Feature",
    "properties" : {
      "osm_id" : 1282323,
      "admin_level" : "8",
      "country_code" : "RE",
      "name" : "Petite-Île",
      "population" : "12617",
      "wikidata" : "Q1326390",
      "wikipedia" : "fr:Petite-Île",
      "name_props" : {
        "name:br" : "Enezig",
        "name:ja" : "プティット・イル"
      },
      "parent_boundary_id" : 77601
    },
    "geometry" : {
      "type" : "MultiPolygon",
      "coordinates" : [ [ [ [ 55.568242, -21.3776946 ], [ 55.5672895, -21.3774786 ], [ 55.5667287, -21.3781723 ], [ 55.5678762, -21.3766278 ], [ 55.5683979, -21.3758442 ], [ 55.5690383, -21.3760782 ], [ 55.568566, -21.3767854 ], [ 55.568242, -21.3776946 ] ] ], [ [ [ 55.5359966, -21.3631553 ], [ 55.5360651, -21.3605891 ], [ 55.5370905, -21.3598636 ], [ 55.5373813, -21.3577913 ], [ 55.538316, -21.3565478 ], [ 55.5373906, -21.3554649 ], [ 55.537912, -21.3516407 ], [ 55.5388668, -21.3506043 ], [ 55.5386752, -21.3491256 ], [ 55.5405345, -21.3472224 ], [ 55.5417699, -21.3440102 ], [ 55.5417289, -21.3418815 ], [ 55.5433216, -21.340009 ], [ 55.5428814, -21.3391997 ], [ 55.5443073, -21.3362351 ], [ 55.5436633, -21.3347434 ], [ 55.5446122, -21.334291 ], [ 55.5450456, -21.3322337 ], [ 55.5436199, -21.3266658 ], [ 55.5458145, -21.3244874 ], [ 55.5466715, -21.3225755 ], [ 55.5481381, -21.3220747 ], [ 55.5484015, -21.3210016 ], [ 55.5496111, -21.321417 ], [ 55.5517595, -21.3206627 ], [ 55.5537827, -21.3186817 ], [ 55.5570791, -21.3174464 ], [ 55.5575618, -21.3178701 ], [ 55.5576017, -21.3173237 ], [ 55.5606568, -21.3159755 ], [ 55.5682303, -21.3163716 ], [ 55.5701451, -21.3139865 ], [ 55.5717469, -21.3137797 ], [ 55.5729239, -21.3121308 ], [ 55.5791423, -21.3106704 ], [ 55.5795815, -21.3097872 ], [ 55.5804453, -21.309875 ], [ 55.5810921, -21.3056497 ], [ 55.5822771, -21.304076 ], [ 55.584388, -21.3043762 ], [ 55.5859443, -21.3020582 ], [ 55.5877427, -21.301087 ], [ 55.5883567, -21.2981713 ], [ 55.5908836, -21.2961535 ], [ 55.59203, -21.2962117 ], [ 55.592664, -21.2931287 ], [ 55.5943012, -21.2917242 ], [ 55.5937674, -21.2902741 ], [ 55.5961383, -21.2891046 ], [ 55.6044261, -21.2878412 ], [ 55.603769, -21.2909544 ], [ 55.6055414, -21.2976787 ], [ 55.6007804, -21.3022795 ], [ 55.6002726, -21.3034331 ], [ 55.600768, -21.3052135 ], [ 55.5993469, -21.307183 ], [ 55.5981479, -21.307026 ], [ 55.5959883, -21.3099098 ], [ 55.589642, -21.3132371 ], [ 55.5906604, -21.3145828 ], [ 55.5879974, -21.316555 ], [ 55.5889992, -21.3171308 ], [ 55.5882647, -21.318386 ], [ 55.5891018, -21.318952 ], [ 55.5872546, -21.3202512 ], [ 55.5870283, -21.323536 ], [ 55.5878888, -21.3244618 ], [ 55.5873586, -21.3269266 ], [ 55.5849988, -21.3285108 ], [ 55.5856148, -21.3335014 ], [ 55.5899191, -21.3360647 ], [ 55.5892698, -21.3386434 ], [ 55.5899202, -21.3398642 ], [ 55.5889273, -21.3421535 ], [ 55.5898747, -21.3460233 ], [ 55.588986, -21.3488582 ], [ 55.5895776, -21.3519999 ], [ 55.5890659, -21.3562795 ], [ 55.589748, -21.3577744 ], [ 55.5892967, -21.3594916 ], [ 55.5875527, -21.3612321 ], [ 55.5871192, -21.3634061 ], [ 55.5862429, -21.3629762 ], [ 55.5841753, -21.364433 ], [ 55.5831912, -21.3637303 ], [ 55.58212549999999, -21.368762 ], [ 55.5833933, -21.3711504 ], [ 55.5831261, -21.372476 ], [ 55.5774624, -21.3741332 ], [ 55.5747416, -21.3760834 ], [ 55.5743639, -21.3756838 ], [ 55.5718405, -21.3763312 ], [ 55.5682136, -21.3751946 ], [ 55.5674466, -21.3739837 ], [ 55.5646994, -21.3726785 ], [ 55.5629399, -21.3722789 ], [ 55.5605655, -21.3730257 ], [ 55.5586913, -21.372159 ], [ 55.557275, -21.3725666 ], [ 55.5563738, -21.3720311 ], [ 55.5564685, -21.3713628 ], [ 55.5559498, -21.3718787 ], [ 55.5548894, -21.3710265 ], [ 55.5536887, -21.3713786 ], [ 55.5537804, -21.3726955 ], [ 55.5524734, -21.3724558 ], [ 55.5510542, -21.3743401 ], [ 55.5503349, -21.3741738 ], [ 55.5495813, -21.371151 ], [ 55.5480493, -21.3695932 ], [ 55.5448087, -21.3676056 ], [ 55.5429604, -21.3679538 ], [ 55.5419714, -21.3666199 ], [ 55.5389838, -21.3654031 ], [ 55.5382836, -21.3639432 ], [ 55.5359966, -21.3631553 ] ] ] ]
    }
  }, {
    "type" : "Feature",
    "properties" : {
      "osm_id" : 1282331,
      "admin_level" : "8",
      "country_code" : "RE",
      "name" : "Les Avirons",
      "population" : "11434",
      "wikidata" : "Q1014814",
      "wikipedia" : "fr:Les Avirons",
      "name_props" : {
        "name:fr" : "Les Avirons",
        "name:ja" : "レ・アビロン"
      },
      "parent_boundary_id" : 77601
    },
    "geometry" : {
      "type" : "MultiPolygon",
      "coordinates" : [ [ [ [ 55.3220065, -21.2528901 ], [ 55.3202357, -21.2520902 ], [ 55.3211005, -21.2511638 ], [ 55.320582, -21.24924 ], [ 55.3228224, -21.247869 ], [ 55.3239782, -21.2444777 ], [ 55.3232181, -21.2427497 ], [ 55.3253218, -21.2394712 ], [ 55.3252301, -21.237612 ], [ 55.3286221, -21.2339483 ], [ 55.3285936, -21.2313572 ], [ 55.3299364, -21.2312487 ], [ 55.3310151, -21.2299542 ], [ 55.3321391, -21.2300869 ], [ 55.3336816, -21.2255138 ], [ 55.3355101, -21.2236929 ], [ 55.3358866, -21.2219 ], [ 55.3348693, -21.2165927 ], [ 55.3373285, -21.2162362 ], [ 55.3369479, -21.2143548 ], [ 55.3379176, -21.2124746 ], [ 55.3374558, -21.2117871 ], [ 55.3407772, -21.2096518 ], [ 55.3413956, -21.2078445 ], [ 55.3431294, -21.2067042 ], [ 55.3433344, -21.2045378 ], [ 55.3467044, -21.2029201 ], [ 55.3481573, -21.1994659 ], [ 55.3497999, -21.199097 ], [ 55.3524909, -21.1949628 ], [ 55.3546548, -21.1937477 ], [ 55.3565799, -21.1913368 ], [ 55.3599837, -21.1899809 ], [ 55.3605708, -21.1889396 ], [ 55.363727, -21.1848577 ], [ 55.3678568, -21.1830674 ], [ 55.3690451, -21.1804113 ], [ 55.3742305, -21.1754377 ], [ 55.3761865, -21.1744182 ], [ 55.3780919, -21.1704728 ], [ 55.3816568, -21.1688411 ], [ 55.3831674, -21.1673114 ], [ 55.3866369, -21.1598551 ], [ 55.3885735, -21.1574774 ], [ 55.395778, -21.1545606 ], [ 55.3970324, -21.1527859 ], [ 55.3979262, -21.152791 ], [ 55.3994554, -21.1507963 ], [ 55.4017342, -21.1493242 ], [ 55.4026873, -21.1469678 ], [ 55.4055658, -21.1446809 ], [ 55.4054166, -21.1470199 ], [ 55.4022122, -21.1539114 ], [ 55.4017465, -21.1575522 ], [ 55.3997965, -21.1603193 ], [ 55.3997575, -21.1633013 ], [ 55.3979079, -21.1645306 ], [ 55.3972773, -21.1662471 ], [ 55.3957685, -21.1670136 ], [ 55.3950049, -21.1684106 ], [ 55.3938622, -21.1683079 ], [ 55.391853, -21.1694142 ], [ 55.390756, -21.1709064 ], [ 55.3904497, -21.1736759 ], [ 55.3883939, -21.1768093 ], [ 55.3893636, -21.1796467 ], [ 55.3888477, -21.1823912 ], [ 55.3874975, -21.1856002 ], [ 55.3859443, -21.1857855 ], [ 55.3857414, -21.1843425 ], [ 55.3865129, -21.1825696 ], [ 55.38584259999999, -21.1815049 ], [ 55.3859688, -21.1790753 ], [ 55.3870576, -21.1768625 ], [ 55.385174, -21.1769957 ], [ 55.3844844, -21.1779051 ], [ 55.3833333, -21.1810112 ], [ 55.3821079, -21.1820516 ], [ 55.3822879, -21.1833014 ], [ 55.3805368, -21.1879675 ], [ 55.3797244, -21.1880319 ], [ 55.3788183, -21.1902429 ], [ 55.3803633, -21.1941959 ], [ 55.3783471, -21.1975391 ], [ 55.3786903, -21.2003542 ], [ 55.3777911, -21.2029262 ], [ 55.3741573, -21.2052345 ], [ 55.3737416, -21.2070661 ], [ 55.3709069, -21.2100339 ], [ 55.3704464, -21.2129139 ], [ 55.3681526, -21.2128833 ], [ 55.3656345, -21.2156612 ], [ 55.3622219, -21.2163115 ], [ 55.360161, -21.218601 ], [ 55.3583191, -21.2185108 ], [ 55.3562776, -21.2203077 ], [ 55.3564377, -21.2216759 ], [ 55.3540375, -21.2232688 ], [ 55.354359, -21.224609 ], [ 55.3521692, -21.2289668 ], [ 55.3524518, -21.2313121 ], [ 55.3556349, -21.2312591 ], [ 55.3579326, -21.235029 ], [ 55.357296, -21.2404161 ], [ 55.3564545, -21.2416693 ], [ 55.356469, -21.2431959 ], [ 55.3571874, -21.2436768 ], [ 55.3569076, -21.2453708 ], [ 55.3550487, -21.2499698 ], [ 55.3538003, -21.251143 ], [ 55.3526383, -21.2548467 ], [ 55.3549392, -21.2584553 ], [ 55.3544702, -21.2587384 ], [ 55.3521639, -21.257788 ], [ 55.3487032, -21.2551871 ], [ 55.3484561, -21.2542394 ], [ 55.3478081, -21.2544578 ], [ 55.348255, -21.2528089 ], [ 55.3426098, -21.2514672 ], [ 55.3426892, -21.2521745 ], [ 55.3409133, -21.252202 ], [ 55.3375902, -21.2509574 ], [ 55.3309806, -21.2499464 ], [ 55.3274876, -21.2472451 ], [ 55.3246506, -21.2468011 ], [ 55.3236384, -21.2503312 ], [ 55.3220065, -21.2528901 ] ] ] ]
    }
  }, {
    "type" : "Feature",
    "properties" : {
      "osm_id" : 1282342,
      "admin_level" : "8",
      "country_code" : "RE",
      "name" : "Saint-Philippe",
      "population" : "5074",
      "wikidata" : "Q652100",
      "wikipedia" : "fr:Saint-Philippe (La Réunion)",
      "name_props" : {
        "name:br" : "Sant-Fulup",
        "name:ja" : "サン＝フィリップ"
      },
      "parent_boundary_id" : 77601
    },
    "geometry" : {
      "type" : "MultiPolygon",
      "coordinates" : [ [ [ [ 55.6947049, -21.2753408 ], [ 55.6896911, -21.273857 ], [ 55.6860261, -21.2709536 ], [ 55.6819062, -21.263539 ], [ 55.6783185, -21.2457807 ], [ 55.6787577, -21.2400753 ], [ 55.6893699, -21.2411045 ], [ 55.8044335, -21.2518146 ], [ 55.80316409999999, -21.2549566 ], [ 55.8035473, -21.2563171 ], [ 55.8024348, -21.2565758 ], [ 55.8017193, -21.2620087 ], [ 55.8033435, -21.2658567 ], [ 55.8041215, -21.2716992 ], [ 55.8031284, -21.2769808 ], [ 55.8034951, -21.2777725 ], [ 55.806158, -21.2846141 ], [ 55.8083577, -21.287673 ], [ 55.8072874, -21.2913217 ], [ 55.8056275, -21.2928423 ], [ 55.8051781, -21.2947492 ], [ 55.805701, -21.2976913 ], [ 55.8050409, -21.3012753 ], [ 55.8047301, -21.3024702 ], [ 55.804773, -21.3040534 ], [ 55.8053829, -21.3043616 ], [ 55.8044978, -21.3046973 ], [ 55.805319, -21.306001 ], [ 55.8045803, -21.3064819 ], [ 55.805259, -21.3070633 ], [ 55.8038948, -21.3093016 ], [ 55.8047618, -21.3105359 ], [ 55.804693, -21.3132944 ], [ 55.8053452, -21.3154388 ], [ 55.8047555, -21.3154808 ], [ 55.8048377, -21.3164231 ], [ 55.8058993, -21.3175378 ], [ 55.8050965, -21.3195186 ], [ 55.8061671, -21.3256629 ], [ 55.8085536, -21.3297147 ], [ 55.8093766, -21.3309906 ], [ 55.8074272, -21.3366538 ], [ 55.8047199, -21.3393562 ], [ 55.7990676, -21.3481288 ], [ 55.7974803, -21.3491244 ], [ 55.7972932, -21.3503804 ], [ 55.7929041, -21.3519271 ], [ 55.7915271, -21.3539051 ], [ 55.78898, -21.3544445 ], [ 55.7866537, -21.35724 ], [ 55.7835227, -21.3590932 ], [ 55.78297, -21.3603358 ], [ 55.7834236, -21.3613647 ], [ 55.7820559, -21.3607287 ], [ 55.7815904, -21.3616652 ], [ 55.7790459, -21.3624319 ], [ 55.7790723, -21.3630633 ], [ 55.7770573, -21.3633154 ], [ 55.7751159, -21.3645361 ], [ 55.7753222, -21.3654692 ], [ 55.7743855, -21.3651221 ], [ 55.7738269, -21.3656677 ], [ 55.7740261, -21.365179 ], [ 55.7727281, -21.3648328 ], [ 55.7722059, -21.3654436 ], [ 55.7708542, -21.365244 ], [ 55.7707907, -21.365693 ], [ 55.7691361, -21.3648104 ], [ 55.7679305, -21.3656349 ], [ 55.7660927, -21.3643376 ], [ 55.7635516, -21.3634335 ], [ 55.7603009, -21.364322 ], [ 55.759169, -21.3633465 ], [ 55.7568935, -21.3629301 ], [ 55.7549792, -21.3634548 ], [ 55.7539307, -21.3646074 ], [ 55.7530443, -21.3663044 ], [ 55.7504342, -21.367516 ], [ 55.7433151, -21.3689976 ], [ 55.7381188, -21.368757899999988 ], [ 55.7348668, -21.3691325 ], [ 55.7341942, -21.3686582 ], [ 55.7329347, -21.3697361 ], [ 55.7313378, -21.3695567 ], [ 55.7312637, -21.3705158 ], [ 55.7300265, -21.3692674 ], [ 55.7270239, -21.3700381 ], [ 55.7256832, -21.3705073 ], [ 55.7249591, -21.3716185 ], [ 55.7235064, -21.37148 ], [ 55.7233532, -21.3722015 ], [ 55.7213731, -21.3728173 ], [ 55.7213633, -21.373363 ], [ 55.7187181, -21.3737813 ], [ 55.7169738, -21.3749006 ], [ 55.711524, -21.3749262 ], [ 55.7107705, -21.3754304 ], [ 55.7109467, -21.3762668 ], [ 55.7104466, -21.3753766 ], [ 55.708527, -21.3763691 ], [ 55.7081888, -21.3758286 ], [ 55.7078852, -21.3764818 ], [ 55.7046294, -21.3762598 ], [ 55.7026948, -21.3768129 ], [ 55.7004365, -21.376494 ], [ 55.7002759, -21.3763877 ], [ 55.7035264, -21.3730454 ], [ 55.7051219, -21.3724899 ], [ 55.7056605, -21.3712059 ], [ 55.7049419, -21.3697587 ], [ 55.7054514, -21.3658375 ], [ 55.7041622, -21.3610356 ], [ 55.6999579, -21.3566024 ], [ 55.7001307, -21.3544712 ], [ 55.6992127, -21.3540839 ], [ 55.6991455, -21.3510699 ], [ 55.6975569, -21.3468406 ], [ 55.6983871, -21.3451619 ], [ 55.6985239, -21.342027 ], [ 55.697435, -21.3385552 ], [ 55.699099, -21.3378172 ], [ 55.6991392, -21.33299 ], [ 55.6966541, -21.3307268 ], [ 55.696352, -21.3281664 ], [ 55.6935642, -21.3227541 ], [ 55.6879308, -21.3036878 ], [ 55.6879752, -21.301701 ], [ 55.6908249, -21.2936074 ], [ 55.6914847, -21.2882165 ], [ 55.6909867, -21.2829926 ], [ 55.6947049, -21.2753408 ] ] ] ]
    }
  }, {
    "type" : "Feature",
    "properties" : {
      "osm_id" : 246837430,
      "from_osm" : true,
      "boundary_id" : 77601
    },
    "geometry" : {
      "type" : "Point",
      "coordinates" : [ 55.448137, -20.8799889 ]
    }
  }, {
    "type" : "Feature",
    "properties" : {
      "osm_id" : 246837430,
      "from_osm" : true,
      "boundary_id" : 192468
    },
    "geometry" : {
      "type" : "Point",
      "coordinates" : [ 55.448137, -20.8799889 ]
    }
  }, {
    "type" : "Feature",
    "properties" : {
      "osm_id" : 853602239,
      "from_osm" : true,
      "boundary_id" : 278304
    },
    "geometry" : {
      "type" : "Point",
      "coordinates" : [ 55.3362758, -20.9269658 ]
    }
  }, {
    "type" : "Feature",
    "properties" : {
      "osm_id" : 299983594,
      "from_osm" : true,
      "boundary_id" : 278305
    },
    "geometry" : {
      "type" : "Point",
      "coordinates" : [ 55.543545, -21.0243835 ]
    }
  }, {
    "type" : "Feature",
    "properties" : {
      "osm_id" : 246840320,
      "from_osm" : true,
      "boundary_id" : 278308
    },
    "geometry" : {
      "type" : "Point",
      "coordinates" : [ 55.2771585, -21.0006099 ]
    }
  }, {
    "type" : "Feature",
    "properties" : {
      "osm_id" : 1824134704,
      "from_osm" : true,
      "boundary_id" : 278309
    },
    "geometry" : {
      "type" : "Point",
      "coordinates" : [ 55.472515, -21.1360575 ]
    }
  }, {
    "type" : "Feature",
    "properties" : {
      "osm_id" : 999426236,
      "from_osm" : true,
      "boundary_id" : 278311
    },
    "geometry" : {
      "type" : "Point",
      "coordinates" : [ 55.2916763, -20.9354584 ]
    }
  }, {
    "type" : "Feature",
    "properties" : {
      "osm_id" : 300036005,
      "from_osm" : true,
      "boundary_id" : 278344
    },
    "geometry" : {
      "type" : "Point",
      "coordinates" : [ 55.2980692, -21.1044386 ]
    }
  }, {
    "type" : "Feature",
    "properties" : {
      "osm_id" : 559220970,
      "from_osm" : true,
      "boundary_id" : 280102
    },
    "geometry" : {
      "type" : "Point",
      "coordinates" : [ 55.6061552, -20.9043227 ]
    }
  }, {
    "type" : "Feature",
    "properties" : {
      "osm_id" : 559379860,
      "from_osm" : true,
      "boundary_id" : 280118
    },
    "geometry" : {
      "type" : "Point",
      "coordinates" : [ 55.6492731, -20.9606333 ]
    }
  }, {
    "type" : "Feature",
    "properties" : {
      "osm_id" : 559379863,
      "from_osm" : true,
      "boundary_id" : 280167
    },
    "geometry" : {
      "type" : "Point",
      "coordinates" : [ 55.6847941, -20.9987435 ]
    }
  }, {
    "type" : "Feature",
    "properties" : {
      "osm_id" : 246838029,
      "from_osm" : true,
      "boundary_id" : 280168
    },
    "geometry" : {
      "type" : "Point",
      "coordinates" : [ 55.7131508, -21.033188 ]
    }
  }, {
    "type" : "Feature",
    "properties" : {
      "osm_id" : 300018212,
      "from_osm" : true,
      "boundary_id" : 280198
    },
    "geometry" : {
      "type" : "Point",
      "coordinates" : [ 55.7922999, -21.1277445 ]
    }
  }, {
    "type" : "Feature",
    "properties" : {
      "osm_id" : 462269342,
      "from_osm" : true,
      "boundary_id" : 280212
    },
    "geometry" : {
      "type" : "Point",
      "coordinates" : [ 55.551734, -20.8968602 ]
    }
  }, {
    "type" : "Feature",
    "properties" : {
      "osm_id" : 411762897,
      "from_osm" : true,
      "boundary_id" : 289451
    },
    "geometry" : {
      "type" : "Point",
      "coordinates" : [ 55.2881932, -21.1677694 ]
    }
  }, {
    "type" : "Feature",
    "properties" : {
      "osm_id" : 2365356739,
      "from_osm" : true,
      "boundary_id" : 315484
    },
    "geometry" : {
      "type" : "Point",
      "coordinates" : [ 55.4776174, -21.341298 ]
    }
  }, {
    "type" : "Feature",
    "properties" : {
      "osm_id" : 369789610,
      "from_osm" : true,
      "boundary_id" : 317234
    },
    "geometry" : {
      "type" : "Point",
      "coordinates" : [ 55.4700859, -21.2486585 ]
    }
  }, {
    "type" : "Feature",
    "properties" : {
      "osm_id" : 300009221,
      "from_osm" : true,
      "boundary_id" : 317239
    },
    "geometry" : {
      "type" : "Point",
      "coordinates" : [ 55.5164178, -21.2774285 ]
    }
  }, {
    "type" : "Feature",
    "properties" : {
      "osm_id" : 559379858,
      "from_osm" : true,
      "boundary_id" : 317242
    },
    "geometry" : {
      "type" : "Point",
      "coordinates" : [ 55.6399545, -21.1360638 ]
    }
  }, {
    "type" : "Feature",
    "properties" : {
      "osm_id" : 2291603268,
      "from_osm" : true,
      "boundary_id" : 1282217
    },
    "geometry" : {
      "type" : "Point",
      "coordinates" : [ 55.3668941, -21.2657819 ]
    }
  }, {
    "type" : "Feature",
    "properties" : {
      "osm_id" : 300009452,
      "from_osm" : true,
      "boundary_id" : 1282229
    },
    "geometry" : {
      "type" : "Point",
      "coordinates" : [ 55.4135962, -21.2840124 ]
    }
  }, {
    "type" : "Feature",
    "properties" : {
      "osm_id" : 1722721815,
      "from_osm" : true,
      "boundary_id" : 1282272
    },
    "geometry" : {
      "type" : "Point",
      "coordinates" : [ 55.6190645, -21.3789306 ]
    }
  }, {
    "type" : "Feature",
    "properties" : {
      "osm_id" : 300015839,
      "from_osm" : true,
      "boundary_id" : 1282323
    },
    "geometry" : {
      "type" : "Point",
      "coordinates" : [ 55.5646526, -21.3538884 ]
    }
  }, {
    "type" : "Feature",
    "properties" : {
      "osm_id" : 761608719,
      "from_osm" : true,
      "boundary_id" : 1282331
    },
    "geometry" : {
      "type" : "Point",
      "coordinates" : [ 55.3357911, -21.2423582 ]
    }
  }, {
    "type" : "Feature",
    "properties" : {
      "osm_id" : 4929500039,
      "from_osm" : true,
      "boundary_id" : 1282342
    },
    "geometry" : {
      "type" : "Point",
      "coordinates" : [ 55.7676911, -21.359598 ]
    }
  }, {
    "type" : "Feature",
    "properties" : {
      "osm_id" : 246837430,
      "from_osm" : true,
      "boundary_id" : 2470060
    },
    "geometry" : {
      "type" : "Point",
      "coordinates" : [ 55.448137, -20.8799889 ]
    }
  }, {
    "type" : "Feature",
    "properties" : {
      "osm_id" : null,
      "from_osm" : false,
      "boundary_id" : 2202162
    },
    "geometry" : {
      "type" : "Point",
      "coordinates" : [ 55.52825089936418, -21.1320148 ]
    }
  } ]
}